Province,County,Zip,GB1999,FullName,Latitude,Longitude
江西省,南昌市,330000,p360000/c360100/x,江西省南昌市, 28.682892 , 115.858198
江西省,景德镇市,333000,p360000/c360200/x,江西省景德镇市, 29.268836 , 117.178420
江西省,萍乡市,337000,p360000/c360300/x,江西省萍乡市, 27.622768 , 113.854556
江西省,九江市,332000,p360000/c360400/x,江西省九江市, 29.705078 , 116.001930
江苏省,南京市,210000,p320000/c320100/x,江苏省南京市, 32.060255 , 118.796877
江苏省,无锡市,214000,p320000/c320200/x,江苏省无锡市, 31.491170 , 120.311910
江苏省,徐州市,221000,p320000/c320300/x,江苏省徐州市, 34.205768 , 117.284124
江苏省,常州市,213000,p320000/c320400/x,江苏省常州市, 31.811226 , 119.974062
江苏省,苏州市,215000,p320000/c320500/x,江苏省苏州市, 31.298974 , 120.585297
江苏省,南通市,226000,p320000/c320600/x,江苏省南通市, 31.980172 , 120.894291
江苏省,连云港市,222000,p320000/c320700/x,江苏省连云港市, 34.596653 , 119.221611
江苏省,淮安市,223000,p320000/c320800/x,江苏省淮安市, 33.610360 , 119.015288
江苏省,盐城市,224000,p320000/c320900/x,江苏省盐城市, 33.347383 , 120.163562
江苏省,扬州市,225000,p320000/c321000/x,江苏省扬州市, 32.394210 , 119.412966
江苏省,镇江市,212000,p320000/c321100/x,江苏省镇江市, 32.187849 , 119.425836
江苏省,泰州市,225300,p320000/c321200/x,江苏省泰州市, 32.455778 , 119.923116
江苏省,宿迁市,223800,p320000/c321300/x,江苏省宿迁市, 33.963232 , 118.275198
河北省,石家庄市,050000,p130000/c130100/x,河北省石家庄市, 38.042307 , 114.514860
河北省,唐山市,063000,p130000/c130200/x,河北省唐山市, 39.630867 , 118.180194
河北省,秦皇岛市,066000,p130000/c130300/x,河北省秦皇岛市, 39.935385 , 119.600493
河北省,邯郸市,056000,p130000/c130400/x,河北省邯郸市, 36.625657 , 114.538962
河北省,邢台市,054000,p130000/c130500/x,河北省邢台市, 37.070589 , 114.504844
河北省,保定市,071000,p130000/c130600/x,河北省保定市, 38.873891 , 115.464806
河北省,张家口市,075000,p130000/c130700/x,河北省张家口市, 40.767545 , 114.886335
河北省,承德市,067000,p130000/c130800/x,河北省承德市, 40.952942 , 117.962750
河北省,沧州市,061000,p130000/c130900/x,河北省沧州市, 38.304477 , 116.838835
河北省,廊坊市,065000,p130000/c131000/x,河北省廊坊市, 39.538047 , 116.683752
河北省,衡水市,053000,p130000/c131100/x,河北省衡水市, 37.738920 , 115.670177
甘肃省,兰州市,730000,p620000/c620100/x,甘肃省兰州市, 36.061089 , 103.834304
甘肃省,嘉裕关市,735100,p620000/c620200/x,甘肃省嘉裕关市, 39.773130 , 98.289152
甘肃省,金昌市,737100,p620000/c620300/x,甘肃省金昌市, 38.520089 , 102.188043
甘肃省,白银市,730900,p620000/c620400/x,甘肃省白银市, 36.558463 , 104.170134
甘肃省,天水市,741000,p620000/c620500/x,甘肃省天水市, 34.580864 , 105.724947
甘肃省,武威市,733000,p620000/c620600/x,甘肃省武威市, 37.928262 , 102.638084
甘肃省,张掖市,734000,p620000/c620700/x,甘肃省张掖市, 38.925875 , 100.449818
甘肃省,平凉市,744000,p620000/c620800/x,甘肃省平凉市, 35.543061 , 106.665131
甘肃省,酒泉市,735000,p620000/c620900/x,甘肃省酒泉市, 39.732819 , 98.494352
甘肃省,庆阳市,745000,p620000/c621000/x,甘肃省庆阳市, 35.709077 , 107.643631
甘肃省,定西市,743000,p620000/c621100/x,甘肃省定西市, 35.580663 , 104.626282
甘肃省,陇南市,746000,p620000/c621200/x,甘肃省陇南市, 33.400685 , 104.921841
甘肃省,临夏州,731100,p620000/c622900/x,甘肃省临夏州, 35.601182 , 103.210539
甘肃省,甘南藏族自治州,747000,p620000/c623000/x,甘肃省甘南藏族自治州, 34.983386 , 102.911027
天津市,天津市,300000,p120000/c120000/x,天津市天津市, 39.136253 , 117.209479
天津市,塘沽区,300450,p120000/c120107/x,天津市塘沽区, 39.027553 , 117.641712
天津市,汉沽区,300480,p120000/c120108/x,天津市汉沽区, 39.330044 , 117.882273
天津市,大港区,300200,p120000/c120109/x,天津市大港区, 38.844446 , 117.460479
天津市,东丽区,300300,p120000/c120110/x,天津市东丽区, 39.086569 , 117.314324
天津市,西青区,300300,p120000/c120111/x,天津市西青区, 39.141145 , 117.008874
天津市,津南区,300300,p120000/c120112/x,天津市津南区, 38.937929 , 117.357260
天津市,北辰区,300400,p120000/c120113/x,天津市北辰区, 39.221484 , 117.132440
天津市,武清县,301700,p120000/c120114/x,天津市武清县, 39.511434 , 116.944438
天津市,宝坻区,301800,p120000/c120115/x,天津市宝坻区, 39.717560 , 117.309865
天津市,宁河县,301500,p120000/c120221/x,天津市宁河县, 39.330613 , 117.824898
天津市,静海县,301600,p120000/c120223/x,天津市静海县, 38.947512 , 116.974130
天津市,蓟县,301900,p120000/c120225/x,天津市蓟县, 40.027020 , 117.397322
海南省,海口市,570000,p460000/c460100/x,海南省海口市, 20.044002 , 110.198293
海南省,三亚市,572000,p460000/c460200/x,海南省三亚市, 18.252847 , 109.511909
贵州省,贵阳市,550000,p520000/c520100/x,贵州省贵阳市, 26.647661 , 106.630154
贵州省,六盘水市,553000,p520000/c520200/x,贵州省六盘水市, 26.592666 , 104.830359
贵州省,遵义市,563000,p520000/c520300/x,贵州省遵义市, 27.725654 , 106.927389
贵州省,安顺市,561000,p520000/c520400/x,贵州省安顺市, 26.253072 , 105.947594
贵州省,铜仁地区,554300,p520000/c522200/x,贵州省铜仁地区, 27.717821 , 109.194866
贵州省,黔西南州,562400,p520000/c522300/x,贵州省黔西南州, 25.087825 , 104.906397
贵州省,毕节地区,551700,p520000/c522400/x,贵州省毕节地区, 27.298778 , 105.286245
贵州省,黔东南州,556000,p520000/c522600/x,贵州省黔东南州, 26.583442 , 107.982859
贵州省,黔南州,558000,p520000/c522700/x,贵州省黔南州, 26.254092 , 107.522098
福建省,福州市,350000,p350000/c350100/x,福建省福州市, 26.074508 , 119.296494
福建省,厦门市,361000,p350000/c350200/x,福建省厦门市, 24.479834 , 118.089425
福建省,莆田市,351100,p350000/c350300/x,福建省莆田市, 25.454085 , 119.007777
福建省,三明市,365000,p350000/c350400/x,福建省三明市, 26.263407 , 117.638678
福建省,泉州市,362000,p350000/c350500/x,福建省泉州市, 24.874132 , 118.675676
福建省,漳州市,363000,p350000/c350600/x,福建省漳州市, 24.512949 , 117.647481
福建省,南平市,353000,p350000/c350700/x,福建省南平市, 26.641769 , 118.177708
福建省,龙岩市,364000,p350000/c350800/x,福建省龙岩市, 25.075123 , 117.017537
福建省,宁德市,352100,p350000/c350900/x,福建省宁德市, 26.665617 , 119.547933
山西省,太原市,030000,p140000/c140100/x,山西省太原市, 37.870590 , 112.548879
山西省,大同市,037000,p140000/c140200/x,山西省大同市, 40.076763 , 113.300129
山西省,长治市,046000,p140000/c140400/x,山西省长治市, 36.195386 , 113.116255
山西省,晋城市,048000,p140000/c140500/x,山西省晋城市, 35.490702 , 112.851831
山西省,朔州市,036000,p140000/c140600/x,山西省朔州市, 39.331595 , 112.432825
山西省,晋中市,030600,p140000/c140700/x,山西省晋中市, 37.687024 , 112.752695
山西省,运城市,044000,p140000/c140800/x,山西省运城市, 35.026412 , 111.007529
山西省,忻洲市,034000,p140000/c140900/x,山西省忻洲市, 38.416663 , 112.734174
山西省,临汾市,041000,p140000/c141000/x,山西省临汾市, 36.088005 , 111.518976
山西省,吕梁市,033000,p140000/c141100/x,山西省吕梁市, 37.518314 , 111.144319
西藏自治区,拉萨市,850000,p540000/c540100/x,西藏自治区拉萨市, 29.652491 , 91.172110
西藏自治区,昌都地区,854000,p540000/c542100/x,西藏自治区昌都地区, 31.140969 , 97.172020
西藏自治区,山南地区,856000,p540000/c542200/x,西藏自治区山南地区, 29.237137 , 91.773134
西藏自治区,日喀则地区,857000,p540000/c542300/x,西藏自治区日喀则地区, 29.266870 , 88.880583
西藏自治区,那曲地区,852000,p540000/c542400/x,西藏自治区那曲地区, 31.476202 , 92.051239
西藏自治区,阿里地区,859000,p540000/c542500/x,西藏自治区阿里地区, 32.501111 , 80.105804
西藏自治区,林芝地区,860000,p540000/c542600/x,西藏自治区林芝地区, 29.649128 , 94.361490
江西省,南昌市,330000,p360000/c360100/x,江西省南昌市, 28.682892 , 115.858198
江西省,景德镇市,333000,p360000/c360200/x,江西省景德镇市, 29.268836 , 117.178420
江西省,萍乡市,337000,p360000/c360300/x,江西省萍乡市, 27.622768 , 113.854556
江西省,九江市,332000,p360000/c360400/x,江西省九江市, 29.705078 , 116.001930
江西省,新余市,338000,p360000/c360500/x,江西省新余市, 27.817809 , 114.917347
江西省,鹰潭市,335000,p360000/c360600/x,江西省鹰潭市, 28.260189 , 117.069202
江西省,赣州市,341000,p360000/c360700/x,江西省赣州市, 25.831829 , 114.935030
江西省,吉安市,343000,p360000/c360800/x,江西省吉安市, 27.113443 , 114.992509
江西省,宜春市,336000,p360000/c360900/x,江西省宜春市, 27.815619 , 114.416778
江西省,抚州市,344000,p360000/c361000/x,江西省抚州市, 27.949217 , 116.358182
江西省,上饶市,334000,p360000/c361100/x,江西省上饶市, 28.454863 , 117.943433
吉林省,长春市,130000,p220000/c220100/x,吉林省长春市, 43.817072 , 125.323544
吉林省,吉林市,132000,p220000/c220200/x,吉林省吉林市, 43.837883 , 126.549572
吉林省,四平市,136000,p220000/c220300/x,吉林省四平市, 43.166420 , 124.350398
吉林省,辽源市,136200,p220000/c220400/x,吉林省辽源市, 42.887767 , 125.143660
吉林省,通化市,134000,p220000/c220500/x,吉林省通化市, 41.728401 , 125.939697
吉林省,白山市,134300,p220000/c220600/x,吉林省白山市, 41.926941 , 126.411263
吉林省,松原市,138000,p220000/c220700/x,吉林省松原市, 45.141789 , 124.825118
吉林省,白城市,137000,p220000/c220800/x,吉林省白城市, 45.619588 , 122.838826
吉林省,延边朝鲜州,133000,p220000/c222400/x,吉林省延边朝鲜州, 42.902347 , 129.507162
重庆市,双桥区,400900,p500000/c130800/x500111,重庆市双桥区, 29.465924 , 105.771066
重庆市,重庆市,400000,p500000/c500000/x,重庆市重庆市, 29.549747 , 106.547669
重庆市,万州,404000,p500000/c500101/x,重庆市万州, 30.754217 , 108.399963
重庆市,万州区,404000,p500000/c500101/x,重庆市万州区, 30.807667 , 108.408661
重庆市,涪陵区,408000,p500000/c500102/x,重庆市涪陵区, 29.703113 , 107.389298
重庆市,北碚区,400700,p500000/c500109/x,重庆市北碚区, 29.805108 , 106.395612
重庆市,万盛区,400800,p500000/c500110/x,重庆市万盛区, 28.949273 , 106.926267
重庆市,渝北区,401120,p500000/c500112/x,重庆市渝北区, 29.718560 , 106.630707
重庆市,巴南区,401320,p500000/c500113/x,重庆市巴南区, 29.402408 , 106.540257
重庆市,黔江区,409000,p500000/c500114/x,重庆市黔江区, 29.533610 , 108.770678
重庆市,长寿区,401220,p500000/c500115/x,重庆市长寿区, 29.857996 , 107.081283
重庆市,綦江县,401420,p500000/c500222/x,重庆市綦江县, 29.028067 , 106.651362
重庆市,潼南县,402660,p500000/c500223/x,重庆市潼南县, 30.191013 , 105.840556
重庆市,铜梁县,402560,p500000/c500224/x,重庆市铜梁县, 29.844811 , 106.056404
重庆市,大足县,402360,p500000/c500225/x,重庆市大足县, 29.428826 , 105.740975
重庆市,荣昌县,402460,p500000/c500226/x,重庆市荣昌县, 29.405003 , 105.594623
重庆市,梁平县,405200,p500000/c500228/x,重庆市梁平县, 30.674362 , 107.803911
重庆市,城口县,405900,p500000/c500229/x,重庆市城口县, 31.947633 , 108.664214
重庆市,丰都县,408200,p500000/c500230/x,重庆市丰都县, 29.863500 , 107.730895
重庆市,垫江县,408300,p500000/c500231/x,重庆市垫江县, 30.327717 , 107.333390
重庆市,武隆县,408500,p500000/c500232/x,重庆市武隆县, 29.325601 , 107.760025
重庆市,忠县,404300,p500000/c500233/x,重庆市忠县, 30.299560 , 108.039002
重庆市,开县,405400,p500000/c500234/x,重庆市开县, 31.160711 , 108.393135
重庆市,云阳县,404500,p500000/c500235/x,重庆市云阳县, 30.930613 , 108.697324
重庆市,奉节县,404600,p500000/c500236/x,重庆市奉节县, 31.018498 , 109.463987
重庆市,巫山县,404700,p500000/c500237/x,重庆市巫山县, 31.074834 , 109.879153
重庆市,巫溪县,405800,p500000/c500238/x,重庆市巫溪县, 31.398604 , 109.570062
重庆市,石柱土家族自治县,409100,p500000/c500240/x,重庆市石柱土家族自治县, 29.999285 , 108.114069
重庆市,秀山土家族苗族自治县,409900,p500000/c500241/x,重庆市秀山土家族苗族自治县, 28.447997 , 109.007094
重庆市,酉阳土家族苗族自治县,409800,p500000/c500242/x,重庆市酉阳土家族苗族自治县, 28.841244 , 108.767747
重庆市,彭水苗族土家族自治县,409600,p500000/c500243/x,重庆市彭水苗族土家族自治县, 29.293902 , 108.165538
重庆市,江津市,402260,p500000/c500381/x,重庆市江津市, 29.261333 , 106.240883
重庆市,永川市,402160,p500000/c500383/x,重庆市永川市, 29.340968 , 105.900495
青海省,西宁市,810000,p630000/c630100/x,青海省西宁市, 36.617134 , 101.778224
青海省,海东地区,810600,p630000/c632100/x,青海省海东地区, 36.498197 , 102.106170
青海省,海北藏族自治州,810200,p630000/c632200/x,青海省海北藏族自治州, 36.954413 , 100.900998
青海省,黄南州,811300,p630000/c632300/x,青海省黄南州, 35.519549 , 102.015248
青海省,海南州,813000,p630000/c632500/x,青海省海南州, 36.286438 , 100.620373
青海省,果洛州,814000,p630000/c632600/x,青海省果洛州, 34.471431 , 100.244809
青海省,玉树州,815000,p630000/c632700/x,青海省玉树州, 33.011674 , 97.091934
青海省,海西州,817000,p630000/c632800/x,青海省海西州, 37.377139 , 97.369752
宁夏回族自治区,银川市,750000,p640000/c640100/x,宁夏回族自治区银川市, 38.487194 , 106.230909
宁夏回族自治区,石嘴山市,753000,p640000/c640200/x,宁夏回族自治区石嘴山市, 38.983236 , 106.383304
宁夏回族自治区,吴忠市,751100,p640000/c640300/x,宁夏回族自治区吴忠市, 37.997461 , 106.198394
宁夏回族自治区,中卫市,755000,p640000/c640500/x,宁夏回族自治区中卫市, 37.499973 , 105.196902
湖北省,武汉市,430000,p420000/c420100/x,湖北省武汉市, 30.593099 , 114.305393
湖北省,黄石市,435000,p420000/c420200/x,湖北省黄石市, 30.199652 , 115.038520
湖北省,十堰市,442000,p420000/c420300/x,湖北省十堰市, 32.629397 , 110.797991
湖北省,宜昌市,443000,p420000/c420500/x,湖北省宜昌市, 30.691967 , 111.286471
湖北省,襄樊市,441000,p420000/c420600/x,湖北省襄樊市, 32.012633 , 112.155115
湖北省,鄂州市,436000,p420000/c420700/x,湖北省鄂州市, 30.391940 , 114.894843
湖北省,荆门市,448000,p420000/c420800/x,湖北省荆门市, 31.035423 , 112.199265
湖北省,孝感市,432000,p420000/c420900/x,湖北省孝感市, 30.924568 , 113.916903
湖北省,荆州市,434000,p420000/c421000/x,湖北省荆州市, 30.335165 , 112.239741
湖北省,黄冈市,438000,p420000/c421100/x,湖北省黄冈市, 30.453906 , 114.872316
湖北省,咸宁市,437000,p420000/c421200/x,湖北省咸宁市, 29.841443 , 114.322492
湖北省,温泉,437100,p420000/c421200/x,湖北省温泉, 33.125011 , 110.922464
湖北省,随州市,441300,p420000/c421300/x,湖北省随州市, 31.690216 , 113.382458
湖北省,恩施州,445000,p420000/c422800/x,湖北省恩施州, 30.272156 , 109.488172
陕西省,西安市,710000,p610000/c610100/x,陕西省西安市, 34.341568 , 108.940175
陕西省,铜川市,727000,p610000/c610200/x,陕西省铜川市, 34.896756 , 108.945233
陕西省,宝鸡市,721000,p610000/c610300/x,陕西省宝鸡市, 34.363184 , 107.237743
陕西省,咸阳市,712000,p610000/c610400/x,陕西省咸阳市, 34.329605 , 108.708991
陕西省,渭南市,714000,p610000/c610500/x,陕西省渭南市, 34.499995 , 109.509786
陕西省,延安市,716000,p610000/c610600/x,陕西省延安市, 36.585445 , 109.489757
陕西省,汉中市,723000,p610000/c610700/x,陕西省汉中市, 33.067480 , 107.023323
陕西省,榆林市,719000,p610000/c610800/x,陕西省榆林市, 38.285390 , 109.734589
陕西省,安康市,725000,p610000/c610900/x,陕西省安康市, 32.684715 , 109.029022
陕西省,商洛市,726000,p610000/c611000/x,陕西省商洛市, 33.870422 , 109.940477
山东省,济南市,250000,p370000/c370100/x,山东省济南市, 36.651216 , 117.120000
山东省,青岛市,266000,p370000/c370200/x,山东省青岛市, 36.067117 , 120.382612
山东省,淄博市,255000,p370000/c370300/x,山东省淄博市, 36.813487 , 118.054927
山东省,枣庄市,277100,p370000/c370400/x,山东省枣庄市, 34.810488 , 117.323725
山东省,东营市,257000,p370000/c370500/x,山东省东营市, 37.434751 , 118.674767
山东省,烟台市,264000,p370000/c370600/x,山东省烟台市, 37.463822 , 121.447935
山东省,潍坊市,261000,p370000/c370700/x,山东省潍坊市, 36.706774 , 119.161756
山东省,济宁市,272000,p370000/c370800/x,山东省济宁市, 35.414921 , 116.587099
山东省,泰安市,271000,p370000/c370900/x,山东省泰安市, 36.200252 , 117.087614
山东省,威海市,264200,p370000/c371000/x,山东省威海市, 37.513068 , 122.120420
山东省,日照市,276800,p370000/c371100/x,山东省日照市, 35.416329 , 119.526885
山东省,莱芜市,271100,p370000/c371200/x,山东省莱芜市, 36.213814 , 117.676724
山东省,临沂市,276000,p370000/c371300/x,山东省临沂市, 35.104672 , 118.356448
山东省,德州市,253000,p370000/c371400/x,山东省德州市, 37.434093 , 116.357465
山东省,聊城市,252000,p370000/c371500/x,山东省聊城市, 36.457030 , 115.985460
山东省,滨州市,256600,p370000/c371600/x,山东省滨州市, 37.381990 , 117.970703
山东省,荷泽市,274000,p370000/c371700/x,山东省荷泽市, 35.233750 , 115.480656
云南省,昆明市,650000,p530000/c530100/x,云南省昆明市, 24.880095 , 102.832892
云南省,曲靖市,655000,p530000/c530300/x,云南省曲靖市, 25.490000 , 103.796167
云南省,玉溪市,653100,p530000/c530400/x,云南省玉溪市, 24.350461 , 102.543907
云南省,保山市,678000,p530000/c530500/x,云南省保山市, 25.112046 , 99.161761
云南省,昭通市,657000,p530000/c530600/x,云南省昭通市, 27.338257 , 103.717465
云南省,玉龙县,674100,p530000/c530700/x,云南省玉龙县, 26.821460 , 100.236955
云南省,丽江市,674100,p530000/c530700/x,云南省丽江市, 26.855047 , 100.227751
云南省,思茅市,665000,p530000/c530800/x,云南省思茅市, 22.786910 , 100.977165
云南省,临沧市,677000,p530000/c530900/x,云南省临沧市, 23.877573 , 100.079583
云南省,楚雄州,675000,p530000/c532300/x,云南省楚雄州, 25.045532 , 101.528069
云南省,红河州,661000,p530000/c532500/x,云南省红河州, 23.363130 , 103.374799
云南省,文山州,663000,p530000/c532600/x,云南省文山州, 23.400733 , 104.216248
云南省,西双版纳州,666100,p530000/c532800/x,云南省西双版纳州, 22.008173 , 100.797309
云南省,大理州,671000,p530000/c532900/x,云南省大理州, 25.606486 , 100.267638
云南省,德宏州,678400,p530000/c533100/x,云南省德宏州, 24.433353 , 98.584895
云南省,迪庆州,674400,p530000/c533400/x,云南省迪庆州, 27.818757 , 99.702254
上海市,黄浦区,210000,p310000/c310113/x,上海市黄浦区, 31.231763 , 121.484443
内蒙古自治区,呼和浩特市,010000,p150000/c150100/x,内蒙古自治区呼和浩特市, 40.842585 , 111.749181
内蒙古自治区,包头市,014000,p150000/c150200/x,内蒙古自治区包头市, 40.657378 , 109.840349
内蒙古自治区,乌海市,016000,p150000/c150300/x,内蒙古自治区乌海市, 39.655389 , 106.794249
内蒙古自治区,赤峰市,024000,p150000/c150400/x,内蒙古自治区赤峰市, 42.257817 , 118.886856
内蒙古自治区,通辽市,028000,p150000/c150500/x,内蒙古自治区通辽市, 43.652890 , 122.243444
内蒙古自治区,鄂尔多斯市,017000,p150000/c150600/x,内蒙古自治区鄂尔多斯市, 39.608266 , 109.781327
内蒙古自治区,呼伦贝尔市,021000,p150000/c150700/x,内蒙古自治区呼伦贝尔市, 49.211575 , 119.765745
内蒙古自治区,莫力达瓦旗,162850,p150000/c150722/x,内蒙古自治区莫力达瓦旗, 48.477729 , 124.519023
内蒙古自治区,巴彦淖尔市,015000,p150000/c150800/x,内蒙古自治区巴彦淖尔市, 40.743213 , 107.387657
内蒙古自治区,乌兰察布市,012000,p150000/c150900/x,内蒙古自治区乌兰察布市, 40.994786 , 113.132585
内蒙古自治区,兴安盟,137400,p150000/c152200/x,内蒙古自治区兴安盟, 46.082463 , 122.037657
内蒙古自治区,锡林郭勒盟,026000,p150000/c152500/x,内蒙古自治区锡林郭勒盟, 43.933454 , 116.048222
内蒙古自治区,阿拉善盟,750300,p150000/c152900/x,内蒙古自治区阿拉善盟, 38.851892 , 105.728969
黑龙江省,哈尔滨市,150000,p230000/c230100/x,黑龙江省哈尔滨市, 45.803775 , 126.534967
黑龙江省,齐齐哈尔市,161000,p230000/c230200/x,黑龙江省齐齐哈尔市, 47.354348 , 123.918186
黑龙江省,鸡西市,158100,p230000/c230300/x,黑龙江省鸡西市, 45.295075 , 130.969333
黑龙江省,鹤岗市,154100,p230000/c230400/x,黑龙江省鹤岗市, 47.349916 , 130.297964
黑龙江省,双鸭山市,155100,p230000/c230500/x,黑龙江省双鸭山市, 46.646509 , 131.159133
黑龙江省,大庆市,163000,p230000/c230600/x,黑龙江省大庆市, 46.589310 , 125.103784
黑龙江省,伊春市,153000,p230000/c230700/x,黑龙江省伊春市, 47.727536 , 128.841148
黑龙江省,佳木斯市,154000,p230000/c230800/x,黑龙江省佳木斯市, 46.799778 , 130.318879
黑龙江省,七台河市,154600,p230000/c230900/x,黑龙江省七台河市, 45.771727 , 131.003138
黑龙江省,牡丹江市,157000,p230000/c231000/x,黑龙江省牡丹江市, 44.551653 , 129.633169
黑龙江省,黑河市,164300,p230000/c231100/x,黑龙江省黑河市, 50.245146 , 127.528287
黑龙江省,绥化市,152000,p230000/c231200/x,黑龙江省绥化市, 46.653845 , 126.968887
黑龙江省,大兴安岭,165000,p230000/c232700/x,黑龙江省大兴安岭, 52.335262 , 124.711526
湖南省,株州市,412000,p430000/c430200/x,湖南省株州市, 27.827550 , 113.134003
湖南省,湘潭市,411100,p430000/c430300/x,湖南省湘潭市, 27.829738 , 112.944049
湖南省,邵阳市,422000,p430000/c430500/x,湖南省邵阳市, 27.238893 , 111.467791
湖南省,岳阳市,414000,p430000/c430600/x,湖南省岳阳市, 29.357104 , 113.128958
湖南省,常德市,415000,p430000/c430700/x,湖南省常德市, 29.031673 , 111.698497
湖南省,张家界市,427000,p430000/c430800/x,湖南省张家界市, 29.117096 , 110.479191
湖南省,益阳市,413000,p430000/c430900/x,湖南省益阳市, 28.553860 , 112.355180
湖南省,郴州市,423000,p430000/c431000/x,湖南省郴州市, 25.770510 , 113.014718
湖南省,永州市,425000,p430000/c431100/x,湖南省永州市, 26.420394 , 111.613445
湖南省,怀化市,418000,p430000/c431200/x,湖南省怀化市, 27.569517 , 110.001923
湖南省,中方,418000,p430000/c431200/x,湖南省中方, 27.440523 , 109.946012
湖南省,娄底市,417000,p430000/c431300/x,湖南省娄底市, 27.700063 , 111.993497
湖南省,湘西州,416000,p430000/c433100/x,湖南省湘西州, 28.311948 , 109.739172
北京市,东城区,100000,p110000/c110101/x,北京市东城区, 39.928353 , 116.416357
北京市,西城区,100000,p110000/c110102/x,北京市西城区, 39.912289 , 116.365868
北京市,崇文区,100000,p110000/c110103/x,北京市崇文区, 39.902451 , 116.427301
北京市,宣武区,100000,p110000/c110104/x,北京市宣武区, 39.887139 , 116.338080
北京市,朝阳区,100000,p110000/c110105/x,北京市朝阳区, 39.921470 , 116.443108
北京市,丰台区,100000,p110000/c110106/x,北京市丰台区, 39.858427 , 116.287149
北京市,石景山区,100000,p110000/c110107/x,北京市石景山区, 39.906611 , 116.222982
北京市,海淀区,100000,p110000/c110108/x,北京市海淀区, 39.959912 , 116.298056
北京市,门头沟区,102300,p110000/c110109/x,北京市门头沟区, 39.940646 , 116.102009
北京市,房山区,102400,p110000/c110111/x,北京市房山区, 39.749144 , 116.143267
北京市,房山区,102500,p110000/c110111/x,北京市房山区, 39.749144 , 116.143267
北京市,通州区,101100,p110000/c110112/x,北京市通州区, 39.909965 , 116.656437
北京市,顺义区,101300,p110000/c110113/x,北京市顺义区, 40.130347 , 116.654651
北京市,昌平区,102200,p110000/c110114/x,北京市昌平区, 40.220660 , 116.231204
北京市,大兴县,102600,p110000/c110115/x,北京市大兴县, 39.784530 , 116.401245
北京市,怀柔区,101400,p110000/c110116/x,北京市怀柔区, 40.316570 , 116.631960
北京市,平谷区,101200,p110000/c110117/x,北京市平谷区, 40.140701 , 117.121383
北京市,密云县,101500,p110000/c110228/x,北京市密云县, 40.376834 , 116.843177
北京市,延庆县,102100,p110000/c110229/x,北京市延庆县, 40.456951 , 115.974848
河南省,郑州市,450000,p410000/c410100/x,河南省郑州市, 34.747041 , 113.625805
河南省,开封市,475000,p410000/c410200/x,河南省开封市, 34.797282 , 114.307583
河南省,洛阳市,471000,p410000/c410300/x,河南省洛阳市, 34.619683 , 112.454040
河南省,平顶山市,467000,p410000/c410400/x,河南省平顶山市, 33.766170 , 113.192661
河南省,安阳市,455000,p410000/c410500/x,河南省安阳市, 36.097577 , 114.392393
河南省,鹤壁市,458000,p410000/c410600/x,河南省鹤壁市, 35.747225 , 114.297273
河南省,新乡市,453000,p410000/c410700/x,河南省新乡市, 35.302928 , 113.926975
河南省,焦作市,454000,p410000/c410800/x,河南省焦作市, 35.215893 , 113.241823
河南省,濮阳市,457000,p410000/c410900/x,河南省濮阳市, 35.761829 , 115.029216
河南省,许昌市,461000,p410000/c411000/x,河南省许昌市, 34.035506 , 113.852640
河南省,漯河市,462000,p410000/c411100/x,河南省漯河市, 33.581413 , 114.016539
河南省,三门峡市,472000,p410000/c411200/x,河南省三门峡市, 34.772494 , 111.200135
河南省,南阳市,473000,p410000/c411300/x,河南省南阳市, 32.990833 , 112.528322
河南省,商丘市,476000,p410000/c411400/x,河南省商丘市, 34.414172 , 115.656370
河南省,信阳市,464000,p410000/c411500/x,河南省信阳市, 32.146984 , 114.091023
河南省,周口市,466000,p410000/c411600/x,河南省周口市, 33.626149 , 114.696951
四川省,成都市,610000,p510000/c510100/x,四川省成都市, 30.572269 , 104.066541
四川省,自贡市,643000,p510000/c510300/x,四川省自贡市, 29.339030 , 104.778442
四川省,攀枝花市,617000,p510000/c510400/x,四川省攀枝花市, 26.582347 , 101.718637
四川省,泸州市,646000,p510000/c510500/x,四川省泸州市, 28.871811 , 105.442258
四川省,德阳市,618000,p510000/c510600/x,四川省德阳市, 31.126856 , 104.397894
四川省,绵阳市,621000,p510000/c510700/x,四川省绵阳市, 31.467450 , 104.679114
四川省,广元市,628000,p510000/c510800/x,四川省广元市, 32.435435 , 105.843357
四川省,遂宁市,629000,p510000/c510900/x,四川省遂宁市, 30.532847 , 105.592898
四川省,内江市,641000,p510000/c511000/x,四川省内江市, 29.580229 , 105.058433
四川省,乐山市,614000,p510000/c511100/x,四川省乐山市, 29.552106 , 103.765568
四川省,南充市,637000,p510000/c511300/x,四川省南充市, 30.837793 , 106.110698
四川省,眉山市,620000,p510000/c511400/x,四川省眉山市, 30.075440 , 103.848538
四川省,宜宾市,644000,p510000/c511500/x,四川省宜宾市, 28.751769 , 104.643215
四川省,广安市,638000,p510000/c511600/x,四川省广安市, 30.455962 , 106.633212
四川省,达州市,635000,p510000/c511700/x,四川省达州市, 31.209572 , 107.468023
四川省,雅安市,625000,p510000/c511800/x,四川省雅安市, 29.980537 , 103.013261
四川省,巴中市,636000,p510000/c511900/x,四川省巴中市, 31.867903 , 106.747478
四川省,资阳市,641300,p510000/c512000/x,四川省资阳市, 30.128901 , 104.627636
四川省,阿坝州,624000,p510000/c513200/x,四川省阿坝州, 31.899413 , 102.224653
四川省,甘孜州,626000,p510000/c513300/x,四川省甘孜州, 30.049520 , 101.962311
四川省,凉山州,615000,p510000/c513400/x,四川省凉山州, 27.881611 , 102.267335
安徽省,合肥市,230000,p340000/c340100/x,安徽省合肥市, 31.820587 , 117.227239
安徽省,芜湖市,241000,p340000/c340200/x,安徽省芜湖市, 31.352859 , 118.432941
安徽省,蚌埠市,233000,p340000/c340300/x,安徽省蚌埠市, 32.916287 , 117.389719
安徽省,淮南市,232000,p340000/c340400/x,安徽省淮南市, 32.625478 , 116.999933
安徽省,马鞍山市,243000,p340000/c340500/x,安徽省马鞍山市, 31.670452 , 118.506760
安徽省,淮北市,235000,p340000/c340600/x,安徽省淮北市, 33.955845 , 116.798265
安徽省,铜陵市,244000,p340000/c340700/x,安徽省铜陵市, 30.945516 , 117.811267
安徽省,安庆市,246000,p340000/c340800/x,安徽省安庆市, 30.543494 , 117.063755
安徽省,黄山市,245000,p340000/c341000/x,安徽省黄山市, 29.714748 , 118.337621
安徽省,滁州市,239000,p340000/c341100/x,安徽省滁州市, 32.253425 , 118.328322
安徽省,阜阳市,236000,p340000/c341200/x,安徽省阜阳市, 32.890124 , 115.814205
安徽省,宿州市,234000,p340000/c341300/x,安徽省宿州市, 33.646357 , 116.964358
安徽省,巢湖市,238000,p340000/c341400/x,安徽省巢湖市, 31.598628 , 117.861800
安徽省,六安市,237000,p340000/c341500/x,安徽省六安市, 31.733700 , 116.521855
安徽省,亳州市,236800,p340000/c341600/x,安徽省亳州市, 33.844582 , 115.778676
安徽省,池州市,247100,p340000/c341700/x,安徽省池州市, 30.664800 , 117.491568
安徽省,宣城市,242000,p340000/c341800/x,安徽省宣城市, 30.940690 , 118.758588
兰州市,榆中县,730100,p620000/c620100/x620123,甘肃省兰州市榆中县, 35.843056 , 104.112527
兰州市,皋兰县,730200,p620000/c620100/x620122,甘肃省兰州市皋兰县, 36.332663 , 103.947377
兰州市,永登县,730300,p620000/c620100/x620121,甘肃省兰州市永登县, 36.736513 , 103.260380
苏州市,吴中区,215100,p320000/c320500/x320506,江苏省苏州市吴中区, 31.262791 , 120.631978
苏州市,相城区,215100,p320000/c320500/x320507,江苏省苏州市相城区, 31.369088 , 120.642663
苏州市,吴江市,215200,p320000/c320500/x320584,江苏省苏州市吴江市, 31.139071 , 120.645135
苏州市,昆山市,215300,p320000/c320500/x320583,江苏省苏州市昆山市, 31.385598 , 120.980737
苏州市,太仓市,215400,p320000/c320500/x320585,江苏省苏州市太仓市, 31.457735 , 121.130550
苏州市,常熟市,215500,p320000/c320500/x320581,江苏省苏州市常熟市, 31.653686 , 120.752503
苏州市,张家港市,215600,p320000/c320500/x320582,江苏省苏州市张家港市, 31.875697 , 120.555678
张掖市,甘州区,734000,p620000/c620700/x620702,甘肃省张掖市甘州区, 38.929763 , 100.478058
张掖市,山丹县,734100,p620000/c620700/x620725,甘肃省张掖市山丹县, 38.784758 , 101.088575
张掖市,临泽县,734200,p620000/c620700/x620723,甘肃省张掖市临泽县, 39.152642 , 100.164445
张掖市,高台县,734300,p620000/c620700/x620724,甘肃省张掖市高台县, 39.377733 , 99.819317
张掖市,肃南裕固族自治县,734400,p620000/c620700/x620721,甘肃省张掖市肃南裕固族自治县, 38.836932 , 99.615601
张掖市,民乐县,734500,p620000/c620700/x620722,甘肃省张掖市民乐县, 38.430794 , 100.812860
酒泉市,肃州区,735000,p620000/c620900/x620902,甘肃省酒泉市肃州区, 39.745071 , 98.507850
酒泉市,玉门市,735200,p620000/c620900/x620981,甘肃省酒泉市玉门市, 40.291843 , 97.045679
酒泉市,金塔县,735300,p620000/c620900/x620921,甘肃省酒泉市金塔县, 39.983599 , 98.903270
酒泉市,安西县,736100,p620000/c620900/x620922,甘肃省酒泉市安西县, 40.535953 , 95.786126
酒泉市,敦煌市,736200,p620000/c620900/x620982,甘肃省酒泉市敦煌市, 40.142128 , 94.661967
酒泉市,肃北蒙古族自治县,736300,p620000/c620900/x620923,甘肃省酒泉市肃北蒙古族自治县, 39.512450 , 94.876579
酒泉市,阿克塞哈萨克族自治县,736400,p620000/c620900/x620924,甘肃省酒泉市阿克塞哈萨克族自治县, 39.633943 , 94.340204
黔东南州,凯里市,556000,p520000/c522600/x522601,贵州省黔东南州凯里市, 26.566867 , 107.981212
黔东南州,黄平县,556100,p520000/c522600/x522622,贵州省黔东南州黄平县, 26.905396 , 107.916412
黔东南州,施秉县,556200,p520000/c522600/x522623,贵州省黔东南州施秉县, 27.032920 , 108.124380
黔东南州,台江县,556300,p520000/c522600/x522630,贵州省黔东南州台江县, 26.667525 , 108.321245
黔东南州,剑河县,556400,p520000/c522600/x522629,贵州省黔东南州剑河县, 26.728274 , 108.441501
黔东南州,三穗县,556500,p520000/c522600/x522624,贵州省黔东南州三穗县, 26.952968 , 108.675267
黔东南州,天柱县,556600,p520000/c522600/x522627,贵州省黔东南州天柱县, 26.909678 , 109.207757
黔东南州,锦屏县,556700,p520000/c522600/x522628,贵州省黔东南州锦屏县, 26.676233 , 109.200534
黔东南州,雷山县,557100,p520000/c522600/x522634,贵州省黔东南州雷山县, 26.378443 , 108.077540
黔东南州,榕江县,557200,p520000/c522600/x522632,贵州省黔东南州榕江县, 25.931893 , 108.521881
黔东南州,黎平县,557300,p520000/c522600/x522631,贵州省黔东南州黎平县, 26.230385 , 109.136724
黔东南州,从江县,557400,p520000/c522600/x522633,贵州省黔东南州从江县, 25.753009 , 108.905329
黔东南州,丹寨县,557500,p520000/c522600/x522636,贵州省黔东南州丹寨县, 26.198320 , 107.788728
黔东南州,麻江县,557600,p520000/c522600/x522635,贵州省黔东南州麻江县, 26.491105 , 107.589359
黔东南州,镇远县,557700,p520000/c522600/x522625,贵州省黔东南州镇远县, 27.049110 , 108.429691
黔东南州,岑巩县,557800,p520000/c522600/x522626,贵州省黔东南州岑巩县, 27.173887 , 108.816060
贵阳市,修文县,550200,p520000/c520100/x520123,贵州省贵阳市修文县, 26.838926 , 106.592108
贵阳市,开阳县,550300,p520000/c520100/x520121,贵州省贵阳市开阳县, 27.057764 , 106.965090
贵阳市,息峰县,551100,p520000/c520100/x520122,贵州省贵阳市息峰县, 27.090479 , 106.740408
贵阳市,清镇市,551400,p520000/c520100/x520181,贵州省贵阳市清镇市, 26.556079 , 106.470715
宁德市,古田县,352200,p350000/c350900/x350922,福建省宁德市古田县, 26.577837 , 118.746284
宁德市,屏南县,352300,p350000/c350900/x350923,福建省宁德市屏南县, 26.908276 , 118.985895
宁德市,福安市,355000,p350000/c350900/x350981,福建省宁德市福安市, 27.088049 , 119.647770
宁德市,霞浦县,355100,p350000/c350900/x350921,福建省宁德市霞浦县, 26.885204 , 120.005643
宁德市,福鼎市,355200,p350000/c350900/x350982,福建省宁德市福鼎市, 27.324479 , 120.216978
宁德市,柘荣县,355300,p350000/c350900/x350926,福建省宁德市柘荣县, 27.233933 , 119.900609
宁德市,周宁县,355400,p350000/c350900/x350925,福建省宁德市周宁县, 27.104591 , 119.339025
宁德市,寿宁县,355500,p350000/c350900/x350924,福建省宁德市寿宁县, 27.454479 , 119.514987
南京市,江宁区,211100,p320000/c320100/x320115,江苏省南京市江宁区, 31.953702 , 118.839685
南京市,溧水县,211200,p320000/c320100/x320124,江苏省南京市溧水县, 31.650962 , 119.028472
南京市,高淳县,211300,p320000/c320100/x320125,江苏省南京市高淳县, 31.318521 , 118.868670
南京市,六合区,211500,p320000/c320100/x320116,江苏省南京市六合区, 32.322247 , 118.821401
南京市,浦口区,211800,p320000/c320100/x320111,江苏省南京市浦口区, 32.059093 , 118.627895
黔南州,罗甸县,550100,p520000/c522700/x522728,贵州省黔南州罗甸县, 25.424845 , 106.751418
黔南州,瓮安县,550400,p520000/c522700/x522725,贵州省黔南州瓮安县, 27.078472 , 107.471555
黔南州,福泉市,550500,p520000/c522700/x522702,贵州省黔南州福泉市, 26.686335 , 107.520386
黔南州,惠水县,550600,p520000/c522700/x522731,贵州省黔南州惠水县, 26.132061 , 106.657089
黔南州,长顺县,550700,p520000/c522700/x522729,贵州省黔南州长顺县, 26.022636 , 106.451926
黔南州,龙里县,551200,p520000/c522700/x522730,贵州省黔南州龙里县, 26.453154 , 106.979524
黔南州,贵定县,551300,p520000/c522700/x522723,贵州省黔南州贵定县, 26.584666 , 107.234703
黔南州,都匀市,558000,p520000/c522700/x522701,贵州省黔南州都匀市, 26.229464 , 107.514300
黔南州,三都水族自治县,558100,p520000/c522700/x522732,贵州省黔南州三都水族自治县, 25.983202 , 107.869749
黔南州,独山县,558200,p520000/c522700/x522726,贵州省黔南州独山县, 25.822132 , 107.545049
黔南州,平塘县,558300,p520000/c522700/x522727,贵州省黔南州平塘县, 25.831955 , 107.323077
黔南州,荔波县,558400,p520000/c522700/x522722,贵州省黔南州荔波县, 25.410654 , 107.886450
泉州市,惠安县,362100,p350000/c350500/x350521,福建省泉州市惠安县, 25.030781 , 118.796605
泉州市,晋江市,362200,p350000/c350500/x350582,福建省泉州市晋江市, 24.781681 , 118.552365
泉州市,南安市,362300,p350000/c350500/x350583,福建省泉州市南安市, 24.960385 , 118.386279
泉州市,安溪县,362400,p350000/c350500/x350524,福建省泉州市安溪县, 25.055955 , 118.186289
泉州市,德化县,362500,p350000/c350500/x350526,福建省泉州市德化县, 25.491494 , 118.241094
泉州市,永春县,362600,p350000/c350500/x350525,福建省泉州市永春县, 25.321565 , 118.294048
泉州市,石狮市,362700,p350000/c350500/x350581,福建省泉州市石狮市, 24.732246 , 118.647940
海口市,琼山区,571100,p460000/c460100/x460107,海南省海口市琼山区, 20.003143 , 110.354149
安顺市,紫云苗族布依族自治县,550800,p520000/c520400/x520425,贵州省安顺市紫云苗族布依族自治县, 25.751052 , 106.084340
安顺市,平坝县,561100,p520000/c520400/x520421,贵州省安顺市平坝县, 26.405502 , 106.255557
安顺市,镇宁布依族苗族自治县,561200,p520000/c520400/x520423,贵州省安顺市镇宁布依族苗族自治县, 26.057362 , 105.770402
安顺市,关岭布依族苗族自治县,561300,p520000/c520400/x520424,贵州省安顺市关岭布依族苗族自治县, 25.943856 , 105.618745
安顺市,普定县,562100,p520000/c520400/x520422,贵州省安顺市普定县, 26.301446 , 105.743196
铜仁地区,松桃苗族自治县,554100,p520000/c522200/x522229,贵州省铜仁地区松桃苗族自治县, 27.882707 , 109.310598
铜仁地区,万山特区,554200,p520000/c522200/x522230,贵州省铜仁地区万山特区, 27.517849 , 109.212778
铜仁地区,铜仁市,554300,p520000/c522200/x522201,贵州省铜仁地区铜仁市, 27.717821 , 109.194866
铜仁地区,江口县,554400,p520000/c522200/x522222,贵州省铜仁地区江口县, 27.740120 , 109.204655
铜仁地区,石阡县,555100,p520000/c522200/x522224,贵州省铜仁地区石阡县, 27.740120 , 109.204655
铜仁地区,印江土家族苗族自治县,555200,p520000/c522200/x522226,贵州省铜仁地区印江土家族苗族自治县, 27.740120 , 109.204655
铜仁地区,思南县,565100,p520000/c522200/x522225,贵州省铜仁地区思南县, 27.740120 , 109.204655
铜仁地区,德江县,565200,p520000/c522200/x522227,贵州省铜仁地区德江县, 27.740120 , 109.204655
铜仁地区,沿河土家族自治县,565300,p520000/c522200/x522228,贵州省铜仁地区沿河土家族自治县, 28.550984 , 108.494755
陇南市,西和县,742100,p620000/c621200/x621225,甘肃省陇南市西和县, 34.010701 , 105.301229
陇南市,礼县,742200,p620000/c621200/x621226,甘肃省陇南市礼县, 34.189345 , 105.178640
陇南市,徽县,742300,p620000/c621200/x621227,甘肃省陇南市徽县, 33.700977 , 106.198607
陇南市,两当县,742400,p620000/c621200/x621228,甘肃省陇南市两当县, 33.908917 , 106.304967
陇南市,成县,742500,p620000/c621200/x621221,甘肃省陇南市成县, 33.750477 , 105.742203
陇南市,武都区,746000,p620000/c621200/x621202,甘肃省陇南市武都区, 33.392211 , 104.926337
陇南市,文县,746400,p620000/c621200/x621222,甘肃省陇南市文县, 32.943815 , 104.683434
陇南市,康县,746500,p620000/c621200/x621224,甘肃省陇南市康县, 33.329136 , 105.609169
陇南市,宕昌县,748500,p620000/c621200/x621223,甘肃省陇南市宕昌县, 34.047261 , 104.393385
唐山市,古冶区,063100,p130000/c130200/x130204,河北省唐山市古冶区, 39.733578 , 118.447635
唐山市,唐海县,063200,p130000/c130200/x130230,河北省唐山市唐海县, 39.279209 , 118.459180
唐山市,丰南区,063300,p130000/c130200/x130207,河北省唐山市丰南区, 39.576031 , 118.085169
唐山市,滦南县,063500,p130000/c130200/x130224,河北省唐山市滦南县, 39.518997 , 118.682379
唐山市,乐亭县,063600,p130000/c130200/x130225,河北省唐山市乐亭县, 39.425608 , 118.912571
唐山市,滦县,063700,p130000/c130200/x130223,河北省唐山市滦县, 39.758868 , 118.705740
唐山市,丰润区,064000,p130000/c130200/x130208,河北省唐山市丰润区, 39.832582 , 118.162216
唐山市,玉田县,064100,p130000/c130200/x130229,河北省唐山市玉田县, 39.882057 , 117.734975
唐山市,遵化市,064200,p130000/c130200/x130281,河北省唐山市遵化市, 40.189202 , 117.965892
唐山市,迁西县,064300,p130000/c130200/x130227,河北省唐山市迁西县, 40.141500 , 118.314715
唐山市,迁安市,064400,p130000/c130200/x130283,河北省唐山市迁安市, 39.999175 , 118.701144
新疆维吾尔自治区,乌鲁木齐市,830000,p650000/c650100/x,新疆维吾尔自治区乌鲁木齐市, 43.825592 , 87.616848
新疆维吾尔自治区,克拉玛依市,834000,p650000/c650200/x,新疆维吾尔自治区克拉玛依市, 45.579889 , 84.889207
新疆维吾尔自治区,大河沿,838000,p650000/c652100/x,新疆维吾尔自治区大河沿, 43.153338 , 88.876117
新疆维吾尔自治区,吐鲁番地区,838000,p650000/c652100/x,新疆维吾尔自治区吐鲁番地区, 42.951384 , 89.189655
新疆维吾尔自治区,哈密地区,839000,p650000/c652200/x,新疆维吾尔自治区哈密地区, 42.818420 , 93.515151
新疆维吾尔自治区,昌吉州,831100,p650000/c652300/x,新疆维吾尔自治区昌吉州, 44.011183 , 87.308225
新疆维吾尔自治区,博尔塔拉州,833400,p650000/c652700/x,新疆维吾尔自治区博尔塔拉州, 44.906065 , 82.066387
新疆维吾尔自治区,巴音郭楞州,841000,p650000/c652800/x,新疆维吾尔自治区巴音郭楞州, 41.764115 , 86.145298
新疆维吾尔自治区,阿克苏地区,843000,p650000/c652900/x,新疆维吾尔自治区阿克苏地区, 41.168779 , 80.260605
新疆维吾尔自治区,克孜勒苏州,845300,p650000/c653000/x,新疆维吾尔自治区克孜勒苏州, 43.818339 , 82.286974
新疆维吾尔自治区,奎依巴格,844800,p650000/c653100/x,新疆维吾尔自治区奎依巴格, 38.083472 , 77.158712
新疆维吾尔自治区,喀什地区,844000,p650000/c653100/x,新疆维吾尔自治区喀什地区, 39.470400 , 75.989755
新疆维吾尔自治区,和田地区,848000,p650000/c653200/x,新疆维吾尔自治区和田地区, 37.114157 , 79.922211
新疆维吾尔自治区,伊犁州,835000,p650000/c654000/x,新疆维吾尔自治区伊犁州, 43.916823 , 81.324136
新疆维吾尔自治区,塔城地区,834700,p650000/c654200/x,新疆维吾尔自治区塔城地区, 46.745364 , 82.980317
新疆维吾尔自治区,可可托海,836300,p650000/c654300/x,新疆维吾尔自治区可可托海, 47.211020 , 89.803616
新疆维吾尔自治区,阿勒泰地区,836500,p650000/c654300/x,新疆维吾尔自治区阿勒泰地区, 47.844924 , 88.141253
无锡市,滨湖区,214100,p320000/c320200/x320211,江苏省无锡市滨湖区, 31.527954 , 120.282692
无锡市,惠山区,214100,p320000/c320200/x320206,江苏省无锡市惠山区, 31.681012 , 120.298500
无锡市,锡山区,214100,p320000/c320200/x320205,江苏省无锡市锡山区, 31.589715 , 120.357858
无锡市,宜兴市,214200,p320000/c320200/x320282,江苏省无锡市宜兴市, 31.340637 , 119.823407
无锡市,江阴市,214400,p320000/c320200/x320281,江苏省无锡市江阴市, 31.920658 , 120.284939
常州市,武进区,213100,p320000/c320400/x320412,江苏省常州市武进区, 31.701188 , 119.942437
常州市,金坛市,213200,p320000/c320400/x320482,江苏省常州市金坛市, 31.723248 , 119.597897
常州市,溧阳市,213300,p320000/c320400/x320481,江苏省常州市溧阳市, 31.416911 , 119.484211
白银市,景泰县,730400,p620000/c620400/x620423,甘肃省白银市景泰县, 37.183804 , 104.063091
白银市,靖远县,730600,p620000/c620400/x620421,甘肃省白银市靖远县, 36.571366 , 104.676774
白银市,会宁县,730700,p620000/c620400/x620422,甘肃省白银市会宁县, 35.692823 , 105.053358
徐州市,铜山县,221100,p320000/c320300/x320323,江苏省徐州市铜山县, 34.182556 , 117.174186
徐州市,睢宁县,221200,p320000/c320300/x320324,江苏省徐州市睢宁县, 33.912598 , 117.941563
徐州市,邳州市,221300,p320000/c320300/x320382,江苏省徐州市邳州市, 34.338888 , 118.012531
徐州市,新沂市,221400,p320000/c320300/x320381,江苏省徐州市新沂市, 34.369580 , 118.354537
徐州市,沛县,221600,p320000/c320300/x320322,江苏省徐州市沛县, 34.759650 , 116.939853
徐州市,丰县,221700,p320000/c320300/x320321,江苏省徐州市丰县, 34.693906 , 116.595391
金昌市,永昌县,737200,p620000/c620300/x620321,甘肃省金昌市永昌县, 38.243170 , 101.984649
邯郸市,邯郸县,056100,p130000/c130400/x130421,河北省邯郸市邯郸县, 36.593881 , 114.530925
邯郸市,峰峰矿区,056200,p130000/c130400/x130406,河北省邯郸市峰峰矿区, 36.419739 , 114.212803
邯郸市,武安市,056300,p130000/c130400/x130481,河北省邯郸市武安市, 36.696506 , 114.203697
邯郸市,涉县,056400,p130000/c130400/x130426,河北省邯郸市涉县, 36.577607 , 113.668673
邯郸市,磁县,056500,p130000/c130400/x130427,河北省邯郸市磁县, 36.360349 , 114.371956
邯郸市,临漳县,056600,p130000/c130400/x130423,河北省邯郸市临漳县, 36.335026 , 114.619536
邯郸市,成安县,056700,p130000/c130400/x130424,河北省邯郸市成安县, 36.442643 , 114.690184
邯郸市,魏县,056800,p130000/c130400/x130434,河北省邯郸市魏县, 36.354988 , 114.938622
邯郸市,大名县,056900,p130000/c130400/x130425,河北省邯郸市大名县, 36.285616 , 115.147814
邯郸市,永年县,057150,p130000/c130400/x130429,河北省邯郸市永年县, 36.777740 , 114.491052
邯郸市,曲周县,057250,p130000/c130400/x130435,河北省邯郸市曲周县, 36.780175 , 114.945113
邯郸市,鸡泽县,057350,p130000/c130400/x130431,河北省邯郸市鸡泽县, 36.920350 , 114.878299
邯郸市,邱县,057400,p130000/c130400/x130430,河北省邯郸市邱县, 36.811133 , 115.186792
邯郸市,肥乡县,057550,p130000/c130400/x130428,河北省邯郸市肥乡县, 36.550411 , 114.814095
邯郸市,广平县,057650,p130000/c130400/x130432,河北省邯郸市广平县, 36.483484 , 114.948607
邯郸市,馆陶县,057750,p130000/c130400/x130433,河北省邯郸市馆陶县, 36.535537 , 115.299524
张家口市,宣化区,075100,p130000/c130700/x130705,河北省张家口市宣化区, 40.608726 , 115.099510
张家口市,宣化县,075100,p130000/c130700/x130721,河北省张家口市宣化县, 40.562211 , 115.033080
张家口市,下花园区,075300,p130000/c130700/x130706,河北省张家口市下花园区, 40.502652 , 115.287352
张家口市,怀来县,075400,p130000/c130700/x130730,河北省张家口市怀来县, 40.415343 , 115.517862
张家口市,赤城县,075500,p130000/c130700/x130732,河北省张家口市赤城县, 40.912921 , 115.831499
张家口市,涿鹿县,075600,p130000/c130700/x130731,河北省张家口市涿鹿县, 40.379563 , 115.205345
张家口市,蔚县,075700,p130000/c130700/x130726,河北省张家口市蔚县, 39.840843 , 114.588903
张家口市,阳原县,075800,p130000/c130700/x130727,河北省张家口市阳原县, 40.103742 , 114.150388
张家口市,怀安县,076150,p130000/c130700/x130728,河北省张家口市怀安县, 40.674193 , 114.385792
张家口市,万全县,076250,p130000/c130700/x130729,河北省张家口市万全县, 40.766898 , 114.740560
张家口市,崇礼县,076350,p130000/c130700/x130733,河北省张家口市崇礼县, 40.974676 , 115.282669
张家口市,张北县,076450,p130000/c130700/x130722,河北省张家口市张北县, 41.158557 , 114.720086
张家口市,沽源县,076550,p130000/c130700/x130724,河北省张家口市沽源县, 41.669668 , 115.688692
张家口市,康保县,076650,p130000/c130700/x130723,河北省张家口市康保县, 41.852368 , 114.600404
张家口市,尚义县,076750,p130000/c130700/x130725,河北省张家口市尚义县, 41.076227 , 113.969619
天水市,甘谷县,741200,p620000/c620500/x620523,甘肃省天水市甘谷县, 34.732099 , 105.335898
天水市,武山县,741300,p620000/c620500/x620524,甘肃省天水市武山县, 34.721380 , 104.890782
天水市,清水县,741400,p620000/c620500/x620521,甘肃省天水市清水县, 34.749865 , 106.137293
天水市,张家川回族自治县,741500,p620000/c620500/x620525,甘肃省天水市张家川回族自治县, 34.988037 , 106.204518
天水市,秦安县,741600,p620000/c620500/x620522,甘肃省天水市秦安县, 34.858916 , 105.674983
长治市,屯留县,046100,p140000/c140400/x140424,山西省长治市屯留县, 36.315663 , 112.891998
长治市,襄垣县,046200,p140000/c140400/x140423,山西省长治市襄垣县, 36.535817 , 113.051491
长治市,武乡县,046300,p140000/c140400/x140429,山西省长治市武乡县, 36.837353 , 112.864455
长治市,沁县,046400,p140000/c140400/x140430,山西省长治市沁县, 36.758951 , 112.705421
长治市,沁源县,046500,p140000/c140400/x140431,山西省长治市沁源县, 36.500200 , 112.337446
长治市,长子县,046600,p140000/c140400/x140428,山西省长治市长子县, 36.122334 , 112.877900
长治市,长治县,047100,p140000/c140400/x140421,山西省长治市长治县, 36.052858 , 113.051407
长治市,壶关县,047300,p140000/c140400/x140427,山西省长治市壶关县, 36.115449 , 113.207049
长治市,平顺县,047400,p140000/c140400/x140425,山西省长治市平顺县, 36.200179 , 113.435961
长治市,潞城市,047500,p140000/c140400/x140481,山西省长治市潞城市, 36.334104 , 113.228852
长治市,黎城县,047600,p140000/c140400/x140426,山西省长治市黎城县, 36.502328 , 113.387155
扬州市,仪征市,211400,p320000/c321000/x321081,江苏省扬州市仪征市, 32.272258 , 119.184766
扬州市,邗江区,225100,p320000/c321000/x321003,江苏省扬州市邗江区, 32.377528 , 119.398015
扬州市,江都市,225200,p320000/c321000/x321088,江苏省扬州市江都市, 32.459001 , 119.577821
扬州市,高邮市,225600,p320000/c321000/x321084,江苏省扬州市高邮市, 32.781659 , 119.459161
扬州市,宝应县,225800,p320000/c321000/x321023,江苏省扬州市宝应县, 33.240392 , 119.360729
莆田市,仙游县,351200,p350000/c350300/x350322,福建省莆田市仙游县, 25.362094 , 118.691601
遵义市,遵义县,563100,p520000/c520300/x520321,贵州省遵义市遵义县, 27.703088 , 106.949135
遵义市,桐梓县,563200,p520000/c520300/x520322,贵州省遵义市桐梓县, 28.133583 , 106.825644
遵义市,绥阳县,563300,p520000/c520300/x520323,贵州省遵义市绥阳县, 27.946595 , 107.190862
遵义市,正安县,563400,p520000/c520300/x520324,贵州省遵义市正安县, 28.550040 , 107.444031
遵义市,道真仫佬族苗族自治县,563500,p520000/c520300/x520325,贵州省遵义市道真仫佬族苗族自治县, 28.862425 , 107.613133
遵义市,湄潭县,564100,p520000/c520300/x520328,贵州省遵义市湄潭县, 27.749055 , 107.465407
遵义市,凤冈县,564200,p520000/c520300/x520327,贵州省遵义市凤冈县, 27.954695 , 107.716356
遵义市,务川仫佬族苗族自治县,564300,p520000/c520300/x520326,贵州省遵义市务川仫佬族苗族自治县, 28.563086 , 107.898957
遵义市,余庆县,564400,p520000/c520300/x520329,贵州省遵义市余庆县, 27.225346 , 107.888289
遵义市,仁怀市,564500,p520000/c520300/x520382,贵州省遵义市仁怀市, 27.791650 , 106.400342
遵义市,习水县,564600,p520000/c520300/x520330,贵州省遵义市习水县, 28.331270 , 106.197138
遵义市,赤水市,564700,p520000/c520300/x520381,贵州省遵义市赤水市, 28.590337 , 105.697472
武威市,凉州区,733000,p620000/c620600/x620602,甘肃省武威市凉州区, 37.928225 , 102.642184
武威市,古浪县,733100,p620000/c620600/x620622,甘肃省武威市古浪县, 37.470120 , 102.897533
武威市,天祝藏族自治县,733200,p620000/c620600/x620623,甘肃省武威市天祝藏族自治县, 36.971740 , 103.141757
武威市,民勤县,733300,p620000/c620600/x620621,甘肃省武威市民勤县, 38.624351 , 103.093792
南平市,建瓯市,353100,p350000/c350700/x350783,福建省南平市建瓯市, 27.022727 , 118.304988
南平市,顺昌县,353200,p350000/c350700/x350721,福建省南平市顺昌县, 26.793288 , 117.810357
南平市,浦城县,353400,p350000/c350700/x350722,福建省南平市浦城县, 27.917263 , 118.541256
南平市,松溪县,353500,p350000/c350700/x350724,福建省南平市松溪县, 27.526232 , 118.785468
南平市,政和县,353600,p350000/c350700/x350725,福建省南平市政和县, 27.366104 , 118.857642
南平市,邵武市,354000,p350000/c350700/x350781,福建省南平市邵武市, 27.340327 , 117.492534
南平市,光泽县,354100,p350000/c350700/x350723,福建省南平市光泽县, 27.540988 , 117.334106
南平市,建阳市,354200,p350000/c350700/x350784,福建省南平市建阳市, 27.331876 , 118.120464
南平市,武夷山市,354300,p350000/c350700/x350782,福建省南平市武夷山市, 27.756648 , 118.035310
沧州市,沧县,061000,p130000/c130900/x130921,河北省沧州市沧县, 38.219856 , 117.007478
沧州市,黄骅市,061100,p130000/c130900/x130983,河北省沧州市黄骅市, 38.371383 , 117.330048
沧州市,海兴县,061200,p130000/c130900/x130924,河北省沧州市海兴县, 38.143169 , 117.497651
沧州市,盐山县,061300,p130000/c130900/x130925,河北省沧州市盐山县, 38.058088 , 117.230602
沧州市,孟村县,061400,p130000/c130900/x130930,河北省沧州市孟村县, 38.053409 , 117.104298
沧州市,南皮县,061500,p130000/c130900/x130927,河北省沧州市南皮县, 38.038584 , 116.708104
沧州市,东光县,061600,p130000/c130900/x130923,河北省沧州市东光县, 37.888248 , 116.537067
沧州市,吴桥县,061800,p130000/c130900/x130928,河北省沧州市吴桥县, 37.627661 , 116.391508
沧州市,泊头市,062150,p130000/c130900/x130981,河北省沧州市泊头市, 38.083437 , 116.578368
沧州市,献县,062250,p130000/c130900/x130929,河北省沧州市献县, 38.190144 , 116.122802
沧州市,肃宁县,062350,p130000/c130900/x130926,河北省沧州市肃宁县, 38.422802 , 115.829758
沧州市,河间市,062450,p130000/c130900/x130984,河北省沧州市河间市, 38.446624 , 116.099518
沧州市,任丘市,062550,p130000/c130900/x130982,河北省沧州市任丘市, 38.711812 , 116.099562
沧州市,青县,062650,p130000/c130900/x130922,河北省沧州市青县, 38.578107 , 116.839065
林芝地区,林芝县,860100,p540000/c542600/x542621,西藏自治区林芝地区林芝县, 29.636576 , 94.361095
林芝地区,工布江达县,860200,p540000/c542600/x542622,西藏自治区林芝地区工布江达县, 29.885280 , 93.246077
林芝地区,波密县,860300,p540000/c542600/x542625,西藏自治区林芝地区波密县, 29.859028 , 95.767913
林芝地区,朗县,860400,p540000/c542600/x542627,西藏自治区林芝地区朗县, 29.046337 , 93.074702
林芝地区,米林县,860500,p540000/c542600/x542623,西藏自治区林芝地区米林县, 29.215833 , 94.213486
林芝地区,察隅县,860600,p540000/c542600/x542626,西藏自治区林芝地区察隅县, 28.661280 , 97.466919
林芝地区,墨脱县,860700,p540000/c542600/x542624,西藏自治区林芝地区墨脱县, 29.325298 , 95.333197
龙岩市,永定县,364100,p350000/c350800/x350822,福建省龙岩市永定县, 24.723962 , 116.732092
龙岩市,上杭县,364200,p350000/c350800/x350823,福建省龙岩市上杭县, 25.049518 , 116.420099
龙岩市,武平县,364300,p350000/c350800/x350824,福建省龙岩市武平县, 25.095277 , 116.100342
龙岩市,漳平市,364400,p350000/c350800/x350881,福建省龙岩市漳平市, 25.290185 , 117.419998
龙岩市,连城县,366200,p350000/c350800/x350825,福建省龙岩市连城县, 25.710539 , 116.754473
龙岩市,长汀县,366300,p350000/c350800/x350821,福建省龙岩市长汀县, 25.833531 , 116.357581
秦皇岛市,海港区,066000,p130000/c130300/x130302,河北省秦皇岛市海港区, 39.947560 , 119.564962
秦皇岛市,北戴河区,066100,p130000/c130300/x130304,河北省秦皇岛市北戴河区, 39.834596 , 119.484522
秦皇岛市,山海关区,066200,p130000/c130300/x130303,河北省秦皇岛市山海关区, 39.978849 , 119.775799
秦皇岛市,抚宁县,066300,p130000/c130300/x130323,河北省秦皇岛市抚宁县, 39.876254 , 119.244848
秦皇岛市,卢龙县,066400,p130000/c130300/x130324,河北省秦皇岛市卢龙县, 39.891947 , 118.892986
秦皇岛市,青龙县,066500,p130000/c130300/x130321,河北省秦皇岛市青龙县, 40.407578 , 118.949684
秦皇岛市,昌黎县,066600,p130000/c130300/x130322,河北省秦皇岛市昌黎县, 39.712818 , 119.162704
朔州市,平鲁区,036800,p140000/c140600/x140603,山西省朔州市平鲁区, 39.512155 , 112.288331
朔州市,山阴县,036900,p140000/c140600/x140621,山西省朔州市山阴县, 39.526227 , 112.816600
朔州市,右玉县,037200,p140000/c140600/x140623,山西省朔州市右玉县, 39.989064 , 112.466989
朔州市,应县,037600,p140000/c140600/x140622,山西省朔州市应县, 39.554247 , 113.191099
朔州市,怀仁县,038300,p140000/c140600/x140624,山西省朔州市怀仁县, 39.827916 , 113.099958
厦门市,同安区,361100,p350000/c350200/x350212,福建省厦门市同安区, 24.722747 , 118.152149
那曲地区,那曲县,852000,p540000/c542400/x542421,西藏自治区那曲地区那曲县, 31.469643 , 92.053500
那曲地区,巴青县,852100,p540000/c542400/x542429,西藏自治区那曲地区巴青县, 31.918563 , 94.053463
那曲地区,索县,852200,p540000/c542400/x542427,西藏自治区那曲地区索县, 31.886918 , 93.785631
那曲地区,比如县,852300,p540000/c542400/x542423,西藏自治区那曲地区比如县, 31.480250 , 93.679639
那曲地区,嘉黎县,852400,p540000/c542400/x542422,西藏自治区那曲地区嘉黎县, 30.640815 , 93.232528
那曲地区,班戈县,852500,p540000/c542400/x542428,西藏自治区那曲地区班戈县, 31.392411 , 90.009957
那曲地区,申扎县,853100,p540000/c542400/x542426,西藏自治区那曲地区申扎县, 30.930505 , 88.709853
那曲地区,尼玛县,853200,p540000/c542400/x542430,西藏自治区那曲地区尼玛县, 31.784701 , 87.236772
那曲地区,安多县,853400,p540000/c542400/x542425,西藏自治区那曲地区安多县, 32.265176 , 91.682330
那曲地区,聂荣县,853500,p540000/c542400/x542424,西藏自治区那曲地区聂荣县, 32.107772 , 92.303346
连云港市,赣榆县,222100,p320000/c320700/x320721,江苏省连云港市赣榆县, 34.841349 , 119.173331
连云港市,灌云县,222200,p320000/c320700/x320723,江苏省连云港市灌云县, 34.284381 , 119.239381
连云港市,东海县,222300,p320000/c320700/x320722,江苏省连云港市东海县, 34.516417 , 118.768176
连云港市,灌南县,222500,p320000/c320700/x320724,江苏省连云港市灌南县, 34.087135 , 119.315651
昌都地区,昌都县,854000,p540000/c542100/x542121,西藏自治区昌都地区昌都县, 31.138507 , 97.180437
昌都地区,江达县,854100,p540000/c542100/x542122,西藏自治区昌都地区江达县, 31.499202 , 98.218430
昌都地区,贡觉县,854200,p540000/c542100/x542123,西藏自治区昌都地区贡觉县, 30.860099 , 98.270970
昌都地区,察雅县,854300,p540000/c542100/x542126,西藏自治区昌都地区察雅县, 30.653943 , 97.568752
昌都地区,左贡县,854400,p540000/c542100/x542128,西藏自治区昌都地区左贡县, 29.671069 , 97.841022
昌都地区,芒康县,854500,p540000/c542100/x542129,西藏自治区昌都地区芒康县, 29.679908 , 98.593113
昌都地区,八宿县,854600,p540000/c542100/x542127,西藏自治区昌都地区八宿县, 30.053209 , 96.917836
昌都地区,洛隆县,855400,p540000/c542100/x542132,西藏自治区昌都地区洛隆县, 30.741523 , 95.824601
昌都地区,边坝县,855500,p540000/c542100/x542133,西藏自治区昌都地区边坝县, 30.933652 , 94.707800
昌都地区,类乌齐县,855600,p540000/c542100/x542124,西藏自治区昌都地区类乌齐县, 31.211601 , 96.600246
昌都地区,丁青县,855700,p540000/c542100/x542125,西藏自治区昌都地区丁青县, 31.412405 , 95.595762
山南地区,贡嘎县,850700,p540000/c542200/x542223,西藏自治区山南地区贡嘎县, 29.289455 , 90.984140
山南地区,扎囊县,850800,p540000/c542200/x542222,西藏自治区山南地区扎囊县, 29.245114 , 91.337250
山南地区,浪卡子县,851100,p540000/c542200/x542233,西藏自治区山南地区浪卡子县, 28.968031 , 90.397977
山南地区,洛扎县,851200,p540000/c542200/x542228,西藏自治区山南地区洛扎县, 28.385713 , 90.859992
山南地区,乃东县,856100,p540000/c542200/x542221,西藏自治区山南地区乃东县, 29.224904 , 91.761539
山南地区,桑日县,856200,p540000/c542200/x542224,西藏自治区山南地区桑日县, 29.259189 , 92.015818
山南地区,曲松县,856300,p540000/c542200/x542226,西藏自治区山南地区曲松县, 29.062826 , 92.203739
山南地区,加查县,856400,p540000/c542200/x542229,西藏自治区山南地区加查县, 29.140290 , 92.593993
山南地区,隆子县,856600,p540000/c542200/x542231,西藏自治区山南地区隆子县, 28.406809 , 92.461662
山南地区,错那县,856700,p540000/c542200/x542232,西藏自治区山南地区错那县, 27.991092 , 91.957166
山南地区,琼结县,856800,p540000/c542200/x542225,西藏自治区山南地区琼结县, 29.024625 , 91.683881
山南地区,措美县,856900,p540000/c542200/x542227,西藏自治区山南地区措美县, 28.438202 , 91.433509
宿迁市,沭阳县,223600,p320000/c321300/x321322,江苏省宿迁市沭阳县, 34.111022 , 118.804784
宿迁市,泗阳县,223700,p320000/c321300/x321323,江苏省宿迁市泗阳县, 33.723140 , 118.703038
宿迁市,宿豫区,223800,p320000/c321300/x321311,江苏省宿迁市宿豫区, 33.946822 , 118.330782
宿迁市,泗洪县,223900,p320000/c321300/x321324,江苏省宿迁市泗洪县, 33.476051 , 118.223591
福州市,闽侯县,350100,p350000/c350100/x350121,福建省福州市闽侯县, 26.150047 , 119.131725
福州市,长乐市,350200,p350000/c350100/x350182,福建省福州市长乐市, 25.962888 , 119.523266
福州市,福清市,350300,p350000/c350100/x350181,福建省福州市福清市, 25.720381 , 119.383811
福州市,平潭县,350400,p350000/c350100/x350128,福建省福州市平潭县, 25.498720 , 119.790168
福州市,连江县,350500,p350000/c350100/x350122,福建省福州市连江县, 26.197364 , 119.539704
福州市,罗源县,350600,p350000/c350100/x350123,福建省福州市罗源县, 26.489559 , 119.549776
福州市,永泰县,350700,p350000/c350100/x350125,福建省福州市永泰县, 25.866695 , 118.932592
福州市,闽清县,350800,p350000/c350100/x350124,福建省福州市闽清县, 26.221198 , 118.863361
漳州市,龙海市,363100,p350000/c350600/x350681,福建省漳州市龙海市, 24.446706 , 117.818197
漳州市,漳浦县,363200,p350000/c350600/x350623,福建省漳州市漳浦县, 24.117102 , 117.613808
漳州市,云霄县,363300,p350000/c350600/x350622,福建省漳州市云霄县, 23.957936 , 117.339573
漳州市,东山县,363400,p350000/c350600/x350626,福建省漳州市东山县, 23.701262 , 117.430061
漳州市,诏安县,363500,p350000/c350600/x350624,福建省漳州市诏安县, 23.711579 , 117.175185
漳州市,南靖县,363600,p350000/c350600/x350627,福建省漳州市南靖县, 24.514654 , 117.357321
漳州市,平和县,363700,p350000/c350600/x350628,福建省漳州市平和县, 24.363437 , 117.314891
漳州市,华安县,363800,p350000/c350600/x350629,福建省漳州市华安县, 25.004425 , 117.534103
漳州市,长泰县,363900,p350000/c350600/x350625,福建省漳州市长泰县, 24.625449 , 117.759153
临汾市,霍州市,031400,p140000/c141000/x141082,山西省临汾市霍州市, 36.568931 , 111.755398
临汾市,汾西县,031500,p140000/c141000/x141034,山西省临汾市汾西县, 36.652855 , 111.563951
临汾市,蒲县,041200,p140000/c141000/x141033,山西省临汾市蒲县, 36.411827 , 111.096439
临汾市,隰县,041300,p140000/c141000/x141031,山西省临汾市隰县, 36.693331 , 110.940638
临汾市,永和县,041400,p140000/c141000/x141032,山西省临汾市永和县, 36.759507 , 110.632007
临汾市,襄汾县,041500,p140000/c141000/x141023,山西省临汾市襄汾县, 35.876293 , 111.441725
临汾市,洪洞县,041600,p140000/c141000/x141024,山西省临汾市洪洞县, 36.253748 , 111.674966
临汾市,乡宁县,042100,p140000/c141000/x141029,山西省临汾市乡宁县, 35.970389 , 110.847021
临汾市,吉县,042200,p140000/c141000/x141028,山西省临汾市吉县, 36.098188 , 110.681763
临汾市,大宁县,042300,p140000/c141000/x141030,山西省临汾市大宁县, 36.465133 , 110.752903
临汾市,古县,042400,p140000/c141000/x141025,山西省临汾市古县, 36.266914 , 111.920466
临汾市,安泽县,042500,p140000/c141000/x141026,山西省临汾市安泽县, 36.147787 , 112.250144
临汾市,浮山县,042600,p140000/c141000/x141027,山西省临汾市浮山县, 35.968124 , 111.848883
临汾市,侯马市,043000,p140000/c141000/x141081,山西省临汾市侯马市, 35.619105 , 111.372002
临汾市,曲沃县,043400,p140000/c141000/x141021,山西省临汾市曲沃县, 35.641087 , 111.475861
临汾市,翼城县,043500,p140000/c141000/x141022,山西省临汾市翼城县, 35.738576 , 111.718951
吕梁市,交城县,030500,p140000/c141100/x141122,山西省吕梁市交城县, 37.551968 , 112.155921
吕梁市,文水县,032100,p140000/c141100/x141121,山西省吕梁市文水县, 37.438102 , 112.028866
吕梁市,汾阳市,032200,p140000/c141100/x141182,山西省吕梁市汾阳市, 37.261564 , 111.769894
吕梁市,孝义市,032300,p140000/c141100/x141181,山西省吕梁市孝义市, 37.146294 , 111.778818
吕梁市,交口县,032400,p140000/c141100/x141130,山西省吕梁市交口县, 36.982186 , 111.181151
吕梁市,石楼县,032500,p140000/c141100/x141126,山西省吕梁市石楼县, 36.998494 , 110.834505
吕梁市,离石区,033000,p140000/c141100/x141102,山西省吕梁市离石区, 37.517641 , 111.150733
吕梁市,方山县,033100,p140000/c141100/x141128,山西省吕梁市方山县, 37.894631 , 111.244098
吕梁市,临县,033200,p140000/c141100/x141124,山西省吕梁市临县, 37.950758 , 110.992094
吕梁市,柳林县,033300,p140000/c141100/x141125,山西省吕梁市柳林县, 37.429832 , 110.889071
吕梁市,中阳县,033400,p140000/c141100/x141129,山西省吕梁市中阳县, 37.357058 , 111.179657
吕梁市,岚县,033500,p140000/c141100/x141127,山西省吕梁市岚县, 38.279299 , 111.671917
吕梁市,兴县,033600,p140000/c141100/x141123,山西省吕梁市兴县, 38.462390 , 111.127668
晋城市,泽州县,048012,p140000/c140500/x140525,山西省晋城市泽州县, 35.617221 , 112.899137
晋城市,阳城县,048100,p140000/c140500/x140522,山西省晋城市阳城县, 35.486029 , 112.414738
晋城市,沁水县,048200,p140000/c140500/x140521,山西省晋城市沁水县, 35.690141 , 112.186739
晋城市,陵川县,048300,p140000/c140500/x140524,山西省晋城市陵川县, 35.775685 , 113.280688
晋城市,高平市,048400,p140000/c140500/x140581,山西省晋城市高平市, 35.797997 , 112.923920
忻洲市,原平市,034100,p140000/c140900/x140981,山西省忻洲市原平市, 38.731402 , 112.711059
忻洲市,代县,034200,p140000/c140900/x140923,山西省忻洲市代县, 39.076620 , 112.984148
忻洲市,繁峙县,034300,p140000/c140900/x140924,山西省忻洲市繁峙县, 39.188811 , 113.265564
忻洲市,静乐县,035100,p140000/c140900/x140926,山西省忻洲市静乐县, 38.359036 , 111.939440
忻洲市,定襄县,035400,p140000/c140900/x140921,山西省忻洲市定襄县, 38.473548 , 112.957215
忻洲市,五台县,035500,p140000/c140900/x140922,山西省忻洲市五台县, 38.728315 , 113.255309
忻洲市,神池县,036100,p140000/c140900/x140927,山西省忻洲市神池县, 39.090553 , 112.211297
忻洲市,五寨县,036200,p140000/c140900/x140928,山西省忻洲市五寨县, 38.910726 , 111.846905
忻洲市,苛岚县,036300,p140000/c140900/x140929,山西省忻洲市苛岚县, 38.704180 , 111.572850
忻洲市,偏关县,036400,p140000/c140900/x140932,山西省忻洲市偏关县, 39.436306 , 111.508831
忻洲市,河曲县,036500,p140000/c140900/x140930,山西省忻洲市河曲县, 39.384482 , 111.138472
忻洲市,保德县,036600,p140000/c140900/x140931,山西省忻洲市保德县, 39.022488 , 111.086564
忻洲市,宁武县,036700,p140000/c140900/x140925,山西省忻洲市宁武县, 39.001524 , 112.304722
泰州市,靖江市,214500,p320000/c321200/x321282,江苏省泰州市靖江市, 31.982751 , 120.277138
泰州市,泰兴市,225400,p320000/c321200/x321283,江苏省泰州市泰兴市, 32.171854 , 120.051744
泰州市,姜堰市,225500,p320000/c321200/x321284,江苏省泰州市姜堰市, 32.509155 , 120.127934
泰州市,兴化市,225700,p320000/c321200/x321281,江苏省泰州市兴化市, 32.910459 , 119.852541
南通市,海门市,226100,p320000/c320600/x320684,江苏省南通市海门市, 31.871173 , 121.181615
南通市,启东市,226200,p320000/c320600/x320681,江苏省南通市启东市, 31.808026 , 121.657441
南通市,通州市,226300,p320000/c320600/x320683,江苏省南通市通州市, 32.064170 , 121.075046
南通市,如东县,226400,p320000/c320600/x320623,江苏省南通市如东县, 32.331766 , 121.185201
南通市,如皋市,226500,p320000/c320600/x320682,江苏省南通市如皋市, 32.370557 , 120.574946
南通市,海安县,226600,p320000/c320600/x320621,江苏省南通市海安县, 32.548507 , 120.505684
毕节地区,黔西县,551500,p520000/c522400/x522423,贵州省毕节地区黔西县, 27.283955 , 105.291644
毕节地区,大方县,551600,p520000/c522400/x522422,贵州省毕节地区大方县, 27.181930 , 105.708908
毕节地区,毕节市,551700,p520000/c522400/x522401,贵州省毕节地区毕节市, 27.302740 , 105.284655
毕节地区,金沙县,551800,p520000/c522400/x522424,贵州省毕节地区金沙县, 27.283955 , 105.291644
毕节地区,织金县,552100,p520000/c522400/x522425,贵州省毕节地区织金县, 26.764610 , 105.897129
毕节地区,威宁彝族自治县,553100,p520000/c522400/x522427,贵州省毕节地区威宁彝族自治县, 26.860388 , 104.286225
毕节地区,赫章县,553200,p520000/c522400/x522428,贵州省毕节地区赫章县, 27.283955 , 105.291644
毕节地区,纳雍县,553300,p520000/c522400/x522426,贵州省毕节地区纳雍县, 27.283955 , 105.291644
淮安市,金湖县,211600,p320000/c320800/x320831,江苏省淮安市金湖县, 33.025433 , 119.020585
淮安市,盱眙县,211700,p320000/c320800/x320830,江苏省淮安市盱眙县, 33.011971 , 118.544361
淮安市,洪泽县,223100,p320000/c320800/x320829,江苏省淮安市洪泽县, 33.294223 , 118.873138
淮安市,楚州区,223200,p320000/c320800/x320803,江苏省淮安市楚州区, 33.505243 , 119.149795
淮安市,淮阴区,223300,p320000/c320800/x320804,江苏省淮安市淮阴区, 33.631893 , 119.034725
淮安市,涟水县,223400,p320000/c320800/x320826,江苏省淮安市涟水县, 33.780960 , 119.260335
黄石市,大冶市,435100,p420000/c420200/x420281,湖北省黄石市大冶市, 30.095643 , 114.979875
黄石市,阳新县,435200,p420000/c420200/x420222,湖北省黄石市阳新县, 29.830258 , 115.215227
庆阳市,镇原县,744500,p620000/c621000/x621027,甘肃省庆阳市镇原县, 35.677462 , 107.200832
庆阳市,西峰区,745000,p620000/c621000/x621002,甘肃省庆阳市西峰区, 35.730652 , 107.651077
庆阳市,庆城县,745100,p620000/c621000/x621021,甘肃省庆阳市庆城县, 36.016299 , 107.881802
庆阳市,宁县,745200,p620000/c621000/x621026,甘肃省庆阳市宁县, 35.502177 , 107.928369
庆阳市,正宁县,745300,p620000/c621000/x621025,甘肃省庆阳市正宁县, 35.491890 , 108.359976
庆阳市,合水县,745400,p620000/c621000/x621024,甘肃省庆阳市合水县, 35.819243 , 108.019530
庆阳市,华池县,745600,p620000/c621000/x621023,甘肃省庆阳市华池县, 36.461355 , 107.990035
庆阳市,环县,745700,p620000/c621000/x621022,甘肃省庆阳市环县, 36.568435 , 107.308501
平凉市,静宁县,743400,p620000/c620800/x620826,甘肃省平凉市静宁县, 35.521977 , 105.732556
平凉市,崆峒区,744000,p620000/c620800/x620802,甘肃省平凉市崆峒区, 35.542491 , 106.674767
平凉市,华亭县,744100,p620000/c620800/x620824,甘肃省平凉市华亭县, 35.218292 , 106.653158
平凉市,崇信县,744200,p620000/c620800/x620823,甘肃省平凉市崇信县, 35.302123 , 107.035409
平凉市,泾川县,744300,p620000/c620800/x620821,甘肃省平凉市泾川县, 35.332666 , 107.367850
平凉市,灵台县,744400,p620000/c620800/x620822,甘肃省平凉市灵台县, 35.065399 , 107.621124
平凉市,庄浪县,744600,p620000/c620800/x620825,甘肃省平凉市庄浪县, 35.202385 , 106.036687
邢台市,邢台县,054000,p130000/c130500/x130521,河北省邢台市邢台县, 37.050730 , 114.561132
邢台市,沙河市,054100,p130000/c130500/x130582,河北省邢台市沙河市, 36.854922 , 114.503335
邢台市,内邱县,054200,p130000/c130500/x130523,河北省邢台市内邱县, 37.286669 , 114.512128
邢台市,临城县,054300,p130000/c130500/x130522,河北省邢台市临城县, 37.444499 , 114.498762
邢台市,南和县,054400,p130000/c130500/x130527,河北省邢台市南和县, 37.005041 , 114.683762
邢台市,平乡县,054500,p130000/c130500/x130532,河北省邢台市平乡县, 37.063148 , 115.030076
邢台市,广宗县,054600,p130000/c130500/x130531,河北省邢台市广宗县, 37.074660 , 115.142607
邢台市,威县,054700,p130000/c130500/x130533,河北省邢台市威县, 36.975377 , 115.266780
邢台市,清河县,054800,p130000/c130500/x130534,河北省邢台市清河县, 37.039991 , 115.667209
邢台市,临西县,054900,p130000/c130500/x130535,河北省邢台市临西县, 36.870813 , 115.501048
邢台市,任县,055150,p130000/c130500/x130526,河北省邢台市任县, 37.120983 , 114.671936
邢台市,巨鹿县,055250,p130000/c130500/x130529,河北省邢台市巨鹿县, 37.221112 , 115.037478
邢台市,隆尧县,055350,p130000/c130500/x130525,河北省邢台市隆尧县, 37.350173 , 114.770419
邢台市,柏乡县,055450,p130000/c130500/x130524,河北省邢台市柏乡县, 37.482423 , 114.693426
邢台市,宁晋县,055550,p130000/c130500/x130528,河北省邢台市宁晋县, 37.619886 , 114.919301
邢台市,新河县,055650,p130000/c130500/x130530,河北省邢台市新河县, 37.528719 , 115.242070
邢台市,南宫市,055750,p130000/c130500/x130581,河北省邢台市南宫市, 37.359264 , 115.408748
通化市,通化县,134100,p220000/c220500/x220521,吉林省通化市通化县, 41.679808 , 125.759259
通化市,集安市,134200,p220000/c220500/x220582,吉林省通化市集安市, 41.125307 , 126.194031
通化市,梅河口市,135000,p220000/c220500/x220581,吉林省通化市梅河口市, 42.530341 , 125.683832
通化市,辉南县,135100,p220000/c220500/x220523,吉林省通化市辉南县, 42.684993 , 126.046912
通化市,柳河县,135300,p220000/c220500/x220524,吉林省通化市柳河县, 42.284606 , 125.744735
温泉,咸安区,437000,p420000/c421200/x421202,湖北省温泉咸安区, 29.824613 , 114.333748
温泉,嘉鱼县,437200,p420000/c421200/x421221,湖北省温泉嘉鱼县, 29.823326 , 114.333282
温泉,赤壁市,437300,p420000/c421200/x421281,湖北省温泉赤壁市, 29.819997 , 114.331590
温泉,通城县,437400,p420000/c421200/x421222,湖北省温泉通城县, 30.546498 , 114.341862
温泉,崇阳县,437500,p420000/c421200/x421223,湖北省温泉崇阳县, 29.818969 , 114.330593
温泉,通山县,437600,p420000/c421200/x421224,湖北省温泉通山县, 29.824678 , 114.333784
镇江市,丹徒区,212100,p320000/c321100/x321112,江苏省镇江市丹徒区, 32.131962 , 119.433854
镇江市,扬中市,212200,p320000/c321100/x321182,江苏省镇江市扬中市, 32.234827 , 119.797409
镇江市,丹阳市,212300,p320000/c321100/x321181,江苏省镇江市丹阳市, 32.010117 , 119.606536
镇江市,句容市,212400,p320000/c321100/x321183,江苏省镇江市句容市, 31.944999 , 119.168695
甘南藏族自治州,舟曲县,746300,p620000/c623000/x623023,甘肃省甘南藏族自治州舟曲县, 33.785259 , 104.371586
甘南藏族自治州,合作市,747000,p620000/c623000/x623001,甘肃省甘南藏族自治州合作市, 35.000399 , 102.910882
甘南藏族自治州,夏河县,747100,p620000/c623000/x623027,甘肃省甘南藏族自治州夏河县, 35.202503 , 102.521807
甘南藏族自治州,碌曲县,747200,p620000/c623000/x623026,甘肃省甘南藏族自治州碌曲县, 34.590944 , 102.487327
甘南藏族自治州,玛曲县,747300,p620000/c623000/x623025,甘肃省甘南藏族自治州玛曲县, 33.997712 , 102.072698
甘南藏族自治州,迭部县,747400,p620000/c623000/x623024,甘肃省甘南藏族自治州迭部县, 34.055939 , 103.221870
甘南藏族自治州,临潭县,747500,p620000/c623000/x623021,甘肃省甘南藏族自治州临潭县, 34.692747 , 103.353919
甘南藏族自治州,卓尼县,747600,p620000/c623000/x623022,甘肃省甘南藏族自治州卓尼县, 34.589588 , 103.507109
定西市,临洮县,730500,p620000/c621100/x621124,甘肃省定西市临洮县, 35.394989 , 103.859565
定西市,安定区,743000,p620000/c621100/x621102,甘肃省定西市安定区, 35.580629 , 104.610668
定西市,通渭县,743300,p620000/c621100/x621121,甘肃省定西市通渭县, 35.210831 , 105.242061
定西市,陇西县,748100,p620000/c621100/x621122,甘肃省定西市陇西县, 35.003940 , 104.634984
定西市,渭源县,748200,p620000/c621100/x621123,甘肃省定西市渭源县, 35.136755 , 104.215467
定西市,漳县,748300,p620000/c621100/x621125,甘肃省定西市漳县, 34.848444 , 104.471572
定西市,岷县,748400,p620000/c621100/x621126,甘肃省定西市岷县, 34.438076 , 104.036880
石家庄市,井陉矿区,050100,p130000/c130100/x130107,河北省石家庄市井陉矿区, 38.065668 , 114.063410
石家庄市,鹿泉市,050200,p130000/c130100/x130185,河北省石家庄市鹿泉市, 38.085958 , 114.313724
石家庄市,井陉县,050300,p130000/c130100/x130121,河北省石家庄市井陉县, 38.032148 , 114.145240
石家庄市,平山县,050400,p130000/c130100/x130131,河北省石家庄市平山县, 38.265728 , 113.979207
石家庄市,灵寿县,050500,p130000/c130100/x130126,河北省石家庄市灵寿县, 38.308628 , 114.382645
石家庄市,行唐县,050600,p130000/c130100/x130125,河北省石家庄市行唐县, 38.438411 , 114.552692
石家庄市,新乐市,050700,p130000/c130100/x130184,河北省石家庄市新乐市, 38.343296 , 114.684014
石家庄市,正定县,050800,p130000/c130100/x130123,河北省石家庄市正定县, 38.146445 , 114.570941
石家庄市,元氏县,051100,p130000/c130100/x130132,河北省石家庄市元氏县, 37.766651 , 114.525580
石家庄市,赞皇县,051230,p130000/c130100/x130129,河北省石家庄市赞皇县, 37.665600 , 114.386183
石家庄市,高邑县,051330,p130000/c130100/x130127,河北省石家庄市高邑县, 37.615363 , 114.611522
石家庄市,栾城县,051430,p130000/c130100/x130124,河北省石家庄市栾城县, 37.900200 , 114.648318
石家庄市,赵县,051530,p130000/c130100/x130133,河北省石家庄市赵县, 37.756430 , 114.776185
石家庄市,藁城市,052160,p130000/c130100/x130182,河北省石家庄市藁城市, 38.021567 , 114.847075
石家庄市,晋州市,052260,p130000/c130100/x130183,河北省石家庄市晋州市, 38.033629 , 115.044185
石家庄市,辛集市,052360,p130000/c130100/x130181,河北省石家庄市辛集市, 37.943123 , 115.218021
石家庄市,无极县,052460,p130000/c130100/x130130,河北省石家庄市无极县, 38.179141 , 114.976337
石家庄市,深泽县,052560,p130000/c130100/x130128,河北省石家庄市深泽县, 38.184072 , 115.200910
新余市,分宜县,336600,p360000/c360500/x360521,江西省新余市分宜县, 27.814758 , 114.692050
海西州,格尔木市,816000,p630000/c632800/x632801,青海省海西州格尔木市, 36.406404 , 94.928484
海西州,都兰县,816100,p630000/c632800/x632822,青海省海西州都兰县, 36.302496 , 98.095844
海西州,德令哈市,817000,p630000/c632800/x632802,青海省海西州德令哈市, 37.369436 , 97.360985
海西州,乌兰县,817100,p630000/c632800/x632821,青海省海西州乌兰县, 36.929749 , 98.480195
海西州,天峻县,817200,p630000/c632800/x632823,青海省海西州天峻县, 37.300851 , 99.022984
荆州市,洪湖市,433200,p420000/c421000/x421083,湖北省荆州市洪湖市, 29.825458 , 113.475980
荆州市,监利县,433300,p420000/c421000/x421023,湖北省荆州市监利县, 29.811574 , 112.897465
荆州市,江陵县,434100,p420000/c421000/x421024,湖北省荆州市江陵县, 30.041822 , 112.424664
荆州市,松滋市,434200,p420000/c421000/x421087,湖北省荆州市松滋市, 30.172945 , 111.606778
荆州市,公安县,434300,p420000/c421000/x421022,湖北省荆州市公安县, 30.058336 , 112.229648
荆州市,石首市,434400,p420000/c421000/x421081,湖北省荆州市石首市, 29.720938 , 112.425454
武汉市,蔡甸区,430100,p420000/c420100/x420114,湖北省武汉市蔡甸区, 30.582151 , 114.029230
武汉市,江夏区,430200,p420000/c420100/x420115,湖北省武汉市江夏区, 30.375723 , 114.321632
武汉市,黄陂区,430300,p420000/c420100/x420116,湖北省武汉市黄陂区, 30.881289 , 114.375837
武汉市,新洲区,430400,p420000/c420100/x420117,湖北省武汉市新洲区, 30.841508 , 114.801264
临夏州,临夏市,731100,p620000/c622900/x622901,甘肃省临夏州临夏市, 35.604376 , 103.243021
临夏州,和政县,731200,p620000/c622900/x622925,甘肃省临夏州和政县, 35.424603 , 103.350997
临夏州,广河县,731300,p620000/c622900/x622924,甘肃省临夏州广河县, 35.488052 , 103.575834
临夏州,东乡族自治县,731400,p620000/c622900/x622926,甘肃省临夏州东乡族自治县, 35.663752 , 103.389346
临夏州,康乐县,731500,p620000/c622900/x622922,甘肃省临夏州康乐县, 35.370505 , 103.708354
临夏州,永靖县,731600,p620000/c622900/x622923,甘肃省临夏州永靖县, 35.958306 , 103.285854
临夏州,临夏县,731800,p620000/c622900/x622921,甘肃省临夏州临夏县, 35.491637 , 102.995502
辽源市,东丰县,136300,p220000/c220400/x220421,吉林省辽源市东丰县, 42.676936 , 125.530991
辽源市,东辽县,136600,p220000/c220400/x220422,吉林省辽源市东辽县, 42.926331 , 124.991521
九江市,永修县,330300,p360000/c360400/x360425,江西省九江市永修县, 29.021824 , 115.809111
九江市,德安县,330400,p360000/c360400/x360426,江西省九江市德安县, 29.314348 , 115.756883
九江市,九江县,332100,p360000/c360400/x360421,江西省九江市九江县, 29.608431 , 115.911323
九江市,瑞昌市,332200,p360000/c360400/x360481,江西省九江市瑞昌市, 29.675874 , 115.681337
九江市,武宁县,332300,p360000/c360400/x360423,江西省九江市武宁县, 29.256323 , 115.100579
九江市,修水县,332400,p360000/c360400/x360424,江西省九江市修水县, 29.026022 , 114.546702
九江市,湖口县,332500,p360000/c360400/x360429,江西省九江市湖口县, 29.731101 , 116.251947
九江市,都昌县,332600,p360000/c360400/x360428,江西省九江市都昌县, 29.273194 , 116.204099
九江市,彭泽县,332700,p360000/c360400/x360430,江西省九江市彭泽县, 29.896061 , 116.549359
九江市,星子县,332800,p360000/c360400/x360427,江西省九江市星子县, 29.448128 , 116.045060
九江市,庐山区,332900,p360000/c360400/x360402,江西省九江市庐山区, 29.671775 , 115.989212
玉树州,玉树县,815000,p630000/c632700/x632721,青海省玉树州玉树县, 32.993107 , 97.008785
玉树州,称多县,815100,p630000/c632700/x632723,青海省玉树州称多县, 33.369218 , 97.110832
玉树州,囊谦县,815200,p630000/c632700/x632725,青海省玉树州囊谦县, 32.203246 , 96.480650
玉树州,杂多县,815300,p630000/c632700/x632722,青海省玉树州杂多县, 32.893185 , 95.300723
玉树州,治多县,815400,p630000/c632700/x632724,青海省玉树州治多县, 33.852751 , 95.613080
玉树州,曲麻莱县,815500,p630000/c632700/x632726,青海省玉树州曲麻莱县, 34.126429 , 95.797367
恩施州,巴东县,444300,p420000/c422800/x422823,湖北省恩施州巴东县, 31.042324 , 110.340756
恩施州,恩施市,445000,p420000/c422800/x422801,湖北省恩施州恩施市, 30.294680 , 109.479665
恩施州,建始县,445300,p420000/c422800/x422822,湖北省恩施州建始县, 30.601555 , 109.726667
恩施州,利川市,445400,p420000/c422800/x422802,湖北省恩施州利川市, 30.290996 , 108.936376
恩施州,宣恩县,445500,p420000/c422800/x422825,湖北省恩施州宣恩县, 29.986899 , 109.491485
恩施州,咸丰县,445600,p420000/c422800/x422826,湖北省恩施州咸丰县, 29.665203 , 109.139726
恩施州,来凤县,445700,p420000/c422800/x422827,湖北省恩施州来凤县, 29.493485 , 109.407828
恩施州,鹤峰县,445800,p420000/c422800/x422828,湖北省恩施州鹤峰县, 29.890171 , 110.033662
宜昌市,夷陵区,443100,p420000/c420500/x420506,湖北省宜昌市夷陵区, 30.770022 , 111.326348
宜昌市,枝江市,443200,p420000/c420500/x420583,湖北省宜昌市枝江市, 30.425940 , 111.760531
宜昌市,宜都市,443300,p420000/c420500/x420581,湖北省宜昌市宜都市, 30.378327 , 111.450006
宜昌市,五峰县,443400,p420000/c420500/x420529,湖北省宜昌市五峰县, 30.199688 , 110.674706
宜昌市,长阳县,443500,p420000/c420500/x420528,湖北省宜昌市长阳县, 30.467146 , 111.198731
宜昌市,秭归县,443600,p420000/c420500/x420527,湖北省宜昌市秭归县, 30.825897 , 110.977711
宜昌市,兴山县,443700,p420000/c420500/x420526,湖北省宜昌市兴山县, 31.348196 , 110.746805
宜昌市,当阳市,444100,p420000/c420500/x420582,湖北省宜昌市当阳市, 30.821266 , 111.788312
宜昌市,远安县,444200,p420000/c420500/x420525,湖北省宜昌市远安县, 31.060869 , 111.640508
襄樊市,襄阳区,441100,p420000/c420600/x420607,湖北省襄樊市襄阳区, 32.012633 , 112.155115
襄樊市,枣阳市,441200,p420000/c420600/x420683,湖北省襄樊市枣阳市, 32.122183 , 112.753469
襄樊市,宜城市,441400,p420000/c420600/x420684,湖北省襄樊市宜城市, 32.021256 , 112.138414
襄樊市,南漳县,441500,p420000/c420600/x420624,湖北省襄樊市南漳县, 31.773432 , 111.824112
襄樊市,保康县,441600,p420000/c420600/x420626,湖北省襄樊市保康县, 31.864890 , 111.264902
襄樊市,谷城县,441700,p420000/c420600/x420625,湖北省襄樊市谷城县, 32.180577 , 111.392316
襄樊市,老河口市,441800,p420000/c420600/x420682,湖北省襄樊市老河口市, 32.379887 , 111.680788
海东地区,互助土族自治县,810500,p630000/c632100/x632126,青海省海东地区互助土族自治县, 36.832233 , 101.950347
海东地区,平安县,810600,p630000/c632100/x632121,青海省海东地区平安县, 36.498197 , 102.106170
海东地区,乐都县,810700,p630000/c632100/x632123,青海省海东地区乐都县, 36.480689 , 102.395056
海东地区,民和回族土族自治县,810800,p630000/c632100/x632122,青海省海东地区民和回族土族自治县, 36.329278 , 102.803200
海东地区,化隆回族自治县,810900,p630000/c632100/x632127,青海省海东地区化隆回族自治县, 36.102307 , 102.258527
海东地区,循化撒拉族自治县,811100,p630000/c632100/x632128,青海省海东地区循化撒拉族自治县, 35.848860 , 102.484287
西宁市,大通回族土族自治县,810100,p630000/c630100/x630121,青海省西宁市大通回族土族自治县, 36.926955 , 101.685643
西宁市,湟中县,811600,p630000/c630100/x630122,青海省西宁市湟中县, 36.500879 , 101.571667
西宁市,湟源县,812100,p630000/c630100/x630123,青海省西宁市湟源县, 36.682427 , 101.256464
黄南州,尖扎县,811200,p630000/c632300/x632322,青海省黄南州尖扎县, 35.938299 , 102.031183
黄南州,同仁县,811300,p630000/c632300/x632321,青海省黄南州同仁县, 35.516063 , 102.018323
黄南州,泽库县,811400,p630000/c632300/x632323,青海省黄南州泽库县, 35.035313 , 101.466689
黄南州,河******族自治县,811500,p630000/c632300/x632324,青海省黄南州河******族自治县, 34.732503 , 100.911075
中卫市,中宁县,755100,p640000/c640500/x640521,宁夏回族自治区中卫市中宁县, 37.491505 , 105.685285
中卫市,海原县,755200,p640000/c640500/x640522,宁夏回族自治区中卫市海原县, 36.565033 , 105.643487
海南州,贵德县,811700,p630000/c632500/x632523,青海省海南州贵德县, 36.040150 , 101.433298
海南州,共和县,813000,p630000/c632500/x632521,青海省海南州共和县, 36.284107 , 100.620031
海南州,贵南县,813100,p630000/c632500/x632525,青海省海南州贵南县, 35.586715 , 100.747503
海南州,同德县,813200,p630000/c632500/x632522,青海省海南州同德县, 35.254791 , 100.578052
海南州,兴海县,813300,p630000/c632500/x632524,青海省海南州兴海县, 35.588613 , 99.987966
咸宁市,咸安区,437000,p420000/c421200/x421202,湖北省咸宁市咸安区, 29.852899 , 114.298726
咸宁市,嘉鱼县,437200,p420000/c421200/x421221,湖北省咸宁市嘉鱼县, 29.970737 , 113.939277
咸宁市,赤壁市,437300,p420000/c421200/x421281,湖北省咸宁市赤壁市, 29.724692 , 113.900628
咸宁市,通城县,437400,p420000/c421200/x421222,湖北省咸宁市通城县, 29.245269 , 113.816966
咸宁市,崇阳县,437500,p420000/c421200/x421223,湖北省咸宁市崇阳县, 29.555605 , 114.039828
咸宁市,通山县,437600,p420000/c421200/x421224,湖北省咸宁市通山县, 29.605376 , 114.482606
果洛州,久治县,624700,p630000/c632600/x632625,青海省果洛州久治县, 33.429471 , 101.482831
果洛州,玛多县,813500,p630000/c632600/x632626,青海省果洛州玛多县, 34.915946 , 98.209206
果洛州,玛沁县,814000,p630000/c632600/x632621,青海省果洛州玛沁县, 34.477433 , 100.238888
果洛州,甘德县,814100,p630000/c632600/x632623,青海省果洛州甘德县, 33.969219 , 99.900905
果洛州,达日县,814200,p630000/c632600/x632624,青海省果洛州达日县, 33.748921 , 99.651392
果洛州,班玛县,814300,p630000/c632600/x632622,青海省果洛州班玛县, 32.932723 , 100.737138
大同市,灵丘县,034400,p140000/c140200/x140224,山西省大同市灵丘县, 39.442406 , 114.234350
大同市,左云县,037100,p140000/c140200/x140226,山西省大同市左云县, 40.013442 , 112.703008
大同市,大同县,037300,p140000/c140200/x140227,山西省大同市大同县, 40.040295 , 113.612440
大同市,浑源县,037400,p140000/c140200/x140225,山西省大同市浑源县, 39.693407 , 113.699475
大同市,广灵县,037500,p140000/c140200/x140223,山西省大同市广灵县, 39.760281 , 114.282758
大同市,阳高县,038100,p140000/c140200/x140221,山西省大同市阳高县, 40.361060 , 113.748945
大同市,天镇县,038200,p140000/c140200/x140222,山西省大同市天镇县, 40.420237 , 114.090867
吉安市,新干县,331300,p360000/c360800/x360824,江西省吉安市新干县, 27.740192 , 115.387052
吉安市,峡江县,331400,p360000/c360800/x360823,江西省吉安市峡江县, 27.582901 , 115.316566
吉安市,永丰县,331500,p360000/c360800/x360825,江西省吉安市永丰县, 27.318876 , 115.443760
吉安市,吉水县,331600,p360000/c360800/x360822,江西省吉安市吉水县, 27.229632 , 115.135507
吉安市,吉安县,343100,p360000/c360800/x360821,江西省吉安市吉安县, 27.039890 , 114.907733
吉安市,安福县,343200,p360000/c360800/x360829,江西省吉安市安福县, 27.392874 , 114.619893
吉安市,永新县,343400,p360000/c360800/x360830,江西省吉安市永新县, 26.945002 , 114.243096
吉安市,井冈山市,343600,p360000/c360800/x360881,江西省吉安市井冈山市, 26.748081 , 114.289228
吉安市,泰和县,343700,p360000/c360800/x360826,江西省吉安市泰和县, 26.790231 , 114.908861
吉安市,万安县,343800,p360000/c360800/x360828,江西省吉安市万安县, 26.458254 , 114.786182
吉安市,遂川县,343900,p360000/c360800/x360827,江西省吉安市遂川县, 26.313737 , 114.520537
上饶市,鄱阳县,333100,p360000/c361100/x361128,江西省上饶市鄱阳县, 29.011699 , 116.699746
上饶市,婺源县,333200,p360000/c361100/x361130,江西省上饶市婺源县, 29.248086 , 117.861798
上饶市,上饶县,334100,p360000/c361100/x361121,江西省上饶市上饶县, 28.448983 , 117.907850
上饶市,德兴市,334200,p360000/c361100/x361181,江西省上饶市德兴市, 28.946464 , 117.578713
上饶市,横峰县,334300,p360000/c361100/x361125,江西省上饶市横峰县, 28.407118 , 117.596452
上饶市,弋阳县,334400,p360000/c361100/x361126,江西省上饶市弋阳县, 28.378044 , 117.449588
上饶市,铅山县,334500,p360000/c361100/x361124,江西省上饶市铅山县, 28.315217 , 117.709451
上饶市,广丰县,334600,p360000/c361100/x361122,江西省上饶市广丰县, 28.436286 , 118.191240
上饶市,玉山县,334700,p360000/c361100/x361123,江西省上饶市玉山县, 28.682055 , 118.245124
上饶市,余干县,335100,p360000/c361100/x361127,江西省上饶市余干县, 28.702302 , 116.695647
上饶市,万年县,335500,p360000/c361100/x361129,江西省上饶市万年县, 28.694582 , 117.058445
太原市,阳曲县,030100,p140000/c140100/x140122,山西省太原市阳曲县, 38.058489 , 112.672953
太原市,古交市,030200,p140000/c140100/x140181,山西省太原市古交市, 37.918219 , 112.164749
太原市,娄烦县,030300,p140000/c140100/x140123,山西省太原市娄烦县, 38.067647 , 111.797428
太原市,清徐县,030400,p140000/c140100/x140121,山西省太原市清徐县, 37.607443 , 112.358667
宜春市,靖安县,330600,p360000/c360900/x360925,江西省宜春市靖安县, 28.861479 , 115.362629
宜春市,奉新县,330700,p360000/c360900/x360921,江西省宜春市奉新县, 28.688423 , 115.400491
宜春市,高安市,330800,p360000/c360900/x360983,江西省宜春市高安市, 28.417255 , 115.375616
宜春市,丰城市,331100,p360000/c360900/x360981,江西省宜春市丰城市, 28.159142 , 115.771094
宜春市,樟树市,331200,p360000/c360900/x360982,江西省宜春市樟树市, 28.055853 , 115.546152
宜春市,万载县,336100,p360000/c360900/x360922,江西省宜春市万载县, 28.105689 , 114.444854
宜春市,铜鼓县,336200,p360000/c360900/x360926,江西省宜春市铜鼓县, 28.520770 , 114.371172
宜春市,宜丰县,336300,p360000/c360900/x360924,江西省宜春市宜丰县, 28.393610 , 114.803540
宜春市,上高县,336400,p360000/c360900/x360923,江西省宜春市上高县, 28.232827 , 114.924494
四平市,伊通县,130700,p220000/c220300/x220323,吉林省四平市伊通县, 43.345754 , 125.305394
四平市,公主岭市,136100,p220000/c220300/x220381,吉林省四平市公主岭市, 43.504687 , 124.822830
四平市,双辽市,136400,p220000/c220300/x220382,吉林省四平市双辽市, 43.518302 , 123.502724
四平市,梨树县,136500,p220000/c220300/x220322,吉林省四平市梨树县, 43.307060 , 124.335390
孝感市,汉川市,431600,p420000/c420900/x420984,湖北省孝感市汉川市, 30.661244 , 113.839149
孝感市,应城市,432400,p420000/c420900/x420981,湖北省孝感市应城市, 30.928370 , 113.572707
孝感市,云梦县,432500,p420000/c420900/x420923,湖北省孝感市云梦县, 31.020983 , 113.753554
孝感市,安陆市,432600,p420000/c420900/x420982,湖北省孝感市安陆市, 31.255594 , 113.689025
孝感市,大悟县,432800,p420000/c420900/x420922,湖北省孝感市大悟县, 31.561165 , 114.127022
孝感市,孝昌县,432900,p420000/c420900/x420921,湖北省孝感市孝昌县, 31.258159 , 113.998010
荆门市,京山县,431800,p420000/c420800/x420821,湖北省荆门市京山县, 31.018457 , 113.119566
荆门市,钟祥县,431900,p420000/c420800/x420881,湖北省荆门市钟祥县, 30.929848 , 112.662098
荆门市,沙洋县,448200,p420000/c420800/x420822,湖北省荆门市沙洋县, 30.709221 , 112.588581
辽宁省,沈阳市,110000,p210000/c210100/x,辽宁省沈阳市, 41.805699 , 123.431472
辽宁省,大连市,116000,p210000/c210200/x,辽宁省大连市, 38.914003 , 121.614682
辽宁省,鞍山市,114000,p210000/c210300/x,辽宁省鞍山市, 41.108647 , 122.994329
辽宁省,抚顺市,113000,p210000/c210400/x,辽宁省抚顺市, 41.880872 , 123.957208
辽宁省,本溪市,117000,p210000/c210500/x,辽宁省本溪市, 41.486981 , 123.685143
辽宁省,丹东市,118000,p210000/c210600/x,辽宁省丹东市, 40.000787 , 124.354451
辽宁省,锦州市,121000,p210000/c210700/x,辽宁省锦州市, 41.095685 , 121.126846
辽宁省,营口市,115000,p210000/c210800/x,辽宁省营口市, 40.667012 , 122.235418
辽宁省,阜新市,123000,p210000/c210900/x,辽宁省阜新市, 42.021619 , 121.670324
辽宁省,辽阳市,111000,p210000/c211000/x,辽宁省辽阳市, 41.267244 , 123.236944
辽宁省,盘锦市,124000,p210000/c211100/x,辽宁省盘锦市, 41.119997 , 122.070714
辽宁省,铁岭市,112000,p210000/c211200/x,辽宁省铁岭市, 42.223828 , 123.726035
辽宁省,朝阳市,122000,p210000/c211300/x,辽宁省朝阳市, 41.573734 , 120.450372
辽宁省,葫芦岛市,125000,p210000/c211400/x,辽宁省葫芦岛市, 40.711041 , 120.836940
广西壮族自治区,南宁市,530000,p450000/c450100/x,广西壮族自治区南宁市, 22.817002 , 108.366543
广西壮族自治区,柳州市,545000,p450000/c450200/x,广西壮族自治区柳州市, 24.325502 , 109.415953
广西壮族自治区,桂林市,541000,p450000/c450300/x,广西壮族自治区桂林市, 25.273566 , 110.290195
广西壮族自治区,梧州市,543000,p450000/c450400/x,广西壮族自治区梧州市, 23.476963 , 111.279115
广西壮族自治区,北海市,536000,p450000/c450500/x,广西壮族自治区北海市, 21.481254 , 109.119927
广西壮族自治区,防城港市,538000,p450000/c450600/x,广西壮族自治区防城港市, 21.686860 , 108.353847
广西壮族自治区,钦州市,535000,p450000/c450700/x,广西壮族自治区钦州市, 21.979934 , 108.654147
广西壮族自治区,贵港市,537100,p450000/c450800/x,广西壮族自治区贵港市, 23.111531 , 109.598927
广西壮族自治区,玉林市,537000,p450000/c450900/x,广西壮族自治区玉林市, 22.636379 , 110.164756
广西壮族自治区,百色市,533000,p450000/c451000/x,广西壮族自治区百色市, 23.902333 , 106.618201
广西壮族自治区,贺州市,542800,p450000/c451100/x,广西壮族自治区贺州市, 24.403582 , 111.566694
广西壮族自治区,河池市,547000,p450000/c451200/x,广西壮族自治区河池市, 24.692931 , 108.085261
广西壮族自治区,来宾市,546100,p450000/c451300/x,广西壮族自治区来宾市, 23.750306 , 109.221466
广西壮族自治区,崇左市,532200,p450000/c451400/x,广西壮族自治区崇左市, 22.376533 , 107.364711
承德市,鹰手营子矿,067200,p130000/c130800/x130804,河北省承德市鹰手营子矿, 40.546754 , 117.660175
承德市,兴隆县,067300,p130000/c130800/x130822,河北省承德市兴隆县, 40.436949 , 117.513953
承德市,承德县,067400,p130000/c130800/x130821,河北省承德市承德县, 40.768238 , 118.173825
承德市,平泉县,067500,p130000/c130800/x130823,河北省承德市平泉县, 41.018405 , 118.701951
承德市,宽城县,067600,p130000/c130800/x130827,河北省承德市宽城县, 40.611391 , 118.485313
承德市,隆化县,068150,p130000/c130800/x130825,河北省承德市隆化县, 41.313791 , 117.738938
承德市,滦平县,068250,p130000/c130800/x130824,河北省承德市滦平县, 40.941482 , 117.332801
承德市,丰宁县,068350,p130000/c130800/x130826,河北省承德市丰宁县, 41.208899 , 116.645932
承德市,围场县,068450,p130000/c130800/x130828,河北省承德市围场县, 41.938529 , 117.760159
盐城市,盐都区,224000,p320000/c320900/x320903,江苏省盐城市盐都区, 33.338110 , 120.153888
盐城市,大丰市,224100,p320000/c320900/x320982,江苏省盐城市大丰市, 33.198697 , 120.501101
盐城市,东台市,224200,p320000/c320900/x320981,江苏省盐城市东台市, 32.866933 , 120.320752
盐城市,射阳县,224300,p320000/c320900/x320924,江苏省盐城市射阳县, 33.774806 , 120.258053
盐城市,阜宁县,224400,p320000/c320900/x320923,江苏省盐城市阜宁县, 33.759325 , 119.802527
盐城市,滨海县,224500,p320000/c320900/x320922,江苏省盐城市滨海县, 33.990334 , 119.820831
盐城市,响水县,224600,p320000/c320900/x320921,江苏省盐城市响水县, 34.199479 , 119.578364
盐城市,建湖县,224700,p320000/c320900/x320925,江苏省盐城市建湖县, 33.472621 , 119.793105
阿里地区,革吉县,859100,p540000/c542500/x542525,西藏自治区阿里地区革吉县, 32.387233 , 81.145433
阿里地区,改则县,859200,p540000/c542500/x542526,西藏自治区阿里地区改则县, 32.302713 , 84.062590
阿里地区,措勤县,859300,p540000/c542500/x542527,西藏自治区阿里地区措勤县, 31.016769 , 85.159494
阿里地区,噶尔县,859400,p540000/c542500/x542523,西藏自治区阿里地区噶尔县, 32.491488 , 80.096419
阿里地区,普兰县,859500,p540000/c542500/x542521,西藏自治区阿里地区普兰县, 30.294402 , 81.176237
阿里地区,扎达县,859600,p540000/c542500/x542522,西藏自治区阿里地区扎达县, 31.479217 , 79.802706
阿里地区,日土县,859700,p540000/c542500/x542524,西藏自治区阿里地区日土县, 33.381359 , 79.732427
赤峰市,宁城县,024200,p150000/c150400/x150429,内蒙古自治区赤峰市宁城县, 41.594146 , 119.342836
赤峰市,敖汉旗,024300,p150000/c150400/x150430,内蒙古自治区赤峰市敖汉旗, 42.290782 , 119.921604
赤峰市,喀喇沁旗,024400,p150000/c150400/x150428,内蒙古自治区赤峰市喀喇沁旗, 41.927364 , 118.701938
赤峰市,翁牛特旗,024500,p150000/c150400/x150426,内蒙古自治区赤峰市翁牛特旗, 42.931619 , 119.030246
赤峰市,巴林右旗,025150,p150000/c150400/x150423,内蒙古自治区赤峰市巴林右旗, 43.534414 , 118.665180
赤峰市,林西县,025250,p150000/c150400/x150424,内蒙古自治区赤峰市林西县, 43.618120 , 118.055450
赤峰市,克什克腾旗,025350,p150000/c150400/x150425,内蒙古自治区赤峰市克什克腾旗, 43.264989 , 117.545798
赤峰市,巴林左旗,025450,p150000/c150400/x150422,内蒙古自治区赤峰市巴林左旗, 43.971126 , 119.379490
赤峰市,阿鲁科尔沁旗,025550,p150000/c150400/x150421,内蒙古自治区赤峰市阿鲁科尔沁旗, 43.872299 , 120.065700
包头市,土默特右旗,014100,p150000/c150200/x150221,内蒙古自治区包头市土默特右旗, 40.569426 , 110.524263
包头市,固阳县,014200,p150000/c150200/x150222,内蒙古自治区包头市固阳县, 41.034106 , 110.060514
包头市,达尔罕茂明安联合旗,014500,p150000/c150200/x150223,内蒙古自治区包头市达尔罕茂明安联合旗, 41.698992 , 110.432626
广东省,广州市,510000,p440000/c440100/x,广东省广州市, 23.129110 , 113.264385
广东省,韶关市,512000,p440000/c440200/x,广东省韶关市, 24.810403 , 113.597522
广东省,深圳市,518000,p440000/c440300/x,广东省深圳市, 22.543099 , 114.057868
广东省,珠海市,519000,p440000/c440400/x,广东省珠海市, 22.270715 , 113.576726
广东省,汕头市,515000,p440000/c440500/x,广东省汕头市, 23.354091 , 116.681972
广东省,佛山市,528000,p440000/c440600/x,广东省佛山市, 23.021479 , 113.121436
广东省,江门市,529000,p440000/c440700/x,广东省江门市, 22.578738 , 113.081901
广东省,湛江市,524000,p440000/c440800/x,广东省湛江市, 21.270708 , 110.359377
广东省,茂名市,525000,p440000/c440900/x,广东省茂名市, 21.662999 , 110.925456
广东省,肇庆市,526000,p440000/c441200/x,广东省肇庆市, 23.047192 , 112.465091
广东省,惠州市,516000,p440000/c441300/x,广东省惠州市, 23.111847 , 114.416196
广东省,梅州市,514000,p440000/c441400/x,广东省梅州市, 24.288615 , 116.122239
广东省,汕尾市,516600,p440000/c441500/x,广东省汕尾市, 22.786211 , 115.375279
广东省,河源市,517000,p440000/c441600/x,广东省河源市, 23.743686 , 114.700961
广东省,阳江市,529500,p440000/c441700/x,广东省阳江市, 21.857958 , 111.982232
广东省,清远市,511500,p440000/c441800/x,广东省清远市, 23.681764 , 113.056031
广东省,东莞市,523000,p440000/c441900/x,广东省东莞市, 23.020536 , 113.751765
广东省,中山市,528400,p440000/c442000/x,广东省中山市, 22.516999 , 113.392725
广东省,潮州市,521000,p440000/c445100/x,广东省潮州市, 23.656950 , 116.622604
广东省,揭阳市,522000,p440000/c445200/x,广东省揭阳市, 23.549993 , 116.372831
广东省,云浮市,527300,p440000/c445300/x,广东省云浮市, 22.915094 , 112.044491
衡水市,枣强县,053100,p130000/c131100/x131121,河北省衡水市枣强县, 37.513417 , 115.724260
衡水市,冀州市,053200,p130000/c131100/x131181,河北省衡水市冀州市, 37.550821 , 115.579334
衡水市,武强县,053300,p130000/c131100/x131123,河北省衡水市武强县, 38.041368 , 115.982461
衡水市,武邑县,053400,p130000/c131100/x131122,河北省衡水市武邑县, 37.801658 , 115.887655
衡水市,景县,053500,p130000/c131100/x131127,河北省衡水市景县, 37.692290 , 116.270648
衡水市,安平县,053600,p130000/c131100/x131125,河北省衡水市安平县, 38.234510 , 115.519216
衡水市,阜城县,053700,p130000/c131100/x131128,河北省衡水市阜城县, 37.868872 , 116.144418
衡水市,深州市,053800,p130000/c131100/x131182,河北省衡水市深州市, 38.001536 , 115.559574
衡水市,饶阳县,053900,p130000/c131100/x131124,河北省衡水市饶阳县, 38.235892 , 115.725833
衡水市,故城县,253800,p130000/c131100/x131126,河北省衡水市故城县, 37.347410 , 115.965874
廊坊市,三河市,065200,p130000/c131000/x131082,河北省廊坊市三河市, 39.982718 , 117.078295
廊坊市,大厂回族自治县,065300,p130000/c131000/x131028,河北省廊坊市大厂回族自治县, 39.886548 , 116.989574
廊坊市,香河县,065400,p130000/c131000/x131024,河北省廊坊市香河县, 39.761424 , 117.006093
廊坊市,固安县,065500,p130000/c131000/x131022,河北省廊坊市固安县, 39.438214 , 116.298657
廊坊市,永清县,065600,p130000/c131000/x131023,河北省廊坊市永清县, 39.321794 , 116.499028
廊坊市,霸州市,065700,p130000/c131000/x131081,河北省廊坊市霸州市, 39.125898 , 116.391386
廊坊市,文安县,065800,p130000/c131000/x131026,河北省廊坊市文安县, 38.873281 , 116.457858
廊坊市,大城县,065900,p130000/c131000/x131025,河北省廊坊市大城县, 38.705449 , 116.653794
黔西南州,册亨县,552200,p520000/c522300/x522327,贵州省黔西南州册亨县, 24.983663 , 105.811593
黔西南州,望谟县,552300,p520000/c522300/x522326,贵州省黔西南州望谟县, 25.178422 , 106.099617
黔西南州,安龙县,552400,p520000/c522300/x522328,贵州省黔西南州安龙县, 25.099014 , 105.442701
黔西南州,晴隆县,561400,p520000/c522300/x522324,贵州省黔西南州晴隆县, 25.834784 , 105.218991
黔西南州,普安县,561500,p520000/c522300/x522323,贵州省黔西南州普安县, 25.784135 , 104.953063
黔西南州,贞丰县,562200,p520000/c522300/x522325,贵州省黔西南州贞丰县, 25.385760 , 105.649864
黔西南州,兴仁县,562300,p520000/c522300/x522322,贵州省黔西南州兴仁县, 25.435183 , 105.186238
黔西南州,兴义市,562400,p520000/c522300/x522301,贵州省黔西南州兴义市, 25.092040 , 104.895467
六盘水市,水城县,553000,p520000/c520200/x520221,贵州省六盘水市水城县, 26.547904 , 104.957831
六盘水市,六枝特区,553400,p520000/c520200/x520203,贵州省六盘水市六枝特区, 26.201228 , 105.480029
六盘水市,盘县,553500,p520000/c520200/x520222,贵州省六盘水市盘县, 25.709990 , 104.471526
三明市,将乐县,353300,p350000/c350400/x350428,福建省三明市将乐县, 26.728953 , 117.471373
三明市,泰宁县,354400,p350000/c350400/x350429,福建省三明市泰宁县, 26.900259 , 117.175740
三明市,建宁县,354500,p350000/c350400/x350430,福建省三明市建宁县, 26.830902 , 116.846084
三明市,尤溪县,365100,p350000/c350400/x350426,福建省三明市尤溪县, 26.170171 , 118.190467
三明市,明溪县,365200,p350000/c350400/x350421,福建省三明市明溪县, 26.355857 , 117.202226
三明市,清流县,365300,p350000/c350400/x350423,福建省三明市清流县, 26.177797 , 116.816909
三明市,宁化县,365400,p350000/c350400/x350424,福建省三明市宁化县, 26.261754 , 116.654365
三明市,沙县,365500,p350000/c350400/x350427,福建省三明市沙县, 26.397300 , 117.792450
三明市,永安市,366000,p350000/c350400/x350481,福建省三明市永安市, 25.941937 , 117.365053
三明市,大田县,366100,p350000/c350400/x350425,福建省三明市大田县, 25.692699 , 117.847115
咸阳市,淳化县,711200,p610000/c610400/x610430,陕西省咸阳市淳化县, 34.799250 , 108.580681
咸阳市,旬邑县,711300,p610000/c610400/x610429,陕西省咸阳市旬邑县, 35.111978 , 108.333986
咸阳市,杨陵区,712100,p610000/c610400/x610403,陕西省咸阳市杨陵区, 34.272117 , 108.084732
咸阳市,武功县,712200,p610000/c610400/x610431,陕西省咸阳市武功县, 34.260204 , 108.200398
咸阳市,兴平市,713100,p610000/c610400/x610481,陕西省咸阳市兴平市, 34.299221 , 108.490475
咸阳市,礼泉县,713200,p610000/c610400/x610425,陕西省咸阳市礼泉县, 34.481764 , 108.425018
咸阳市,乾县,713300,p610000/c610400/x610424,陕西省咸阳市乾县, 34.527551 , 108.239473
咸阳市,永寿县,713400,p610000/c610400/x610426,陕西省咸阳市永寿县, 34.691979 , 108.142311
咸阳市,彬县,713500,p610000/c610400/x610427,陕西省咸阳市彬县, 35.043911 , 108.077658
咸阳市,长武县,713600,p610000/c610400/x610428,陕西省咸阳市长武县, 35.205886 , 107.798757
咸阳市,泾阳县,713700,p610000/c610400/x610423,陕西省咸阳市泾阳县, 34.527114 , 108.842623
咸阳市,三原县,713800,p610000/c610400/x610422,陕西省咸阳市三原县, 34.617382 , 108.940509
拉萨市,达孜县,850100,p540000/c540100/x540126,西藏自治区拉萨市达孜县, 29.669410 , 91.349867
拉萨市,墨竹工卡县,850200,p540000/c540100/x540127,西藏自治区拉萨市墨竹工卡县, 29.834132 , 91.730866
拉萨市,曲水县,850600,p540000/c540100/x540124,西藏自治区拉萨市曲水县, 29.353059 , 90.743853
拉萨市,尼木县,851300,p540000/c540100/x540123,西藏自治区拉萨市尼木县, 29.431832 , 90.164524
拉萨市,推龙德庆县,851400,p540000/c540100/x540125,西藏自治区拉萨市推龙德庆县, 29.646064 , 91.003340
拉萨市,当雄县,851500,p540000/c540100/x540122,西藏自治区拉萨市当雄县, 30.473119 , 91.101162
拉萨市,林周县,851600,p540000/c540100/x540121,西藏自治区拉萨市林周县, 29.893106 , 91.262957
乌兰察布市,四子王旗,011800,p150000/c150900/x150929,内蒙古自治区乌兰察布市四子王旗, 41.533462 , 111.706618
乌兰察布市,集宁区,012000,p150000/c150900/x150902,内蒙古自治区乌兰察布市集宁区, 40.990689 , 113.123779
乌兰察布市,丰镇市,012100,p150000/c150900/x150981,内蒙古自治区乌兰察布市丰镇市, 40.436983 , 113.109892
乌兰察布市,察哈尔右翼前旗,012200,p150000/c150900/x150926,内蒙古自治区乌兰察布市察哈尔右翼前旗, 40.785631 , 113.214733
乌兰察布市,卓资县,012300,p150000/c150900/x150921,内蒙古自治区乌兰察布市卓资县, 40.894692 , 112.577528
乌兰察布市,察哈尔右翼后旗,012400,p150000/c150900/x150928,内蒙古自治区乌兰察布市察哈尔右翼后旗, 41.436069 , 113.191035
乌兰察布市,化德县,013350,p150000/c150900/x150922,内蒙古自治区乌兰察布市化德县, 41.904560 , 114.010438
乌兰察布市,商都县,013450,p150000/c150900/x150923,内蒙古自治区乌兰察布市商都县, 41.562113 , 113.577816
乌兰察布市,察哈尔右翼中旗,013550,p150000/c150900/x150927,内蒙古自治区乌兰察布市察哈尔右翼中旗, 41.277462 , 112.635577
乌兰察布市,兴和县,013650,p150000/c150900/x150924,内蒙古自治区乌兰察布市兴和县, 40.872301 , 113.834173
乌兰察布市,凉城县,013750,p150000/c150900/x150925,内蒙古自治区乌兰察布市凉城县, 40.531555 , 112.503971
石嘴山市,惠农区,753200,p640000/c640200/x640205,宁夏回族自治区石嘴山市惠农区, 39.239302 , 106.781176
石嘴山市,平罗县,753400,p640000/c640200/x640221,宁夏回族自治区石嘴山市平罗县, 38.913544 , 106.523474
海北藏族自治州,祁连县,810400,p630000/c632200/x632222,青海省海北藏族自治州祁连县, 38.177112 , 100.253211
海北藏族自治州,海晏县,812200,p630000/c632200/x632223,青海省海北藏族自治州海晏县, 36.896467 , 100.994430
海北藏族自治州,刚察县,812300,p630000/c632200/x632224,青海省海北藏族自治州刚察县, 37.325470 , 100.145833
晋中市,榆次区,030600,p140000/c140700/x140702,山西省晋中市榆次区, 37.697792 , 112.708241
晋中市,太谷县,030800,p140000/c140700/x140726,山西省晋中市太谷县, 37.421308 , 112.551357
晋中市,祁县,030900,p140000/c140700/x140727,山西省晋中市祁县, 37.346366 , 112.331354
晋中市,平遥县,031100,p140000/c140700/x140728,山西省晋中市平遥县, 37.189559 , 112.176273
晋中市,灵石县,031300,p140000/c140700/x140729,山西省晋中市灵石县, 36.847767 , 111.778210
晋中市,榆社县,031800,p140000/c140700/x140721,山西省晋中市榆社县, 37.070788 , 112.975287
晋中市,介休市,032000,p140000/c140700/x140781,山西省晋中市介休市, 37.026945 , 111.916712
晋中市,左权县,032600,p140000/c140700/x140722,山西省晋中市左权县, 37.082681 , 113.379372
晋中市,和顺县,032700,p140000/c140700/x140723,山西省晋中市和顺县, 37.329663 , 113.570438
晋中市,昔阳县,045300,p140000/c140700/x140724,山西省晋中市昔阳县, 37.611210 , 113.706875
晋中市,寿阳县,045400,p140000/c140700/x140725,山西省晋中市寿阳县, 37.895325 , 113.176434
长春市,农安县,130200,p220000/c220100/x220122,吉林省长春市农安县, 44.432889 , 125.184742
长春市,德惠市,130300,p220000/c220100/x220183,吉林省长春市德惠市, 44.510230 , 125.720649
长春市,榆树县,130400,p220000/c220100/x220182,吉林省长春市榆树县, 43.938646 , 125.300815
长春市,九台市,130500,p220000/c220100/x220181,吉林省长春市九台市, 44.151742 , 125.839574
长春市,双阳区,130600,p220000/c220100/x220112,吉林省长春市双阳区, 43.525311 , 125.664662
日喀则地区,日喀则市,857000,p540000/c542300/x542301,西藏自治区日喀则地区日喀则市, 29.270389 , 88.887270
日喀则地区,南木林县,857100,p540000/c542300/x542322,西藏自治区日喀则地区南木林县, 29.682331 , 89.099243
日喀则地区,仁布县,857200,p540000/c542300/x542330,西藏自治区日喀则地区仁布县, 29.230933 , 89.841984
日喀则地区,白朗县,857300,p540000/c542300/x542329,西藏自治区日喀则地区白朗县, 29.107688 , 89.261977
日喀则地区,江孜县,857400,p540000/c542300/x542323,西藏自治区日喀则地区江孜县, 28.911659 , 89.605574
日喀则地区,康马县,857500,p540000/c542300/x542331,西藏自治区日喀则地区康马县, 28.555627 , 89.681663
日喀则地区,亚东县,857600,p540000/c542300/x542334,西藏自治区日喀则地区亚东县, 27.484819 , 88.907030
日喀则地区,岗巴县,857700,p540000/c542300/x542338,西藏自治区日喀则地区岗巴县, 28.274601 , 88.520031
日喀则地区,萨迦县,857800,p540000/c542300/x542325,西藏自治区日喀则地区萨迦县, 28.899664 , 88.021674
日喀则地区,定结县,857900,p540000/c542300/x542332,西藏自治区日喀则地区定结县, 28.364159 , 87.765872
日喀则地区,拉孜县,858100,p540000/c542300/x542326,西藏自治区日喀则地区拉孜县, 29.081660 , 87.637041
日喀则地区,定日县,858200,p540000/c542300/x542324,西藏自治区日喀则地区定日县, 28.658743 , 87.126120
日喀则地区,聂拉木县,858300,p540000/c542300/x542336,西藏自治区日喀则地区聂拉木县, 28.155186 , 85.982237
日喀则地区,昂仁县,858500,p540000/c542300/x542327,西藏自治区日喀则地区昂仁县, 29.294802 , 87.236051
日喀则地区,萨嘎县,858600,p540000/c542300/x542337,西藏自治区日喀则地区萨嘎县, 29.328818 , 85.232941
日喀则地区,吉隆县,858700,p540000/c542300/x542335,西藏自治区日喀则地区吉隆县, 28.852394 , 85.297535
日喀则地区,仲巴县,858800,p540000/c542300/x542333,西藏自治区日喀则地区仲巴县, 29.770279 , 84.031530
日喀则地区,谢通门县,858900,p540000/c542300/x542328,西藏自治区日喀则地区谢通门县, 29.432641 , 88.261620
吉林市,永吉县,132200,p220000/c220200/x220221,吉林省吉林市永吉县, 43.671840 , 126.498304
吉林市,磐石市,132300,p220000/c220200/x220284,吉林省吉林市磐石市, 42.946285 , 126.060427
吉林市,桦甸市,132400,p220000/c220200/x220282,吉林省吉林市桦甸市, 42.972097 , 126.746310
吉林市,蛟河市,132500,p220000/c220200/x220281,吉林省吉林市蛟河市, 43.723713 , 127.344501
吉林市,舒兰市,132600,p220000/c220200/x220283,吉林省吉林市舒兰市, 44.406106 , 126.965607
保定市,清苑县,071100,p130000/c130600/x130622,河北省保定市清苑县, 38.771863 , 115.494287
保定市,安国市,071200,p130000/c130600/x130683,河北省保定市安国市, 38.418440 , 115.326647
保定市,博野县,071300,p130000/c130600/x130637,河北省保定市博野县, 38.457364 , 115.464380
保定市,蠡县,071400,p130000/c130600/x130635,河北省保定市蠡县, 38.490141 , 115.575877
保定市,高阳县,071500,p130000/c130600/x130628,河北省保定市高阳县, 38.689897 , 115.780626
保定市,安新县,071600,p130000/c130600/x130632,河北省保定市安新县, 38.935369 , 115.935603
保定市,容城县,071700,p130000/c130600/x130629,河北省保定市容城县, 39.042784 , 115.861657
保定市,雄县,071800,p130000/c130600/x130638,河北省保定市雄县, 38.994550 , 116.108650
保定市,满城县,072150,p130000/c130600/x130621,河北省保定市满城县, 38.948955 , 115.322351
保定市,顺平县,072250,p130000/c130600/x130636,河北省保定市顺平县, 38.844552 , 115.132617
保定市,唐县,072350,p130000/c130600/x130627,河北省保定市唐县, 38.748204 , 114.982972
保定市,望都县,072450,p130000/c130600/x130631,河北省保定市望都县, 38.695736 , 115.154511
保定市,徐水县,072550,p130000/c130600/x130625,河北省保定市徐水县, 39.018547 , 115.655862
保定市,定兴县,072650,p130000/c130600/x130626,河北省保定市定兴县, 39.263018 , 115.808175
保定市,涿州市,072750,p130000/c130600/x130681,河北省保定市涿州市, 39.485283 , 115.974422
保定市,定州市,073000,p130000/c130600/x130682,河北省保定市定州市, 38.516174 , 114.990159
保定市,曲阳县,073100,p130000/c130600/x130634,河北省保定市曲阳县, 38.622244 , 114.744926
保定市,阜平县,073200,p130000/c130600/x130624,河北省保定市阜平县, 38.849152 , 114.195105
保定市,高碑店市,074000,p130000/c130600/x130684,河北省保定市高碑店市, 39.326521 , 115.873758
保定市,涞水县,074100,p130000/c130600/x130623,河北省保定市涞水县, 39.394317 , 115.713905
保定市,易县,074200,p130000/c130600/x130633,河北省保定市易县, 39.349393 , 115.497457
保定市,涞源县,074300,p130000/c130600/x130630,河北省保定市涞源县, 39.360247 , 114.694284
赣州市,赣县,341100,p360000/c360700/x360721,江西省赣州市赣县, 25.860691 , 115.011561
赣州市,上犹县,341200,p360000/c360700/x360724,江西省赣州市上犹县, 25.785172 , 114.551138
赣州市,崇义县,341300,p360000/c360700/x360725,江西省赣州市崇义县, 25.681784 , 114.308267
赣州市,南康市,341400,p360000/c360700/x360782,江西省赣州市南康市, 25.661471 , 114.765403
赣州市,大余县,341500,p360000/c360700/x360723,江西省赣州市大余县, 25.401314 , 114.362112
赣州市,信丰县,341600,p360000/c360700/x360722,江西省赣州市信丰县, 25.386704 , 114.922830
赣州市,龙南县,341700,p360000/c360700/x360727,江西省赣州市龙南县, 24.911069 , 114.789873
赣州市,全南县,341800,p360000/c360700/x360729,江西省赣州市全南县, 24.742403 , 114.530125
赣州市,定南县,341900,p360000/c360700/x360728,江西省赣州市定南县, 24.784410 , 115.027845
赣州市,安远县,342100,p360000/c360700/x360726,江西省赣州市安远县, 25.136927 , 115.393922
赣州市,寻乌县,342200,p360000/c360700/x360734,江西省赣州市寻乌县, 24.963371 , 115.646636
赣州市,于都县,342300,p360000/c360700/x360731,江西省赣州市于都县, 25.952069 , 115.415508
赣州市,兴国县,342400,p360000/c360700/x360732,江西省赣州市兴国县, 26.337937 , 115.363190
赣州市,瑞金市,342500,p360000/c360700/x360781,江西省赣州市瑞金市, 25.885555 , 116.027135
赣州市,会昌县,342600,p360000/c360700/x360733,江西省赣州市会昌县, 25.600272 , 115.786057
赣州市,石城县,342700,p360000/c360700/x360735,江西省赣州市石城县, 26.314775 , 116.346995
赣州市,宁都县,342800,p360000/c360700/x360730,江西省赣州市宁都县, 26.470116 , 116.009472
通辽市,科尔沁左翼后旗,028100,p150000/c150500/x150522,内蒙古自治区通辽市科尔沁左翼后旗, 42.935159 , 122.356749
通辽市,库伦旗,028200,p150000/c150500/x150524,内蒙古自治区通辽市库伦旗, 42.735657 , 121.810701
通辽市,奈曼旗,028300,p150000/c150500/x150525,内蒙古自治区通辽市奈曼旗, 42.867226 , 120.658283
通辽市,开鲁县,028400,p150000/c150500/x150523,内蒙古自治区通辽市开鲁县, 43.601244 , 121.319309
通辽市,扎鲁特旗,029100,p150000/c150500/x150526,内蒙古自治区通辽市扎鲁特旗, 44.556389 , 120.911676
通辽市,霍林郭勒市,029200,p150000/c150500/x150581,内蒙古自治区通辽市霍林郭勒市, 45.531726 , 119.663534
通辽市,科尔沁左翼中旗,029300,p150000/c150500/x150521,内蒙古自治区通辽市科尔沁左翼中旗, 44.126626 , 123.312265
铜川市,耀州区,727100,p610000/c610200/x610204,陕西省铜川市耀州区, 34.908916 , 108.980514
铜川市,宜君县,727200,p610000/c610200/x610222,陕西省铜川市宜君县, 35.398577 , 109.116932
十堰市,房县,442100,p420000/c420300/x420325,湖北省十堰市房县, 32.055542 , 110.741093
十堰市,竹山县,442200,p420000/c420300/x420323,湖北省十堰市竹山县, 32.224875 , 110.228694
十堰市,竹溪县,442300,p420000/c420300/x420324,湖北省十堰市竹溪县, 32.318255 , 109.715304
十堰市,郧县,442500,p420000/c420300/x420321,湖北省十堰市郧县, 32.834776 , 110.812050
十堰市,郧西县,442600,p420000/c420300/x420322,湖北省十堰市郧西县, 32.993182 , 110.425983
十堰市,丹江口市,442700,p420000/c420300/x420381,湖北省十堰市丹江口市, 32.540157 , 111.513127
大庆市,杜尔伯特县,166200,p230000/c230600/x230624,黑龙江省大庆市杜尔伯特县, 46.862791 , 124.442612
大庆市,林甸县,166300,p230000/c230600/x230623,黑龙江省大庆市林甸县, 47.171717 , 124.863603
大庆市,肇州县,166400,p230000/c230600/x230621,黑龙江省大庆市肇州县, 45.699066 , 125.268643
大庆市,肇源县,166500,p230000/c230600/x230622,黑龙江省大庆市肇源县, 45.519320 , 125.078223
牡丹江市,海林市,157100,p230000/c231000/x231083,黑龙江省牡丹江市海林市, 44.594213 , 129.380482
牡丹江市,东宁县,157200,p230000/c231000/x231024,黑龙江省牡丹江市东宁县, 44.062672 , 131.125806
牡丹江市,绥芬河市,157300,p230000/c231000/x231081,黑龙江省牡丹江市绥芬河市, 44.412309 , 131.152546
牡丹江市,宁安市,157400,p230000/c231000/x231084,黑龙江省牡丹江市宁安市, 44.340720 , 129.482851
牡丹江市,穆棱市,157500,p230000/c231000/x231085,黑龙江省牡丹江市穆棱市, 44.918813 , 130.524437
牡丹江市,林口县,157600,p230000/c231000/x231025,黑龙江省牡丹江市林口县, 45.278046 , 130.284034
资阳市,简阳市,641400,p510000/c512000/x512081,四川省资阳市简阳市, 30.410755 , 104.546774
资阳市,乐至县,641500,p510000/c512000/x512022,四川省资阳市乐至县, 30.276081 , 105.021101
资阳市,安岳县,642350,p510000/c512000/x512021,四川省资阳市安岳县, 30.097230 , 105.335690
鸡西市,鸡东县,158200,p230000/c230300/x230321,黑龙江省鸡西市鸡东县, 45.260412 , 131.124080
鸡西市,密山市,158300,p230000/c230300/x230382,黑龙江省鸡西市密山市, 45.529775 , 131.846636
鸡西市,虎林市,158400,p230000/c230300/x230381,黑龙江省鸡西市虎林市, 45.762686 , 132.937210
泰安市,新泰市,271200,p370000/c370900/x370982,山东省泰安市新泰市, 35.909032 , 117.767953
泰安市,宁阳县,271400,p370000/c370900/x370921,山东省泰安市宁阳县, 35.758787 , 116.805797
泰安市,东平县,271500,p370000/c370900/x370923,山东省泰安市东平县, 35.937102 , 116.470304
泰安市,肥城市,271600,p370000/c370900/x370983,山东省泰安市肥城市, 36.182571 , 116.768358
青岛市,崂山区,266100,p370000/c370200/x370212,山东省青岛市崂山区, 36.107538 , 120.468956
青岛市,即墨市,266200,p370000/c370200/x370282,山东省青岛市即墨市, 36.389402 , 120.447161
青岛市,胶州市,266300,p370000/c370200/x370281,山东省青岛市胶州市, 36.264680 , 120.033382
青岛市,胶南市,266400,p370000/c370200/x370284,山东省青岛市胶南市, 35.872159 , 120.046826
青岛市,黄岛区,266500,p370000/c370200/x370211,山东省青岛市黄岛区, 35.873691 , 120.046072
青岛市,莱西市,266600,p370000/c370200/x370285,山东省青岛市莱西市, 36.889084 , 120.517690
青岛市,平度市,266700,p370000/c370200/x370283,山东省青岛市平度市, 36.776358 , 119.988420
兴安盟,科尔沁右翼中旗,029400,p150000/c152200/x152222,内蒙古自治区兴安盟科尔沁右翼中旗, 45.060837 , 121.476530
兴安盟,乌兰浩特市,137400,p150000/c152200/x152201,内蒙古自治区兴安盟乌兰浩特市, 46.072732 , 122.093123
兴安盟,突泉县,137500,p150000/c152200/x152224,内蒙古自治区兴安盟突泉县, 45.381930 , 121.593799
兴安盟,阿尔山市,137800,p150000/c152200/x152202,内蒙古自治区兴安盟阿尔山市, 47.177440 , 119.943575
淮北市,濉溪县,235100,p340000/c340600/x340621,安徽省淮北市濉溪县, 33.915477 , 116.766299
鹤岗市,萝北县,154200,p230000/c230400/x230421,黑龙江省鹤岗市萝北县, 47.577495 , 130.828626
鹤岗市,绥滨县,156200,p230000/c230400/x230422,黑龙江省鹤岗市绥滨县, 47.289116 , 131.852759
泸州市,泸县,646100,p510000/c510500/x510521,四川省泸州市泸县, 29.151534 , 105.381893
泸州市,合江县,646200,p510000/c510500/x510522,四川省泸州市合江县, 28.811203 , 105.831067
泸州市,纳溪区,646300,p510000/c510500/x510503,四川省泸州市纳溪区, 28.773428 , 105.371151
泸州市,叙永县,646400,p510000/c510500/x510524,四川省泸州市叙永县, 28.155801 , 105.444765
泸州市,古蔺县,646500,p510000/c510500/x510525,四川省泸州市古蔺县, 28.038802 , 105.812602
泸州市,龙马潭区,646600,p510000/c510500/x510504,四川省泸州市龙马潭区, 28.913221 , 105.437765
洛阳市,孟津县,471100,p410000/c410300/x410322,河南省洛阳市孟津县, 34.825304 , 112.445273
洛阳市,汝阳县,471200,p410000/c410300/x410326,河南省洛阳市汝阳县, 34.153940 , 112.473139
洛阳市,伊川县,471300,p410000/c410300/x410329,河南省洛阳市伊川县, 34.421349 , 112.425640
洛阳市,嵩县,471400,p410000/c410300/x410325,河南省洛阳市嵩县, 34.134517 , 112.085635
洛阳市,栾川县,471500,p410000/c410300/x410324,河南省洛阳市栾川县, 33.785698 , 111.615769
洛阳市,宜阳县,471600,p410000/c410300/x410327,河南省洛阳市宜阳县, 34.514770 , 112.179243
洛阳市,洛宁县,471700,p410000/c410300/x410328,河南省洛阳市洛宁县, 34.389414 , 111.653039
洛阳市,新安县,471800,p410000/c410300/x410323,河南省洛阳市新安县, 34.718326 , 112.154410
洛阳市,偃师市,471900,p410000/c410300/x410381,河南省洛阳市偃师市, 34.727221 , 112.789544
安康市,宁陕县,711600,p610000/c610900/x610923,陕西省安康市宁陕县, 33.310527 , 108.314283
安康市,汉阴县,725100,p610000/c610900/x610921,陕西省安康市汉阴县, 32.893026 , 108.508745
安康市,石泉县,725200,p610000/c610900/x610922,陕西省安康市石泉县, 33.028901 , 108.249738
安康市,紫阳县,725300,p610000/c610900/x610924,陕西省安康市紫阳县, 32.520246 , 108.534229
安康市,岚皋县,725400,p610000/c610900/x610925,陕西省安康市岚皋县, 32.307001 , 108.902049
安康市,平利县,725500,p610000/c610900/x610926,陕西省安康市平利县, 32.388854 , 109.361864
安康市,镇坪县,725600,p610000/c610900/x610927,陕西省安康市镇坪县, 31.883672 , 109.526873
安康市,旬阳县,725700,p610000/c610900/x610928,陕西省安康市旬阳县, 32.834086 , 109.365265
安康市,白河县,725800,p610000/c610900/x610929,陕西省安康市白河县, 32.832678 , 110.100793
德阳市,中江县,618100,p510000/c510600/x510623,四川省德阳市中江县, 31.033051 , 104.678749
德阳市,绵竹市,618200,p510000/c510600/x510683,四川省德阳市绵竹市, 31.338077 , 104.220750
德阳市,广汉市,618300,p510000/c510600/x510681,四川省德阳市广汉市, 30.976180 , 104.282430
德阳市,什邡市,618400,p510000/c510600/x510682,四川省德阳市什邡市, 31.126780 , 104.167501
德阳市,罗江县,618500,p510000/c510600/x510626,四川省德阳市罗江县, 31.317045 , 104.510249
信阳市,平桥区,464100,p410000/c411500/x411503,河南省信阳市平桥区, 32.101031 , 114.125656
信阳市,罗山县,464200,p410000/c411500/x411521,河南省信阳市罗山县, 32.203073 , 114.513012
信阳市,息县,464300,p410000/c411500/x411528,河南省信阳市息县, 32.342792 , 114.740456
信阳市,淮滨县,464400,p410000/c411500/x411527,河南省信阳市淮滨县, 32.473258 , 115.419537
信阳市,潢川县,465150,p410000/c411500/x411526,河南省信阳市潢川县, 32.131383 , 115.051808
信阳市,固始县,465250,p410000/c411500/x411525,河南省信阳市固始县, 32.168137 , 115.654482
信阳市,商城县,465350,p410000/c411500/x411524,河南省信阳市商城县, 31.798378 , 115.406862
信阳市,光山县,465450,p410000/c411500/x411522,河南省信阳市光山县, 32.009995 , 114.919250
信阳市,新县,465550,p410000/c411500/x411523,河南省信阳市新县, 31.642455 , 114.888961
商洛市,柞水县,711400,p610000/c611000/x611026,陕西省商洛市柞水县, 33.686110 , 109.114207
商洛市,镇安县,711500,p610000/c611000/x611025,陕西省商洛市镇安县, 33.423357 , 109.152893
商洛市,商州区,726000,p610000/c611000/x611002,陕西省商洛市商州区, 33.862703 , 109.941241
商洛市,洛南县,726100,p610000/c611000/x611021,陕西省商洛市洛南县, 34.090838 , 110.148509
商洛市,丹凤县,726200,p610000/c611000/x611022,陕西省商洛市丹凤县, 33.695783 , 110.327331
商洛市,商南县,726300,p610000/c611000/x611023,陕西省商洛市商南县, 33.530995 , 110.881807
商洛市,山阳县,726400,p610000/c611000/x611024,陕西省商洛市山阳县, 33.532172 , 109.882290
邵阳市,邵阳县,422100,p430000/c430500/x430523,湖南省邵阳市邵阳县, 26.990637 , 111.273806
邵阳市,隆回县,422200,p430000/c430500/x430524,湖南省邵阳市隆回县, 27.113978 , 111.032438
邵阳市,洞口县,422300,p430000/c430500/x430525,湖南省邵阳市洞口县, 27.060321 , 110.575846
邵阳市,武冈市,422400,p430000/c430500/x430581,湖南省邵阳市武冈市, 26.726599 , 110.631884
邵阳市,城步县,422500,p430000/c430500/x430529,湖南省邵阳市城步县, 26.390598 , 110.322240
邵阳市,绥宁县,422600,p430000/c430500/x430527,湖南省邵阳市绥宁县, 26.581955 , 110.155655
邵阳市,新宁县,422700,p430000/c430500/x430528,湖南省邵阳市新宁县, 26.433418 , 110.856623
邵阳市,邵东县,422800,p430000/c430500/x430521,湖南省邵阳市邵东县, 27.258942 , 111.744258
邵阳市,新邵县,422900,p430000/c430500/x430522,湖南省邵阳市新邵县, 27.320918 , 111.458657
平顶山市,舞钢市,462500,p410000/c410400/x410481,河南省平顶山市舞钢市, 33.307776 , 113.524794
平顶山市,郏县,467100,p410000/c410400/x410425,河南省平顶山市郏县, 33.971787 , 113.212609
平顶山市,叶县,467200,p410000/c410400/x410422,河南省平顶山市叶县, 33.626731 , 113.357239
平顶山市,鲁山县,467300,p410000/c410400/x410423,河南省平顶山市鲁山县, 33.738518 , 112.908022
平顶山市,宝丰县,467400,p410000/c410400/x410421,河南省平顶山市宝丰县, 33.868441 , 113.054754
平顶山市,汝州市,467500,p410000/c410400/x410482,河南省平顶山市汝州市, 34.167030 , 112.844517
南阳市,方城县,473200,p410000/c411300/x411322,河南省南阳市方城县, 33.254391 , 113.012494
南阳市,社旗县,473300,p410000/c411300/x411327,河南省南阳市社旗县, 33.056109 , 112.948245
南阳市,唐河县,473400,p410000/c411300/x411328,河南省南阳市唐河县, 32.697086 , 112.840602
南阳市,新野县,473500,p410000/c411300/x411329,河南省南阳市新野县, 32.520805 , 112.360026
南阳市,邓州市,474150,p410000/c411300/x411381,河南省南阳市邓州市, 32.687576 , 112.087395
南阳市,镇平县,474250,p410000/c411300/x411324,河南省南阳市镇平县, 33.033869 , 112.234701
南阳市,内乡县,474350,p410000/c411300/x411325,河南省南阳市内乡县, 33.044865 , 111.849392
南阳市,淅川县,474450,p410000/c411300/x411326,河南省南阳市淅川县, 33.137820 , 111.490964
南阳市,西峡县,474550,p410000/c411300/x411323,河南省南阳市西峡县, 33.298364 , 111.482591
南阳市,南召县,474650,p410000/c411300/x411321,河南省南阳市南召县, 33.489877 , 112.429133
南阳市,桐柏县,474750,p410000/c411300/x411330,河南省南阳市桐柏县, 32.367401 , 113.406491
绵阳市,三台县,621100,p510000/c510700/x510722,四川省绵阳市三台县, 31.095979 , 105.094586
绵阳市,盐亭县,621600,p510000/c510700/x510723,四川省绵阳市盐亭县, 31.208363 , 105.389453
绵阳市,江油市,621700,p510000/c510700/x510781,四川省绵阳市江油市, 31.777979 , 104.745731
绵阳市,梓潼县,622150,p510000/c510700/x510725,四川省绵阳市梓潼县, 31.642718 , 105.170845
绵阳市,平武县,622550,p510000/c510700/x510727,四川省绵阳市平武县, 32.409675 , 104.555583
绵阳市,安县,622650,p510000/c510700/x510724,四川省绵阳市安县, 31.534886 , 104.567187
绵阳市,北川县,622750,p510000/c510700/x510726,四川省绵阳市北川县, 31.617199 , 104.468168
丽江市,永胜县,674200,p530000/c530700/x530722,云南省丽江市永胜县, 26.684225 , 100.750795
丽江市,华坪县,674800,p530000/c530700/x530723,云南省丽江市华坪县, 26.629211 , 101.266195
怀化市,洪江市,418100,p430000/c431200/x431281,湖南省怀化市洪江市, 27.208609 , 109.836669
怀化市,洪江区,418200,p430000/c431200/x431281,湖南省怀化市洪江区, 27.208609 , 109.836669
怀化市,会同县,418300,p430000/c431200/x431225,湖南省怀化市会同县, 26.887239 , 109.735661
怀化市,靖州县,418400,p430000/c431200/x431229,湖南省怀化市靖州县, 26.575052 , 109.696311
怀化市,通道县,418500,p430000/c431200/x431230,湖南省怀化市通道县, 26.158054 , 109.784412
怀化市,芷江县,419100,p430000/c431200/x431228,湖南省怀化市芷江县, 27.443499 , 109.684629
怀化市,新晃县,419200,p430000/c431200/x431227,湖南省怀化市新晃县, 27.352673 , 109.174932
怀化市,溆浦县,419300,p430000/c431200/x431224,湖南省怀化市溆浦县, 27.908281 , 110.594921
怀化市,麻阳县,419400,p430000/c431200/x431226,湖南省怀化市麻阳县, 27.865548 , 109.802587
怀化市,辰溪县,419500,p430000/c431200/x431223,湖南省怀化市辰溪县, 28.006336 , 110.183917
怀化市,沅陵县,419600,p430000/c431200/x431222,湖南省怀化市沅陵县, 28.452686 , 110.393844
锡林郭勒盟,二连浩特市,011100,p150000/c152500/x152501,内蒙古自治区锡林郭勒盟二连浩特市, 43.653170 , 111.977943
锡林郭勒盟,苏尼特右旗,011200,p150000/c152500/x152524,内蒙古自治区锡林郭勒盟苏尼特右旗, 42.742892 , 112.641783
锡林郭勒盟,苏尼特左旗,011300,p150000/c152500/x152523,内蒙古自治区锡林郭勒盟苏尼特左旗, 43.859880 , 113.667249
锡林郭勒盟,阿巴嘎旗,011400,p150000/c152500/x152522,内蒙古自治区锡林郭勒盟阿巴嘎旗, 44.022995 , 114.950248
锡林郭勒盟,镶黄旗,013250,p150000/c152500/x152528,内蒙古自治区锡林郭勒盟镶黄旗, 42.232371 , 113.847287
锡林郭勒盟,正镶白旗,013800,p150000/c152500/x152529,内蒙古自治区锡林郭勒盟正镶白旗, 42.281247 , 115.041322
锡林郭勒盟,锡林浩特市,026000,p150000/c152500/x152502,内蒙古自治区锡林郭勒盟锡林浩特市, 43.933411 , 116.086032
锡林郭勒盟,西乌珠穆沁旗,026200,p150000/c152500/x152526,内蒙古自治区锡林郭勒盟西乌珠穆沁旗, 44.587882 , 117.608911
锡林郭勒盟,东乌珠穆沁旗,026300,p150000/c152500/x152525,内蒙古自治区锡林郭勒盟东乌珠穆沁旗, 45.498221 , 116.974494
锡林郭勒盟,太仆寺旗,027000,p150000/c152500/x152527,内蒙古自治区锡林郭勒盟太仆寺旗, 41.877136 , 115.282986
锡林郭勒盟,正蓝旗,027200,p150000/c152500/x152530,内蒙古自治区锡林郭勒盟正蓝旗, 42.241638 , 115.992470
锡林郭勒盟,多伦县,027300,p150000/c152500/x152531,内蒙古自治区锡林郭勒盟多伦县, 42.203591 , 116.485556
遂宁市,蓬溪县,629100,p510000/c510900/x510921,四川省遂宁市蓬溪县, 30.757575 , 105.707570
遂宁市,射洪县,629200,p510000/c510900/x510922,四川省遂宁市射洪县, 30.870986 , 105.388405
遂宁市,大英县,629300,p510000/c510900/x510923,四川省遂宁市大英县, 30.594337 , 105.236904
遂宁市,安居区,629400,p510000/c510900/x510904,四川省遂宁市安居区, 30.355379 , 105.456342
乐山市,井研县,613100,p510000/c511100/x511124,四川省乐山市井研县, 29.651287 , 104.069726
乐山市,夹江县,614100,p510000/c511100/x511126,四川省乐山市夹江县, 29.737630 , 103.571657
乐山市,峨眉山市,614200,p510000/c511100/x511181,四川省乐山市峨眉山市, 29.601199 , 103.484504
乐山市,峨边彝族自治县,614300,p510000/c511100/x511132,四川省乐山市峨边彝族自治县, 29.230425 , 103.262048
乐山市,犍为县,614400,p510000/c511100/x511123,四川省乐山市犍为县, 29.208171 , 103.949326
乐山市,沐川县,614500,p510000/c511100/x511129,四川省乐山市沐川县, 28.956647 , 103.902335
乐山市,马边彝族自治县,614600,p510000/c511100/x511133,四川省乐山市马边彝族自治县, 28.835521 , 103.546348
乐山市,金口河区,614700,p510000/c511100/x511113,四川省乐山市金口河区, 29.244345 , 103.078621
乐山市,五通桥区,614800,p510000/c511100/x511112,四川省乐山市五通桥区, 29.407004 , 103.818441
乐山市,沙湾区,614900,p510000/c511100/x511111,四川省乐山市沙湾区, 29.413091 , 103.549991
马鞍山市,当涂县,243100,p340000/c340500/x340521,安徽省马鞍山市当涂县, 31.571213 , 118.497972
巴中市,平昌县,636400,p510000/c511900/x511923,四川省巴中市平昌县, 31.560874 , 107.104008
巴中市,南江县,636600,p510000/c511900/x511922,四川省巴中市南江县, 32.346589 , 106.828697
巴中市,通江县,636700,p510000/c511900/x511921,四川省巴中市通江县, 31.911705 , 107.245033
雅安市,名山县,625100,p510000/c511800/x511821,四川省雅安市名山县, 30.085591 , 103.110502
雅安市,荥经县,625200,p510000/c511800/x511822,四川省雅安市荥经县, 29.792931 , 102.846738
雅安市,汉源县,625300,p510000/c511800/x511823,四川省雅安市汉源县, 29.344617 , 102.652483
雅安市,石棉县,625400,p510000/c511800/x511824,四川省雅安市石棉县, 29.227874 , 102.359462
雅安市,天全县,625500,p510000/c511800/x511825,四川省雅安市天全县, 30.066713 , 102.758317
雅安市,芦山县,625600,p510000/c511800/x511826,四川省雅安市芦山县, 30.144084 , 102.928260
雅安市,宝兴县,625700,p510000/c511800/x511827,四川省雅安市宝兴县, 30.368126 , 102.814531
济宁市,兖州市,272100,p370000/c370800/x370882,山东省济宁市兖州市, 35.567024 , 116.837440
济宁市,金乡县,272200,p370000/c370800/x370828,山东省济宁市金乡县, 35.066620 , 116.311532
济宁市,鱼台县,272300,p370000/c370800/x370827,山东省济宁市鱼台县, 35.012749 , 116.650608
济宁市,嘉祥县,272400,p370000/c370800/x370829,山东省济宁市嘉祥县, 35.407829 , 116.342442
济宁市,汶上县,272500,p370000/c370800/x370830,山东省济宁市汶上县, 35.732799 , 116.489043
济宁市,梁山县,272600,p370000/c370800/x370832,山东省济宁市梁山县, 35.802306 , 116.096044
济宁市,曲阜市,273100,p370000/c370800/x370881,山东省济宁市曲阜市, 35.581137 , 116.986532
济宁市,泗水县,273200,p370000/c370800/x370831,山东省济宁市泗水县, 35.664323 , 117.251195
济宁市,邹城市,273500,p370000/c370800/x370883,山东省济宁市邹城市, 35.405185 , 117.003743
济宁市,微山县,277600,p370000/c370800/x370826,山东省济宁市微山县, 34.807139 , 117.128814
思茅市,墨江哈尼族自治县,654800,p530000/c530800/x530822,云南省思茅市墨江哈尼族自治县, 23.294020 , 101.379187
思茅市,普洱哈尼族彝族自治县,665100,p530000/c530800/x530821,云南省思茅市普洱哈尼族彝族自治县, 22.785431 , 100.974512
思茅市,西盟佤族自治县,665700,p530000/c530800/x530829,云南省思茅市西盟佤族自治县, 22.786910 , 100.977165
思茅市,江城哈尼族彝族自治县,665900,p530000/c530800/x530826,云南省思茅市江城哈尼族彝族自治县, 22.551582 , 101.606555
思茅市,景谷傣族彝族自治县,666400,p530000/c530800/x530824,云南省思茅市景谷傣族彝族自治县, 22.786910 , 100.977165
思茅市,景东彝族自治县,676200,p530000/c530800/x530823,云南省思茅市景东彝族自治县, 24.447057 , 100.835553
中方,洪江市,418100,p430000/c431200/x431281,湖南省中方洪江市, 27.445829 , 109.954862
中方,洪江区,418200,p430000/c431200/x431281,湖南省中方洪江区, 27.279210 , 109.825490
中方,会同县,418300,p430000/c431200/x431225,湖南省中方会同县, 27.440523 , 109.946012
中方,靖州县,418400,p430000/c431200/x431229,湖南省中方靖州县, 27.440523 , 109.946012
中方,通道县,418500,p430000/c431200/x431230,湖南省中方通道县, 27.334235 , 110.545417
中方,芷江县,419100,p430000/c431200/x431228,湖南省中方芷江县, 27.445829 , 109.954862
中方,新晃县,419200,p430000/c431200/x431227,湖南省中方新晃县, 27.440523 , 109.946012
中方,溆浦县,419300,p430000/c431200/x431224,湖南省中方溆浦县, 27.386978 , 109.936010
中方,麻阳县,419400,p430000/c431200/x431226,湖南省中方麻阳县, 27.891599 , 109.989002
中方,辰溪县,419500,p430000/c431200/x431223,湖南省中方辰溪县, 27.878048 , 110.255724
中方,沅陵县,419600,p430000/c431200/x431222,湖南省中方沅陵县, 28.858656 , 110.532075
哈尔滨市,双城市,150100,p230000/c230100/x230182,黑龙江省哈尔滨市双城市, 45.383263 , 126.312745
哈尔滨市,五常市,150200,p230000/c230100/x230184,黑龙江省哈尔滨市五常市, 44.931992 , 127.167619
哈尔滨市,阿城市,150300,p230000/c230100/x230181,黑龙江省哈尔滨市阿城市, 45.551442 , 126.996954
哈尔滨市,宾县,150400,p230000/c230100/x230125,黑龙江省哈尔滨市宾县, 45.745122 , 127.466888
哈尔滨市,呼兰区,150500,p230000/c230100/x230111,黑龙江省哈尔滨市呼兰区, 45.888997 , 126.587904
哈尔滨市,尚志市,150600,p230000/c230100/x230183,黑龙江省哈尔滨市尚志市, 45.209586 , 128.009895
哈尔滨市,延寿县,150700,p230000/c230100/x230129,黑龙江省哈尔滨市延寿县, 45.451897 , 128.331644
哈尔滨市,方正县,150800,p230000/c230100/x230124,黑龙江省哈尔滨市方正县, 45.851695 , 128.829536
哈尔滨市,通河县,150900,p230000/c230100/x230128,黑龙江省哈尔滨市通河县, 45.972425 , 128.749352
哈尔滨市,巴彦县,151800,p230000/c230100/x230126,黑龙江省哈尔滨市巴彦县, 46.085379 , 127.403182
哈尔滨市,木兰县,151900,p230000/c230100/x230127,黑龙江省哈尔滨市木兰县, 45.950582 , 128.043466
哈尔滨市,依兰县,154800,p230000/c230100/x230123,黑龙江省哈尔滨市依兰县, 46.324534 , 129.567985
岳阳市,岳阳县,414100,p430000/c430600/x430621,湖南省岳阳市岳阳县, 29.377281 , 113.119965
岳阳市,华容县,414200,p430000/c430600/x430623,湖南省岳阳市华容县, 29.531057 , 112.540463
岳阳市,临湘市,414300,p430000/c430600/x430682,湖南省岳阳市临湘市, 29.476849 , 113.450423
岳阳市,汨罗市,414400,p430000/c430600/x430681,湖南省岳阳市汨罗市, 28.806394 , 113.067240
岳阳市,平江县,414500,p430000/c430600/x430626,湖南省岳阳市平江县, 28.701868 , 113.581234
岳阳市,湘阴县,414600,p430000/c430600/x430624,湖南省岳阳市湘阴县, 28.670807 , 112.883301
亳州市,蒙城县,233500,p340000/c341600/x341622,安徽省亳州市蒙城县, 33.265831 , 116.564248
亳州市,涡阳县,233600,p340000/c341600/x341621,安徽省亳州市涡阳县, 33.492921 , 116.215665
亳州市,利辛县,236700,p340000/c341600/x341623,安徽省亳州市利辛县, 33.144724 , 116.208635
眉山市,丹棱县,620200,p510000/c511400/x511424,四川省眉山市丹棱县, 30.014448 , 103.512733
眉山市,洪雅县,620360,p510000/c511400/x511423,四川省眉山市洪雅县, 29.904890 , 103.372863
眉山市,青神县,620460,p510000/c511400/x511425,四川省眉山市青神县, 29.831358 , 103.846688
眉山市,仁寿县,620560,p510000/c511400/x511421,四川省眉山市仁寿县, 29.995630 , 104.134082
眉山市,彭山县,620800,p510000/c511400/x511422,四川省眉山市彭山县, 30.193056 , 103.872950
永州市,芝山区,425100,p430000/c431100/x431102,湖南省永州市芝山区, 26.222610 , 111.617577
永州市,双牌县,425200,p430000/c431100/x431123,湖南省永州市双牌县, 25.961910 , 111.659967
永州市,道县,425300,p430000/c431100/x431124,湖南省永州市道县, 25.526438 , 111.600796
永州市,江永县,425400,p430000/c431100/x431125,湖南省永州市江永县, 25.273539 , 111.343911
永州市,江华县,425500,p430000/c431100/x431129,湖南省永州市江华县, 25.185590 , 111.579305
永州市,宁远县,425600,p430000/c431100/x431126,湖南省永州市宁远县, 25.570976 , 111.945805
永州市,新田县,425700,p430000/c431100/x431128,湖南省永州市新田县, 25.906574 , 112.221573
永州市,蓝山县,425800,p430000/c431100/x431127,湖南省永州市蓝山县, 25.369898 , 112.196731
永州市,东安县,425900,p430000/c431100/x431122,湖南省永州市东安县, 26.394404 , 111.314117
永州市,祁阳县,426100,p430000/c431100/x431121,湖南省永州市祁阳县, 26.580120 , 111.840657
株州市,株州县,412100,p430000/c430200/x430221,湖南省株州市株州县, 27.844261 , 113.154000
株州市,醴陵市,412200,p430000/c430200/x430281,湖南省株州市醴陵市, 27.646130 , 113.496894
株州市,攸县,412300,p430000/c430200/x430223,湖南省株州市攸县, 27.011364 , 113.355074
株州市,茶陵县,412400,p430000/c430200/x430224,湖南省株州市茶陵县, 26.777492 , 113.539280
株州市,炎陵县,412500,p430000/c430200/x430225,湖南省株州市炎陵县, 26.489902 , 113.772655
宣城市,郎溪县,242100,p340000/c341800/x341821,安徽省宣城市郎溪县, 31.126412 , 119.179657
宣城市,广德县,242200,p340000/c341800/x341822,安徽省宣城市广德县, 30.877555 , 119.420935
宣城市,宁国市,242300,p340000/c341800/x341881,安徽省宣城市宁国市, 30.633571 , 118.982915
宣城市,泾县,242500,p340000/c341800/x341823,安徽省宣城市泾县, 30.688578 , 118.419864
宣城市,旌德县,242600,p340000/c341800/x341825,安徽省宣城市旌德县, 30.286350 , 118.540487
宣城市,绩溪县,245300,p340000/c341800/x341824,安徽省宣城市绩溪县, 30.055592 , 118.583412
池州市,青阳县,242800,p340000/c341700/x341723,安徽省池州市青阳县, 30.639230 , 117.847362
池州市,石台县,245100,p340000/c341700/x341722,安徽省池州市石台县, 30.210313 , 117.486306
池州市,东至县,247200,p340000/c341700/x341721,安徽省池州市东至县, 30.111182 , 117.027533
焦作市,修武县,454350,p410000/c410800/x410821,河南省焦作市修武县, 35.223514 , 113.447755
焦作市,博爱县,454450,p410000/c410800/x410822,河南省焦作市博爱县, 35.171039 , 113.064332
焦作市,沁阳市,454550,p410000/c410800/x410882,河南省焦作市沁阳市, 35.087539 , 112.950716
焦作市,济源市,454650,p410000/c410800/x410881,河南省焦作市济源市, 35.110378 , 112.573015
焦作市,孟州市,454750,p410000/c410800/x410883,河南省焦作市孟州市, 34.907315 , 112.791402
焦作市,温县,454850,p410000/c410800/x410825,河南省焦作市温县, 34.940189 , 113.080530
焦作市,武陟县,454950,p410000/c410800/x410823,河南省焦作市武陟县, 35.099378 , 113.401679
安庆市,桐城市,231400,p340000/c340800/x340881,安徽省安庆市桐城市, 31.035800 , 116.974120
安庆市,怀宁县,246100,p340000/c340800/x340822,安徽省安庆市怀宁县, 30.733825 , 116.829475
安庆市,望江县,246200,p340000/c340800/x340827,安徽省安庆市望江县, 30.124428 , 116.694183
安庆市,潜山县,246300,p340000/c340800/x340824,安徽省安庆市潜山县, 30.631129 , 116.581270
安庆市,太湖县,246400,p340000/c340800/x340825,安徽省安庆市太湖县, 30.454220 , 116.308795
安庆市,宿松县,246500,p340000/c340800/x340826,安徽省安庆市宿松县, 30.153746 , 116.129105
安庆市,岳西县,246600,p340000/c340800/x340828,安徽省安庆市岳西县, 30.849442 , 116.359921
安庆市,枞阳县,246700,p340000/c340800/x340823,安徽省安庆市枞阳县, 30.700733 , 117.220200
枣庄市,薛城区,277000,p370000/c370400/x370403,山东省枣庄市薛城区, 34.795063 , 117.263164
枣庄市,山亭区,277200,p370000/c370400/x370406,山东省枣庄市山亭区, 35.099528 , 117.461517
枣庄市,台儿庄区,277400,p370000/c370400/x370405,山东省枣庄市台儿庄区, 34.562528 , 117.733832
枣庄市,滕州市,277500,p370000/c370400/x370481,山东省枣庄市滕州市, 35.084021 , 117.164388
娄底市,涟源市,417100,p430000/c431300/x431382,湖南省娄底市涟源市, 27.692542 , 111.664316
娄底市,冷水江市,417500,p430000/c431300/x431381,湖南省娄底市冷水江市, 27.686252 , 111.434984
娄底市,新化县,417600,p430000/c431300/x431322,湖南省娄底市新化县, 27.726515 , 111.327412
娄底市,双峰县,417700,p430000/c431300/x431321,湖南省娄底市双峰县, 27.456658 , 112.175246
张家界市,桑植县,427100,p430000/c430800/x430822,湖南省张家界市桑植县, 29.400069 , 110.165819
张家界市,慈利县,427200,p430000/c430800/x430821,湖南省张家界市慈利县, 29.429972 , 111.139666
张家界市,永定区,427300,p430000/c430800/x430802,湖南省张家界市永定区, 29.119856 , 110.537138
张家界市,武陵源区,427400,p430000/c430800/x430811,湖南省张家界市武陵源区, 29.345730 , 110.550434
濮阳市,濮阳县,457100,p410000/c410900/x410928,河南省濮阳市濮阳县, 35.712193 , 115.029079
濮阳市,清丰县,457300,p410000/c410900/x410922,河南省濮阳市清丰县, 35.885180 , 115.104389
濮阳市,南乐县,457400,p410000/c410900/x410923,河南省濮阳市南乐县, 36.069602 , 115.204740
濮阳市,范县,457500,p410000/c410900/x410926,河南省濮阳市范县, 35.851907 , 115.504201
濮阳市,台前县,457600,p410000/c410900/x410927,河南省濮阳市台前县, 35.969390 , 115.871906
荷泽市,定陶县,274100,p370000/c371700/x371727,山东省荷泽市定陶县, 35.071000 , 115.573094
荷泽市,成武县,274200,p370000/c371700/x371723,山东省荷泽市成武县, 34.952459 , 115.889765
荷泽市,单县,274300,p370000/c371700/x371722,山东省荷泽市单县, 36.668530 , 117.020359
荷泽市,曹县,274400,p370000/c371700/x371721,山东省荷泽市曹县, 34.826035 , 115.582533
荷泽市,东明县,274500,p370000/c371700/x371728,山东省荷泽市东明县, 35.268125 , 115.092195
荷泽市,鄄城县,274600,p370000/c371700/x371726,山东省荷泽市鄄城县, 35.563408 , 115.510193
荷泽市,郓城县,274700,p370000/c371700/x371725,山东省荷泽市郓城县, 35.599758 , 115.943613
荷泽市,巨野县,274900,p370000/c371700/x371724,山东省荷泽市巨野县, 35.396261 , 116.094674
益阳市,沅江市,413100,p430000/c430900/x430981,湖南省益阳市沅江市, 28.847045 , 112.355954
益阳市,南县,413200,p430000/c430900/x430921,湖南省益阳市南县, 29.361341 , 112.396416
益阳市,桃江县,413400,p430000/c430900/x430922,湖南省益阳市桃江县, 28.518085 , 112.155822
益阳市,安化县,413500,p430000/c430900/x430923,湖南省益阳市安化县, 28.374107 , 111.212846
临沧市,云县,675800,p530000/c530900/x530922,云南省临沧市云县, 24.437061 , 100.123248
临沧市,风庆县,675900,p530000/c530900/x530921,云南省临沧市风庆县, 24.580424 , 99.928460
临沧市,沧源佤族自治县,677400,p530000/c530900/x530927,云南省临沧市沧源佤族自治县, 23.146712 , 99.246197
临沧市,永德县,677600,p530000/c530900/x530923,云南省临沧市永德县, 24.018357 , 99.259340
临沧市,镇康县,677700,p530000/c530900/x530924,云南省临沧市镇康县, 23.762584 , 98.825285
七台河市,勃利县,154500,p230000/c230900/x230921,黑龙江省七台河市勃利县, 45.755063 , 130.592171
呼伦贝尔市,海拉尔区,021000,p150000/c150700/x150702,内蒙古自治区呼伦贝尔市海拉尔区, 49.212192 , 119.736436
呼伦贝尔市,鄂温克旗,021100,p150000/c150700/x150724,内蒙古自治区呼伦贝尔市鄂温克旗, 49.148818 , 119.752941
呼伦贝尔市,新巴尔虎左旗,021200,p150000/c150700/x150726,内蒙古自治区呼伦贝尔市新巴尔虎左旗, 48.218241 , 118.269820
呼伦贝尔市,新巴尔虎右旗,021300,p150000/c150700/x150727,内蒙古自治区呼伦贝尔市新巴尔虎右旗, 48.672101 , 116.823690
呼伦贝尔市,满洲里市,021400,p150000/c150700/x150781,内蒙古自治区呼伦贝尔市满洲里市, 49.597798 , 117.378727
呼伦贝尔市,陈巴尔虎旗,021500,p150000/c150700/x150725,内蒙古自治区呼伦贝尔市陈巴尔虎旗, 49.328916 , 119.424026
呼伦贝尔市,牙克石市,022150,p150000/c150700/x150782,内蒙古自治区呼伦贝尔市牙克石市, 49.285568 , 120.711770
呼伦贝尔市,额尔古纳市,022250,p150000/c150700/x150784,内蒙古自治区呼伦贝尔市额尔古纳市, 50.243102 , 120.180506
呼伦贝尔市,根河市,022350,p150000/c150700/x150785,内蒙古自治区呼伦贝尔市根河市, 50.780345 , 121.520388
呼伦贝尔市,扎兰屯市,162650,p150000/c150700/x150783,内蒙古自治区呼伦贝尔市扎兰屯市, 48.013733 , 122.737467
呼伦贝尔市,阿荣旗,162750,p150000/c150700/x150721,内蒙古自治区呼伦贝尔市阿荣旗, 48.126585 , 123.459050
黄山市,歙县,245200,p340000/c341000/x341021,安徽省黄山市歙县, 29.866888 , 118.411469
黄山市,休宁县,245400,p340000/c341000/x341022,安徽省黄山市休宁县, 29.789095 , 118.199179
黄山市,黟县,245500,p340000/c341000/x341023,安徽省黄山市黟县, 29.924811 , 117.938262
黄山市,祁门县,245600,p340000/c341000/x341024,安徽省黄山市祁门县, 29.854054 , 117.717386
黄山市,黄山区,245700,p340000/c341000/x341003,安徽省黄山市黄山区, 30.272942 , 118.141568
运城市,新绛县,043100,p140000/c140800/x140825,山西省运城市新绛县, 35.616288 , 111.224778
运城市,稷山县,043200,p140000/c140800/x140824,山西省运城市稷山县, 35.604025 , 110.983333
运城市,河津市,043300,p140000/c140800/x140882,山西省运城市河津市, 35.596383 , 110.712063
运城市,绛县,043600,p140000/c140800/x140826,山西省运城市绛县, 35.491190 , 111.568236
运城市,垣曲县,043700,p140000/c140800/x140827,山西省运城市垣曲县, 35.297386 , 111.669928
运城市,闻喜县,043800,p140000/c140800/x140823,山西省运城市闻喜县, 35.356644 , 111.224720
运城市,临猗县,044100,p140000/c140800/x140821,山西省运城市临猗县, 35.144277 , 110.774547
运城市,万荣县,044200,p140000/c140800/x140822,山西省运城市万荣县, 35.415254 , 110.838024
运城市,平陆县,044300,p140000/c140800/x140829,山西省运城市平陆县, 34.829260 , 111.194133
运城市,夏县,044400,p140000/c140800/x140828,山西省运城市夏县, 35.141363 , 111.220456
运城市,永济市,044500,p140000/c140800/x140881,山西省运城市永济市, 34.867050 , 110.447549
运城市,芮城县,044600,p140000/c140800/x140830,山西省运城市芮城县, 34.693580 , 110.694369
随州市,广水市,432700,p420000/c421300/x421381,湖北省随州市广水市, 31.616854 , 113.825890
玉溪市,易门县,651100,p530000/c530400/x530425,云南省玉溪市易门县, 24.671651 , 102.162531
玉溪市,澄江县,652500,p530000/c530400/x530422,云南省玉溪市澄江县, 24.673734 , 102.908248
玉溪市,江川县,652600,p530000/c530400/x530421,云南省玉溪市江川县, 24.287534 , 102.753734
玉溪市,通海县,652700,p530000/c530400/x530423,云南省玉溪市通海县, 24.110005 , 102.760654
玉溪市,华宁县,652800,p530000/c530400/x530424,云南省玉溪市华宁县, 24.192761 , 102.928835
玉溪市,峨山彝族自治县,653200,p530000/c530400/x530426,云南省玉溪市峨山彝族自治县, 24.168957 , 102.405819
玉溪市,元江哈尼族彝族傣族自治县,653300,p530000/c530400/x530428,云南省玉溪市元江哈尼族彝族傣族自治县, 23.596503 , 101.998103
商丘市,睢阳区,476100,p410000/c411400/x411403,河南省商丘市睢阳区, 34.388050 , 115.653223
商丘市,柘城县,476200,p410000/c411400/x411424,河南省商丘市柘城县, 34.091045 , 115.305843
商丘市,虞城县,476300,p410000/c411400/x411425,河南省商丘市虞城县, 34.406742 , 115.864501
商丘市,夏邑县,476400,p410000/c411400/x411426,河南省商丘市夏邑县, 34.237554 , 116.131447
商丘市,永城市,476600,p410000/c411400/x411481,河南省商丘市永城市, 33.929291 , 116.449500
商丘市,宁陵县,476700,p410000/c411400/x411423,河南省商丘市宁陵县, 34.460232 , 115.313690
商丘市,民权县,476800,p410000/c411400/x411421,河南省商丘市民权县, 34.646892 , 115.147565
商丘市,睢县,476900,p410000/c411400/x411422,河南省商丘市睢县, 34.445335 , 115.071849
威海市,荣成市,264300,p370000/c371000/x371082,山东省威海市荣成市, 37.165160 , 122.486658
威海市,文登市,264400,p370000/c371000/x371081,山东省威海市文登市, 37.179536 , 121.990729
威海市,乳山市,264500,p370000/c371000/x371083,山东省威海市乳山市, 36.919816 , 121.539764
宝鸡市,千阳县,721100,p610000/c610300/x610328,陕西省宝鸡市千阳县, 34.642381 , 107.132442
宝鸡市,陇县,721200,p610000/c610300/x610327,陕西省宝鸡市陇县, 34.870611 , 106.850560
宝鸡市,陈仓区,721300,p610000/c610300/x610304,陕西省宝鸡市陈仓区, 34.354456 , 107.387436
宝鸡市,凤翔县,721400,p610000/c610300/x610322,陕西省宝鸡市凤翔县, 34.521218 , 107.400737
宝鸡市,麟游县,721500,p610000/c610300/x610329,陕西省宝鸡市麟游县, 34.677902 , 107.793525
宝鸡市,太白县,721600,p610000/c610300/x610331,陕西省宝鸡市太白县, 34.058401 , 107.319116
宝鸡市,凤县,721700,p610000/c610300/x610330,陕西省宝鸡市凤县, 33.904964 , 106.506911
宝鸡市,扶风县,722200,p610000/c610300/x610324,陕西省宝鸡市扶风县, 34.375411 , 107.900219
宝鸡市,眉县,722300,p610000/c610300/x610326,陕西省宝鸡市眉县, 34.274247 , 107.749767
宝鸡市,岐山县,722400,p610000/c610300/x610323,陕西省宝鸡市岐山县, 34.443459 , 107.621054
博尔塔拉州,精河县,833300,p650000/c652700/x652722,新疆维吾尔自治区博尔塔拉州精河县, 44.600408 , 82.894195
博尔塔拉州,博乐市,833400,p650000/c652700/x652701,新疆维吾尔自治区博尔塔拉州博乐市, 44.853870 , 82.051005
博尔塔拉州,温泉县,833500,p650000/c652700/x652723,新疆维吾尔自治区博尔塔拉州温泉县, 44.968857 , 81.024816
南充市,高坪区,637100,p510000/c511300/x511303,四川省南充市高坪区, 30.781623 , 106.118808
南充市,西充县,637200,p510000/c511300/x511325,四川省南充市西充县, 30.995032 , 105.900818
南充市,南部县,637300,p510000/c511300/x511321,四川省南充市南部县, 31.347467 , 106.036584
南充市,阆中市,637400,p510000/c511300/x511381,四川省南充市阆中市, 31.558357 , 106.005046
南充市,顺庆区,637500,p510000/c511300/x511302,四川省南充市顺庆区, 30.796486 , 106.092399
南充市,仪陇县,637600,p510000/c511300/x511324,四川省南充市仪陇县, 31.271562 , 106.303042
南充市,营山县,637700,p510000/c511300/x511322,四川省南充市营山县, 31.076458 , 106.565473
南充市,蓬安县,637800,p510000/c511300/x511323,四川省南充市蓬安县, 31.028520 , 106.412181
南充市,嘉陵区,637900,p510000/c511300/x511304,四川省南充市嘉陵区, 30.758748 , 106.071793
济南市,历城区,250100,p370000/c370100/x370112,山东省济南市历城区, 36.680017 , 117.065237
济南市,章丘市,250200,p370000/c370100/x370181,山东省济南市章丘市, 36.681299 , 117.526212
济南市,长清区,250300,p370000/c370100/x370113,山东省济南市长清区, 36.553571 , 116.751937
济南市,平阴县,250400,p370000/c370100/x370124,山东省济南市平阴县, 36.289265 , 116.456187
济南市,济阳县,251400,p370000/c370100/x370125,山东省济南市济阳县, 36.978537 , 117.173525
济南市,商河县,251600,p370000/c370100/x370126,山东省济南市商河县, 37.309045 , 117.157183
昆明市,西山区,650100,p530000/c530100/x530112,云南省昆明市西山区, 25.038694 , 102.664690
昆明市,官渡区,650200,p530000/c530100/x530111,云南省昆明市官渡区, 25.015105 , 102.743812
昆明市,安宁市,650300,p530000/c530100/x530181,云南省昆明市安宁市, 24.919493 , 102.478494
昆明市,富民县,650400,p530000/c530100/x530124,云南省昆明市富民县, 25.222045 , 102.497684
昆明市,呈贡县,650500,p530000/c530100/x530121,云南省昆明市呈贡县, 24.889727 , 102.797660
昆明市,晋宁县,650600,p530000/c530100/x530122,云南省昆明市晋宁县, 24.669711 , 102.595434
昆明市,嵩明县,651700,p530000/c530100/x530127,云南省昆明市嵩明县, 25.338644 , 103.036908
昆明市,宜良县,652100,p530000/c530100/x530125,云南省昆明市宜良县, 24.919705 , 103.141307
昆明市,东川区,654100,p530000/c530100/x530113,云南省昆明市东川区, 26.082873 , 103.187825
昆明市,寻甸回族彝族自治县,655200,p530000/c530100/x530129,云南省昆明市寻甸回族彝族自治县, 25.558201 , 103.256616
白城市,大安市,131300,p220000/c220800/x220882,吉林省白城市大安市, 45.506996 , 124.292626
白城市,洮南市,137100,p220000/c220800/x220881,吉林省白城市洮南市, 45.335961 , 122.786735
白城市,通榆县,137200,p220000/c220800/x220822,吉林省白城市通榆县, 44.812911 , 123.088239
白城市,镇赉县,137300,p220000/c220800/x220821,吉林省白城市镇赉县, 45.847435 , 123.199890
宿州市,灵壁县,234200,p340000/c341300/x341323,安徽省宿州市灵壁县, 33.542012 , 117.557890
宿州市,泗县,234300,p340000/c341300/x341324,安徽省宿州市泗县, 33.482982 , 117.910629
宿州市,萧县,235200,p340000/c341300/x341322,安徽省宿州市萧县, 34.188728 , 116.947290
宿州市,砀山县,235300,p340000/c341300/x341321,安徽省宿州市砀山县, 34.442561 , 116.367095
合肥市,长丰县,231100,p340000/c340100/x340121,安徽省合肥市长丰县, 32.478018 , 117.167564
合肥市,肥西县,231200,p340000/c340100/x340123,安徽省合肥市肥西县, 31.706839 , 117.157948
合肥市,肥东县,231600,p340000/c340100/x340122,安徽省合肥市肥东县, 31.887702 , 117.469344
成都市,龙泉驿区,610100,p510000/c510100/x510112,四川省成都市龙泉驿区, 30.556507 , 104.274632
成都市,双流县,610200,p510000/c510100/x510122,四川省成都市双流县, 30.574655 , 103.923715
成都市,青白江区,610300,p510000/c510100/x510113,四川省成都市青白江区, 30.878681 , 104.250877
成都市,金堂县,610400,p510000/c510100/x510121,四川省成都市金堂县, 30.862017 , 104.412005
成都市,新都区,610500,p510000/c510100/x510114,四川省成都市新都区, 30.823499 , 104.158705
成都市,温江区,611130,p510000/c510100/x510115,四川省成都市温江区, 30.682203 , 103.856646
成都市,崇州市,611230,p510000/c510100/x510184,四川省成都市崇州市, 30.630122 , 103.673001
成都市,大邑县,611330,p510000/c510100/x510129,四川省成都市大邑县, 30.572331 , 103.511899
成都市,新津县,611430,p510000/c510100/x510132,四川省成都市新津县, 30.410222 , 103.811345
成都市,邛崃市,611530,p510000/c510100/x510183,四川省成都市邛崃市, 30.410275 , 103.464156
成都市,蒲江县,611630,p510000/c510100/x510131,四川省成都市蒲江县, 30.196789 , 103.506498
成都市,郫县,611730,p510000/c510100/x510124,四川省成都市郫县, 30.795854 , 103.901092
成都市,都江堰市,611830,p510000/c510100/x510181,四川省成都市都江堰市, 30.988435 , 103.646912
成都市,彭州市,611930,p510000/c510100/x510182,四川省成都市彭州市, 30.990109 , 103.958014
郴州市,永兴县,423300,p430000/c431000/x431023,湖南省郴州市永兴县, 26.127151 , 113.116527
郴州市,资兴市,423400,p430000/c431000/x431081,湖南省郴州市资兴市, 25.976243 , 113.236146
郴州市,桂东县,423500,p430000/c431000/x431027,湖南省郴州市桂东县, 26.077616 , 113.944614
郴州市,安仁县,423600,p430000/c431000/x431028,湖南省郴州市安仁县, 26.709056 , 113.269441
郴州市,汝城县,424100,p430000/c431000/x431026,湖南省郴州市汝城县, 25.532816 , 113.684727
郴州市,宜章县,424200,p430000/c431000/x431022,湖南省郴州市宜章县, 25.399792 , 112.948772
郴州市,临武县,424300,p430000/c431000/x431025,湖南省郴州市临武县, 25.275560 , 112.563456
郴州市,桂阳县,424400,p430000/c431000/x431021,湖南省郴州市桂阳县, 25.754116 , 112.734141
郴州市,嘉禾县,424500,p430000/c431000/x431024,湖南省郴州市嘉禾县, 25.587520 , 112.369021
三门峡市,陕县,472100,p410000/c411200/x411222,河南省三门峡市陕县, 34.720548 , 111.103563
三门峡市,卢氏县,472200,p410000/c411200/x411224,河南省三门峡市卢氏县, 34.054199 , 111.047911
三门峡市,义马市,472300,p410000/c411200/x411281,河南省三门峡市义马市, 34.747185 , 111.874321
三门峡市,渑池县,472400,p410000/c411200/x411221,河南省三门峡市渑池县, 34.767189 , 111.761803
三门峡市,灵宝市,472500,p410000/c411200/x411282,河南省三门峡市灵宝市, 34.516839 , 110.894206
鄂尔多斯市,准格尔旗,010300,p150000/c150600/x150622,内蒙古自治区鄂尔多斯市准格尔旗, 39.864362 , 111.240171
鄂尔多斯市,达拉特旗,014300,p150000/c150600/x150621,内蒙古自治区鄂尔多斯市达拉特旗, 40.412438 , 110.033833
鄂尔多斯市,鄂托克旗,016100,p150000/c150600/x150624,内蒙古自治区鄂尔多斯市鄂托克旗, 39.089650 , 107.976161
鄂尔多斯市,鄂托克前旗,016200,p150000/c150600/x150623,内蒙古自治区鄂尔多斯市鄂托克前旗, 38.182362 , 107.477515
鄂尔多斯市,东胜区,017000,p150000/c150600/x150602,内蒙古自治区鄂尔多斯市东胜区, 39.822507 , 109.963339
鄂尔多斯市,伊金霍洛旗,017200,p150000/c150600/x150627,内蒙古自治区鄂尔多斯市伊金霍洛旗, 39.564660 , 109.747740
鄂尔多斯市,乌审旗,017300,p150000/c150600/x150626,内蒙古自治区鄂尔多斯市乌审旗, 38.604136 , 108.817607
鄂尔多斯市,杭锦旗,017400,p150000/c150600/x150625,内蒙古自治区鄂尔多斯市杭锦旗, 40.270001 , 107.035617
凉山州,西昌市,615000,p510000/c513400/x513401,四川省凉山州西昌市, 27.894504 , 102.264449
凉山州,会理县,615100,p510000/c513400/x513425,四川省凉山州会理县, 26.655026 , 102.244683
凉山州,会东县,615200,p510000/c513400/x513426,四川省凉山州会东县, 26.634669 , 102.577960
凉山州,普格县,615300,p510000/c513400/x513428,四川省凉山州普格县, 27.376413 , 102.540901
凉山州,宁南县,615400,p510000/c513400/x513427,四川省凉山州宁南县, 27.066308 , 102.759687
凉山州,德昌县,615500,p510000/c513400/x513424,四川省凉山州德昌县, 27.402839 , 102.175670
凉山州,冕宁县,615600,p510000/c513400/x513433,四川省凉山州冕宁县, 28.549657 , 102.177010
凉山州,盐源县,615700,p510000/c513400/x513423,四川省凉山州盐源县, 27.422645 , 101.509188
凉山州,木里藏族自治县,615800,p510000/c513400/x513422,四川省凉山州木里藏族自治县, 27.928835 , 101.280206
凉山州,昭觉县,616150,p510000/c513400/x513431,四川省凉山州昭觉县, 28.014088 , 102.842611
凉山州,金阳县,616250,p510000/c513400/x513430,四川省凉山州金阳县, 27.696861 , 103.248772
凉山州,布拖县,616350,p510000/c513400/x513429,四川省凉山州布拖县, 27.711429 , 102.807302
凉山州,美姑县,616450,p510000/c513400/x513436,四川省凉山州美姑县, 28.328640 , 103.132180
凉山州,雷波县,616550,p510000/c513400/x513437,四川省凉山州雷波县, 28.262683 , 103.571696
凉山州,越西县,616650,p510000/c513400/x513434,四川省凉山州越西县, 28.639801 , 102.507680
凉山州,喜德县,616750,p510000/c513400/x513432,四川省凉山州喜德县, 28.306726 , 102.412518
凉山州,甘洛县,616850,p510000/c513400/x513435,四川省凉山州甘洛县, 28.966069 , 102.771749
曲靖市,会泽县,654200,p530000/c530300/x530326,云南省曲靖市会泽县, 26.417947 , 103.297361
曲靖市,马龙县,655100,p530000/c530300/x530321,云南省曲靖市马龙县, 25.428130 , 103.578454
曲靖市,沾益县,655300,p530000/c530300/x530328,云南省曲靖市沾益县, 25.600507 , 103.822324
曲靖市,宣威市,655400,p530000/c530300/x530381,云南省曲靖市宣威市, 26.219767 , 104.104475
曲靖市,富源县,655500,p530000/c530300/x530325,云南省曲靖市富源县, 25.674238 , 104.255015
曲靖市,陆良县,655600,p530000/c530300/x530322,云南省曲靖市陆良县, 25.030051 , 103.666663
曲靖市,师宗县,655700,p530000/c530300/x530323,云南省曲靖市师宗县, 24.822403 , 103.985478
曲靖市,罗平县,655800,p530000/c530300/x530324,云南省曲靖市罗平县, 24.884626 , 104.308675
自贡市,荣县,643100,p510000/c510300/x510321,四川省自贡市荣县, 29.445410 , 104.417388
自贡市,富顺县,643200,p510000/c510300/x510322,四川省自贡市富顺县, 29.181430 , 104.975048
德州市,齐河县,251100,p370000/c371400/x371425,山东省德州市齐河县, 36.783415 , 116.762810
德州市,禹城市,251200,p370000/c371400/x371482,山东省德州市禹城市, 36.933812 , 116.638327
德州市,临邑县,251500,p370000/c371400/x371424,山东省德州市临邑县, 37.189798 , 116.866800
德州市,平原县,253100,p370000/c371400/x371426,山东省德州市平原县, 37.165314 , 116.434056
德州市,夏津县,253200,p370000/c371400/x371427,山东省德州市夏津县, 36.948371 , 116.001726
德州市,武城县,253300,p370000/c371400/x371428,山东省德州市武城县, 37.213311 , 116.069302
德州市,宁津县,253400,p370000/c371400/x371422,山东省德州市宁津县, 37.652190 , 116.800306
德州市,陵县,253500,p370000/c371400/x371421,山东省德州市陵县, 37.335794 , 116.576092
德州市,乐陵市,253600,p370000/c371400/x371481,山东省德州市乐陵市, 37.729907 , 117.231935
德州市,庆云县,253700,p370000/c371400/x371423,山东省德州市庆云县, 37.775350 , 117.385257
南昌市,新建县,330100,p360000/c360100/x360122,江西省南昌市新建县, 28.692445 , 115.815272
南昌市,南昌县,330200,p360000/c360100/x360121,江西省南昌市南昌县, 28.545459 , 115.944162
南昌市,安义县,330500,p360000/c360100/x360123,江西省南昌市安义县, 28.844507 , 115.549248
南昌市,进贤县,331700,p360000/c360100/x360124,江西省南昌市进贤县, 28.376918 , 116.240924
双鸭山市,宝清县,155600,p230000/c230500/x230523,黑龙江省双鸭山市宝清县, 46.326925 , 132.197243
双鸭山市,饶河县,155700,p230000/c230500/x230524,黑龙江省双鸭山市饶河县, 46.798164 , 134.013872
双鸭山市,友谊县,155800,p230000/c230500/x230522,黑龙江省双鸭山市友谊县, 46.767299 , 131.808064
双鸭山市,集贤县,155900,p230000/c230500/x230521,黑龙江省双鸭山市集贤县, 46.728377 , 131.140483
安阳市,安阳县,455100,p410000/c410500/x410522,河南省安阳市安阳县, 36.111477 , 114.339680
安阳市,汤阴县,456100,p410000/c410500/x410523,河南省安阳市汤阴县, 35.924515 , 114.357763
安阳市,内黄县,456300,p410000/c410500/x410527,河南省安阳市内黄县, 35.971653 , 114.901492
安阳市,滑县,456450,p410000/c410500/x410526,河南省安阳市滑县, 35.575418 , 114.519311
安阳市,林州市,456550,p410000/c410500/x410581,河南省安阳市林州市, 36.083047 , 113.820130
吴忠市,同心县,751300,p640000/c640300/x640324,宁夏回族自治区吴忠市同心县, 36.980575 , 105.914458
吴忠市,盐池县,751500,p640000/c640300/x640323,宁夏回族自治区吴忠市盐池县, 37.783205 , 107.407359
吴忠市,青铜峡市,751600,p640000/c640300/x640381,宁夏回族自治区吴忠市青铜峡市, 38.021302 , 106.078818
烟台市,莱州市,261400,p370000/c370600/x370683,山东省烟台市莱州市, 37.177017 , 119.942327
烟台市,牟平区,264100,p370000/c370600/x370612,山东省烟台市牟平区, 37.386901 , 121.600512
烟台市,海阳市,265100,p370000/c370600/x370687,山东省烟台市海阳市, 36.776378 , 121.158434
烟台市,莱阳市,265200,p370000/c370600/x370682,山东省烟台市莱阳市, 36.978941 , 120.711673
烟台市,栖霞市,265300,p370000/c370600/x370686,山东省烟台市栖霞市, 37.335123 , 120.849675
烟台市,招远市,265400,p370000/c370600/x370685,山东省烟台市招远市, 37.355469 , 120.434072
烟台市,福山区,265500,p370000/c370600/x370611,山东省烟台市福山区, 37.498246 , 121.267741
烟台市,蓬莱市,265600,p370000/c370600/x370684,山东省烟台市蓬莱市, 37.810661 , 120.758848
烟台市,龙口市,265700,p370000/c370600/x370681,山东省烟台市龙口市, 37.646064 , 120.477836
烟台市,长岛县,265800,p370000/c370600/x370634,山东省烟台市长岛县, 37.921368 , 120.736580
六安市,舒城县,231300,p340000/c341500/x341523,安徽省六安市舒城县, 31.462026 , 116.948668
六安市,寿县,232200,p340000/c341500/x341521,安徽省六安市寿县, 32.573234 , 116.787144
六安市,霍山县,237200,p340000/c341500/x341525,安徽省六安市霍山县, 31.392786 , 116.332951
六安市,金寨县,237300,p340000/c341500/x341524,安徽省六安市金寨县, 31.727170 , 115.934366
六安市,霍邱县,237400,p340000/c341500/x341522,安徽省六安市霍邱县, 32.353038 , 116.277912
广元市,青川县,628100,p510000/c510800/x510822,四川省广元市青川县, 32.575484 , 105.238842
广元市,旺苍县,628200,p510000/c510800/x510821,四川省广元市旺苍县, 32.228917 , 106.289905
广元市,剑阁县,628300,p510000/c510800/x510823,四川省广元市剑阁县, 32.287723 , 105.524766
广元市,苍溪县,628400,p510000/c510800/x510824,四川省广元市苍溪县, 31.732432 , 105.934801
德宏州,潞西市,678400,p530000/c533100/x533103,云南省德宏州潞西市, 24.433498 , 98.583867
德宏州,瑞丽市,678600,p530000/c533100/x533102,云南省德宏州瑞丽市, 24.012808 , 97.851931
德宏州,陇川县,678700,p530000/c533100/x533124,云南省德宏州陇川县, 24.182965 , 97.792105
德宏州,梁河县,679200,p530000/c533100/x533122,云南省德宏州梁河县, 24.804232 , 98.296657
德宏州,盈江县,679300,p530000/c533100/x533123,云南省德宏州盈江县, 24.705211 , 97.931955
湘潭市,湘潭县,411200,p430000/c430300/x430321,湖南省湘潭市湘潭县, 27.778958 , 112.950831
湘潭市,韶山市,411300,p430000/c430300/x430382,湖南省湘潭市韶山市, 27.915009 , 112.526671
湘潭市,湘乡市,411400,p430000/c430300/x430381,湖南省湘潭市湘乡市, 27.734120 , 112.535028
松原市,前郭尔罗斯县,131100,p220000/c220700/x220721,吉林省松原市前郭尔罗斯县, 45.118030 , 124.823242
松原市,扶余市,131200,p220000/c220700/x220724,吉林省松原市扶余市, 44.988449 , 126.049703
松原市,乾安县,131400,p220000/c220700/x220723,吉林省松原市乾安县, 45.003774 , 124.041139
松原市,长岭县,131500,p220000/c220700/x220722,吉林省松原市长岭县, 44.275895 , 123.967484
鹰潭市,余江县,335200,p360000/c360600/x360622,江西省鹰潭市余江县, 28.209764 , 116.818353
鹰潭市,贵溪市,335400,p360000/c360600/x360681,江西省鹰潭市贵溪市, 28.292519 , 117.245497
广安市,岳池县,638350,p510000/c511600/x511621,四川省广安市岳池县, 30.537863 , 106.440114
广安市,武胜县,638450,p510000/c511600/x511622,四川省广安市武胜县, 30.348772 , 106.295764
广安市,邻水县,638500,p510000/c511600/x511623,四川省广安市邻水县, 30.334769 , 106.930380
广安市,华蓥市,638650,p510000/c511600/x511681,四川省广安市华蓥市, 30.390403 , 106.783197
郑州市,上街区,450000,p410000/c410100/x410106,河南省郑州市上街区, 34.802794 , 113.308969
郑州市,荥阳市,450100,p410000/c410100/x410182,河南省郑州市荥阳市, 34.787375 , 113.383221
郑州市,新郑市,451150,p410000/c410100/x410184,河南省郑州市新郑市, 34.395562 , 113.740529
郑州市,巩义市,451250,p410000/c410100/x410181,河南省郑州市巩义市, 34.747858 , 113.022501
郑州市,中牟县,451450,p410000/c410100/x410122,河南省郑州市中牟县, 34.718937 , 113.976254
郑州市,新密市,452370,p410000/c410100/x410183,河南省郑州市新密市, 34.539443 , 113.390891
郑州市,登封市,452470,p410000/c410100/x410185,河南省郑州市登封市, 34.453667 , 113.050492
抚州市,东乡县,331800,p360000/c361000/x361029,江西省抚州市东乡县, 28.247697 , 116.603560
抚州市,资溪县,335300,p360000/c361000/x361028,江西省抚州市资溪县, 27.706102 , 117.060264
抚州市,临川区,344100,p360000/c361000/x361002,江西省抚州市临川区, 27.934573 , 116.312167
抚州市,崇仁县,344200,p360000/c361000/x361024,江西省抚州市崇仁县, 27.764394 , 116.061101
抚州市,乐安县,344300,p360000/c361000/x361025,江西省抚州市乐安县, 27.428765 , 115.830481
抚州市,宜黄县,344400,p360000/c361000/x361026,江西省抚州市宜黄县, 27.546146 , 116.222128
抚州市,南丰县,344500,p360000/c361000/x361023,江西省抚州市南丰县, 27.218445 , 116.525725
抚州市,黎川县,344600,p360000/c361000/x361022,江西省抚州市黎川县, 27.282333 , 116.907681
抚州市,南城县,344700,p360000/c361000/x361021,江西省抚州市南城县, 27.569678 , 116.637040
抚州市,金溪县,344800,p360000/c361000/x361027,江西省抚州市金溪县, 27.918959 , 116.755058
抚州市,广昌县,344900,p360000/c361000/x361030,江西省抚州市广昌县, 26.837267 , 116.325757
蚌埠市,五河县,233300,p340000/c340300/x340322,安徽省蚌埠市五河县, 33.127823 , 117.879486
蚌埠市,怀远县,233400,p340000/c340300/x340321,安徽省蚌埠市怀远县, 32.970031 , 117.205234
蚌埠市,固镇县,233700,p340000/c340300/x340323,安徽省蚌埠市固镇县, 33.318261 , 117.316641
甘孜州,康定县,626000,p510000/c513300/x513321,四川省甘孜州康定县, 29.998436 , 101.957146
甘孜州,泸定县,626100,p510000/c513300/x513322,四川省甘孜州泸定县, 29.914160 , 102.234618
甘孜州,九龙县,626200,p510000/c513300/x513324,四川省甘孜州九龙县, 29.000348 , 101.507294
甘孜州,丹巴县,626300,p510000/c513300/x513323,四川省甘孜州丹巴县, 30.878577 , 101.890358
甘孜州,道孚县,626400,p510000/c513300/x513326,四川省甘孜州道孚县, 30.979545 , 101.125237
甘孜州,炉霍县,626500,p510000/c513300/x513327,四川省甘孜州炉霍县, 31.391790 , 100.676372
甘孜州,色达县,626600,p510000/c513300/x513333,四川省甘孜州色达县, 32.268129 , 100.332743
甘孜州,甘孜县,626700,p510000/c513300/x513328,四川省甘孜州甘孜县, 31.622934 , 99.992671
甘孜州,新龙县,626800,p510000/c513300/x513329,四川省甘孜州新龙县, 30.939169 , 100.311369
甘孜州,白玉县,627150,p510000/c513300/x513331,四川省甘孜州白玉县, 31.209913 , 98.824182
甘孜州,德格县,627250,p510000/c513300/x513330,四川省甘孜州德格县, 31.806118 , 98.580915
甘孜州,石渠县,627350,p510000/c513300/x513332,四川省甘孜州石渠县, 32.978960 , 98.102900
甘孜州,雅江县,627450,p510000/c513300/x513325,四川省甘孜州雅江县, 30.031533 , 101.014425
甘孜州,理塘县,627550,p510000/c513300/x513334,四川省甘孜州理塘县, 29.996049 , 100.269818
甘孜州,巴塘县,627650,p510000/c513300/x513335,四川省甘孜州巴塘县, 30.004677 , 99.110712
甘孜州,稻城县,627750,p510000/c513300/x513337,四川省甘孜州稻城县, 29.037007 , 100.298403
甘孜州,乡城县,627850,p510000/c513300/x513336,四川省甘孜州乡城县, 28.931172 , 99.798435
甘孜州,得荣县,627950,p510000/c513300/x513338,四川省甘孜州得荣县, 28.713037 , 99.286335
铜陵市,铜陵县,244100,p340000/c340700/x340721,安徽省铜陵市铜陵县, 30.943291 , 117.817182
伊春市,铁力市,152500,p230000/c230700/x230781,黑龙江省伊春市铁力市, 46.986640 , 128.032422
伊春市,带岭区,153100,p230000/c230700/x230713,黑龙江省伊春市带岭区, 47.028397 , 129.020793
伊春市,南岔区,153100,p230000/c230700/x230703,黑龙江省伊春市南岔区, 47.138035 , 129.283467
伊春市,嘉荫县,153200,p230000/c230700/x230722,黑龙江省伊春市嘉荫县, 48.888965 , 130.403043
常德市,鼎城区,415100,p430000/c430700/x430703,湖南省常德市鼎城区, 29.018593 , 111.680783
常德市,临澧县,415200,p430000/c430700/x430724,湖南省常德市临澧县, 29.440793 , 111.647518
常德市,石门县,415300,p430000/c430700/x430726,湖南省常德市石门县, 29.584293 , 111.380014
常德市,津市市,415400,p430000/c430700/x430781,湖南省常德市津市市, 29.605480 , 111.877499
常德市,澧县,415500,p430000/c430700/x430723,湖南省常德市澧县, 29.818941 , 111.604146
常德市,安乡县,415600,p430000/c430700/x430721,湖南省常德市安乡县, 29.411309 , 112.171131
常德市,桃源县,415700,p430000/c430700/x430725,湖南省常德市桃源县, 28.902503 , 111.488925
常德市,汉寿县,415900,p430000/c430700/x430722,湖南省常德市汉寿县, 28.906107 , 111.970514
乌鲁木齐市,乌鲁木齐县,830000,p650000/c650100/x650121,新疆维吾尔自治区乌鲁木齐市乌鲁木齐县, 43.471360 , 87.409417
绥化市,肇东市,151100,p230000/c231200/x231282,黑龙江省绥化市肇东市, 46.051126 , 125.961814
绥化市,安达市,151400,p230000/c231200/x231281,黑龙江省绥化市安达市, 46.418081 , 125.344173
绥化市,兰西县,151500,p230000/c231200/x231222,黑龙江省绥化市兰西县, 46.252447 , 126.288113
绥化市,青岗县,151600,p230000/c231200/x231223,黑龙江省绥化市青岗县, 46.689671 , 126.113860
绥化市,明水县,151700,p230000/c231200/x231225,黑龙江省绥化市明水县, 47.173426 , 125.906301
绥化市,望奎县,152100,p230000/c231200/x231221,黑龙江省绥化市望奎县, 46.832719 , 126.486076
绥化市,绥棱县,152200,p230000/c231200/x231226,黑龙江省绥化市绥棱县, 47.236015 , 127.114832
绥化市,海伦市,152300,p230000/c231200/x231283,黑龙江省绥化市海伦市, 47.461971 , 126.973143
绥化市,庆安县,152400,p230000/c231200/x231224,黑龙江省绥化市庆安县, 46.880102 , 127.507825
延边朝鲜州,延吉市,133000,p220000/c222400/x222401,吉林省延边朝鲜州延吉市, 42.886372 , 129.496898
延边朝鲜州,图们市,133100,p220000/c222400/x222402,吉林省延边朝鲜州图们市, 42.963831 , 129.840796
延边朝鲜州,汪清县,133200,p220000/c222400/x222424,吉林省延边朝鲜州汪清县, 43.332843 , 129.739490
延边朝鲜州,珲春市,133300,p220000/c222400/x222404,吉林省延边朝鲜州珲春市, 42.862821 , 130.366036
延边朝鲜州,龙井市,133400,p220000/c222400/x222405,吉林省延边朝鲜州龙井市, 42.779749 , 129.431578
延边朝鲜州,和龙市,133500,p220000/c222400/x222406,吉林省延边朝鲜州和龙市, 42.554017 , 128.995412
延边朝鲜州,安图县,133600,p220000/c222400/x222426,吉林省延边朝鲜州安图县, 43.115904 , 128.909241
延边朝鲜州,敦化市,133700,p220000/c222400/x222403,吉林省延边朝鲜州敦化市, 43.380950 , 128.242633
聊城市,茌平县,252100,p370000/c371500/x371523,山东省聊城市茌平县, 36.580689 , 116.255270
聊城市,东阿县,252200,p370000/c371500/x371524,山东省聊城市东阿县, 36.334917 , 116.247580
聊城市,阳谷县,252300,p370000/c371500/x371521,山东省聊城市阳谷县, 36.114392 , 115.791820
聊城市,莘县,252400,p370000/c371500/x371522,山东省聊城市莘县, 36.233599 , 115.671191
聊城市,冠县,252500,p370000/c371500/x371525,山东省聊城市冠县, 36.484009 , 115.442740
聊城市,临清市,252600,p370000/c371500/x371581,山东省聊城市临清市, 36.838277 , 115.704881
聊城市,高唐县,252800,p370000/c371500/x371526,山东省聊城市高唐县, 36.865828 , 116.231416
滨州市,惠民县,251700,p370000/c371600/x371621,山东省滨州市惠民县, 37.489769 , 117.510451
滨州市,阳信县,251800,p370000/c371600/x371622,山东省滨州市阳信县, 37.641106 , 117.578262
滨州市,无棣县,251900,p370000/c371600/x371623,山东省滨州市无棣县, 37.770261 , 117.625696
滨州市,邹平县,256200,p370000/c371600/x371626,山东省滨州市邹平县, 36.862989 , 117.743109
滨州市,博兴县,256500,p370000/c371600/x371625,山东省滨州市博兴县, 37.150226 , 118.131815
滨州市,沾化县,256800,p370000/c371600/x371624,山东省滨州市沾化县, 37.698281 , 118.132199
延安市,黄龙县,715700,p610000/c610600/x610631,陕西省延安市黄龙县, 35.584467 , 109.840373
延安市,甘泉县,716100,p610000/c610600/x610627,陕西省延安市甘泉县, 36.276526 , 109.351020
延安市,宜川县,716200,p610000/c610600/x610630,陕西省延安市宜川县, 36.050178 , 110.168963
延安市,延长县,717100,p610000/c610600/x610621,陕西省延安市延长县, 36.579313 , 110.012334
延安市,延川县,717200,p610000/c610600/x610622,陕西省延安市延川县, 36.878117 , 110.193514
延安市,子长县,717300,p610000/c610600/x610623,陕西省延安市子长县, 37.142668 , 109.675234
延安市,安塞县,717400,p610000/c610600/x610624,陕西省延安市安塞县, 36.863854 , 109.328842
延安市,志丹县,717500,p610000/c610600/x610625,陕西省延安市志丹县, 36.822194 , 108.768432
延安市,吴旗县,717600,p610000/c610600/x610626,陕西省延安市吴旗县, 36.927216 , 108.175933
延安市,黄陵县,727300,p610000/c610600/x610632,陕西省延安市黄陵县, 35.579428 , 109.262961
延安市,洛川县,727400,p610000/c610600/x610629,陕西省延安市洛川县, 35.761975 , 109.432369
延安市,富县,727500,p610000/c610600/x610628,陕西省延安市富县, 36.010545 , 109.382700
日照市,五莲县,262300,p370000/c371100/x371121,山东省日照市五莲县, 35.750084 , 119.208742
日照市,莒县,276500,p370000/c371100/x371122,山东省日照市莒县, 35.652263 , 118.840515
攀枝花市,盐边县,617100,p510000/c510400/x510422,四川省攀枝花市盐边县, 26.683213 , 101.855071
攀枝花市,米易县,617200,p510000/c510400/x510421,四川省攀枝花市米易县, 26.890689 , 102.110339
滁州市,风阳县,233100,p340000/c341100/x341126,安徽省滁州市风阳县, 32.874735 , 117.531623
滁州市,定远县,233200,p340000/c341100/x341125,安徽省滁州市定远县, 32.530982 , 117.698563
滁州市,来安县,239200,p340000/c341100/x341122,安徽省滁州市来安县, 32.452172 , 118.435792
滁州市,天长市,239300,p340000/c341100/x341181,安徽省滁州市天长市, 32.667571 , 119.004817
滁州市,明光市,239400,p340000/c341100/x341182,安徽省滁州市明光市, 32.777056 , 117.989199
滁州市,全椒县,239500,p340000/c341100/x341124,安徽省滁州市全椒县, 32.085407 , 118.273090
阿克苏地区,库车县,842000,p650000/c652900/x652923,新疆维吾尔自治区阿克苏地区库车县, 41.717906 , 82.962016
阿克苏地区,新和县,842100,p650000/c652900/x652925,新疆维吾尔自治区阿克苏地区新和县, 41.548118 , 82.609220
阿克苏地区,沙雅县,842200,p650000/c652900/x652924,新疆维吾尔自治区阿克苏地区沙雅县, 41.221667 , 82.781819
阿克苏地区,拜城县,842300,p650000/c652900/x652926,新疆维吾尔自治区阿克苏地区拜城县, 41.796910 , 81.874156
阿克苏地区,阿克苏市,843000,p650000/c652900/x652901,新疆维吾尔自治区阿克苏地区阿克苏市, 41.167548 , 80.263387
阿克苏地区,温宿县,843100,p650000/c652900/x652922,新疆维吾尔自治区阿克苏地区温宿县, 41.276688 , 80.238959
阿克苏地区,阿瓦提县,843200,p650000/c652900/x652928,新疆维吾尔自治区阿克苏地区阿瓦提县, 40.644529 , 80.373137
阿克苏地区,乌什县,843400,p650000/c652900/x652927,新疆维吾尔自治区阿克苏地区乌什县, 41.214652 , 79.224445
阿克苏地区,柯坪县,843600,p650000/c652900/x652929,新疆维吾尔自治区阿克苏地区柯坪县, 40.508340 , 79.047291
景德镇市,乐平市,333300,p360000/c360200/x360281,江西省景德镇市乐平市, 28.966847 , 117.114151
景德镇市,浮梁县,333400,p360000/c360200/x360222,江西省景德镇市浮梁县, 29.351681 , 117.215086
潍坊市,寒亭区,261100,p370000/c370700/x370703,山东省潍坊市寒亭区, 36.775491 , 119.219734
潍坊市,坊子区,261200,p370000/c370700/x370704,山东省潍坊市坊子区, 36.654448 , 119.166485
潍坊市,昌邑市,261300,p370000/c370700/x370786,山东省潍坊市昌邑市, 36.858820 , 119.398525
潍坊市,高密市,261500,p370000/c370700/x370785,山东省潍坊市高密市, 36.382595 , 119.755597
潍坊市,安丘市,262100,p370000/c370700/x370784,山东省潍坊市安丘市, 36.478494 , 119.218978
潍坊市,诸城市,262200,p370000/c370700/x370782,山东省潍坊市诸城市, 35.995654 , 119.410103
潍坊市,昌乐县,262400,p370000/c370700/x370725,山东省潍坊市昌乐县, 36.706945 , 118.829914
潍坊市,青州市,262500,p370000/c370700/x370781,山东省潍坊市青州市, 36.771315 , 118.503797
潍坊市,临朐县,262600,p370000/c370700/x370724,山东省潍坊市临朐县, 36.512506 , 118.542982
潍坊市,寿光市,262700,p370000/c370700/x370783,山东省潍坊市寿光市, 36.855480 , 118.790652
克孜勒苏州,阿合奇县,843500,p650000/c653000/x653023,新疆维吾尔自治区克孜勒苏州阿合奇县, 40.936936 , 78.446253
克孜勒苏州,阿图什市,845300,p650000/c653000/x653001,新疆维吾尔自治区克孜勒苏州阿图什市, 39.719946 , 76.222698
克孜勒苏州,乌恰县,845400,p650000/c653000/x653024,新疆维吾尔自治区克孜勒苏州乌恰县, 39.719310 , 75.259228
克孜勒苏州,阿克陶县,845550,p650000/c653000/x653022,新疆维吾尔自治区克孜勒苏州阿克陶县, 39.147785 , 75.947396
佳木斯市,桦川县,154300,p230000/c230800/x230826,黑龙江省佳木斯市桦川县, 47.023001 , 130.719081
佳木斯市,桦南县,154400,p230000/c230800/x230822,黑龙江省佳木斯市桦南县, 46.239185 , 130.553343
佳木斯市,汤原县,154700,p230000/c230800/x230828,黑龙江省佳木斯市汤原县, 46.730706 , 129.905072
佳木斯市,富锦市,156100,p230000/c230800/x230882,黑龙江省佳木斯市富锦市, 47.250108 , 132.037686
佳木斯市,同江市,156400,p230000/c230800/x230881,黑龙江省佳木斯市同江市, 47.642707 , 132.510919
佳木斯市,抚远县,156500,p230000/c230800/x230833,黑龙江省佳木斯市抚远县, 48.364687 , 134.307884
湘西州,吉首市,416000,p430000/c433100/x433101,湖南省湘西州吉首市, 28.262507 , 109.698055
湘西州,泸溪县,416100,p430000/c433100/x433122,湖南省湘西州泸溪县, 28.216641 , 110.219610
湘西州,凤凰县,416200,p430000/c433100/x433123,湖南省湘西州凤凰县, 27.948014 , 109.598722
湘西州,古丈县,416300,p430000/c433100/x433126,湖南省湘西州古丈县, 28.616935 , 109.950728
湘西州,花垣县,416400,p430000/c433100/x433124,湖南省湘西州花垣县, 28.572030 , 109.482078
湘西州,保靖县,416500,p430000/c433100/x433125,湖南省湘西州保靖县, 28.699878 , 109.660560
湘西州,永顺县,416700,p430000/c433100/x433127,湖南省湘西州永顺县, 29.001440 , 109.851254
湘西州,龙山县,416800,p430000/c433100/x433130,湖南省湘西州龙山县, 29.457663 , 109.443939
达州市,达县,635000,p510000/c511700/x511721,四川省达州市达县, 31.212460 , 107.488595
达州市,大竹县,635100,p510000/c511700/x511724,四川省达州市大竹县, 30.736266 , 107.204744
达州市,渠县,635200,p510000/c511700/x511725,四川省达州市渠县, 30.803249 , 107.012211
达州市,宣汉县,636150,p510000/c511700/x511722,四川省达州市宣汉县, 31.353835 , 107.727191
达州市,开江县,636250,p510000/c511700/x511723,四川省达州市开江县, 31.082987 , 107.868736
达州市,万源市,636350,p510000/c511700/x511781,四川省达州市万源市, 32.081631 , 108.034657
宜宾市,南溪县,644100,p510000/c511500/x511522,四川省宜宾市南溪县, 28.838756 , 104.986003
宜宾市,江安县,644200,p510000/c511500/x511523,四川省宜宾市江安县, 28.723999 , 105.066943
宜宾市,长宁县,644300,p510000/c511500/x511524,四川省宜宾市长宁县, 28.582169 , 104.921174
宜宾市,兴文县,644400,p510000/c511500/x511528,四川省宜宾市兴文县, 28.303614 , 105.236325
宜宾市,珙县,644500,p510000/c511500/x511526,四川省宜宾市珙县, 28.438630 , 104.709202
宜宾市,宜宾县,644600,p510000/c511500/x511521,四川省宜宾市宜宾县, 28.690045 , 104.533213
宜宾市,高县,645150,p510000/c511500/x511525,四川省宜宾市高县, 28.436226 , 104.517739
宜宾市,筠连县,645250,p510000/c511500/x511527,四川省宜宾市筠连县, 28.163860 , 104.510988
宜宾市,屏山县,645350,p510000/c511500/x511529,四川省宜宾市屏山县, 28.828482 , 104.345974
许昌市,许昌县,461100,p410000/c411000/x411023,河南省许昌市许昌县, 34.124660 , 113.822983
许昌市,鄢陵县,461200,p410000/c411000/x411024,河南省许昌市鄢陵县, 34.102332 , 114.177400
许昌市,长葛市,461500,p410000/c411000/x411082,河南省许昌市长葛市, 34.216688 , 113.768330
许昌市,禹州市,461600,p410000/c411000/x411081,河南省许昌市禹州市, 34.140701 , 113.488478
许昌市,襄城县,461700,p410000/c411000/x411025,河南省许昌市襄城县, 33.846369 , 113.482453
周口市,扶沟县,461300,p410000/c411600/x411621,河南省周口市扶沟县, 34.059862 , 114.394915
周口市,太康县,461400,p410000/c411600/x411627,河南省周口市太康县, 34.063798 , 114.837887
周口市,商水县,466100,p410000/c411600/x411623,河南省周口市商水县, 33.542480 , 114.611596
周口市,项城市,466200,p410000/c411600/x411681,河南省周口市项城市, 33.465838 , 114.875333
周口市,沈丘县,466300,p410000/c411600/x411624,河南省周口市沈丘县, 33.409369 , 115.098583
周口市,西华县,466600,p410000/c411600/x411622,河南省周口市西华县, 33.767408 , 114.529756
周口市,淮阳县,466700,p410000/c411600/x411626,河南省周口市淮阳县, 33.731561 , 114.886154
周口市,郸城县,477150,p410000/c411600/x411625,河南省周口市郸城县, 33.644743 , 115.177189
周口市,鹿邑县,477250,p410000/c411600/x411628,河南省周口市鹿邑县, 33.860000 , 115.484454
塔城地区,沙湾县,832100,p650000/c654200/x654223,新疆维吾尔自治区塔城地区沙湾县, 44.321983 , 85.609197
塔城地区,乌苏市,833000,p650000/c654200/x654202,新疆维吾尔自治区塔城地区乌苏市, 44.435508 , 84.678549
塔城地区,和布克赛尔蒙古自治县,834400,p650000/c654200/x654226,新疆维吾尔自治区塔城地区和布克赛尔蒙古自治县, 46.793235 , 85.728328
塔城地区,托里县,834500,p650000/c654200/x654224,新疆维吾尔自治区塔城地区托里县, 45.947638 , 83.606951
塔城地区,额敏县,834600,p650000/c654200/x654221,新疆维吾尔自治区塔城地区额敏县, 46.524673 , 83.628303
塔城地区,塔城市,834700,p650000/c654200/x654201,新疆维吾尔自治区塔城地区塔城市, 46.748523 , 82.978928
塔城地区,裕民县,834800,p650000/c654200/x654225,新疆维吾尔自治区塔城地区裕民县, 46.201104 , 82.982668
和田地区,皮山县,845100,p650000/c653200/x653223,新疆维吾尔自治区和田地区皮山县, 37.621450 , 78.283669
和田地区,和田市,848000,p650000/c653200/x653201,新疆维吾尔自治区和田地区和田市, 37.112148 , 79.913534
和田地区,墨玉县,848100,p650000/c653200/x653222,新疆维吾尔自治区和田地区墨玉县, 37.277294 , 79.728812
和田地区,洛普县,848200,p650000/c653200/x653224,新疆维吾尔自治区和田地区洛普县, 37.073667 , 80.188986
和田地区,策勒县,848300,p650000/c653200/x653225,新疆维吾尔自治区和田地区策勒县, 36.998335 , 80.806159
和田地区,于田县,848400,p650000/c653200/x653226,新疆维吾尔自治区和田地区于田县, 36.857081 , 81.677418
和田地区,民丰县,848500,p650000/c653200/x653227,新疆维吾尔自治区和田地区民丰县, 37.064080 , 82.695862
临沂市,平邑县,273300,p370000/c371300/x371326,山东省临沂市平邑县, 35.505943 , 117.640352
临沂市,费县,273400,p370000/c371300/x371325,山东省临沂市费县, 35.278287 , 117.979969
临沂市,郯城县,276100,p370000/c371300/x371322,山东省临沂市郯城县, 34.613557 , 118.367263
临沂市,蒙阴县,276200,p370000/c371300/x371328,山东省临沂市蒙阴县, 35.710032 , 117.945085
临沂市,沂南县,276300,p370000/c371300/x371321,山东省临沂市沂南县, 35.549976 , 118.465213
临沂市,莒南县,276600,p370000/c371300/x371327,山东省临沂市莒南县, 35.174846 , 118.835163
临沂市,临沭县,276700,p370000/c371300/x371329,山东省临沂市临沭县, 34.919852 , 118.650782
临沂市,苍山县,277700,p370000/c371300/x371324,山东省临沂市苍山县, 34.897928 , 118.118973
新乡市,卫辉市,453100,p410000/c410700/x410781,河南省新乡市卫辉市, 35.398494 , 114.064907
新乡市,延津县,453200,p410000/c410700/x410726,河南省新乡市延津县, 35.141956 , 114.205197
新乡市,封丘县,453300,p410000/c410700/x410727,河南省新乡市封丘县, 35.041198 , 114.418882
新乡市,长垣县,453400,p410000/c410700/x410728,河南省新乡市长垣县, 35.201548 , 114.668936
新乡市,原阳县,453500,p410000/c410700/x410725,河南省新乡市原阳县, 35.052761 , 113.967907
新乡市,辉县市,453600,p410000/c410700/x410782,河南省新乡市辉县市, 35.462140 , 113.805359
新乡市,新乡县,453700,p410000/c410700/x410721,河南省新乡市新乡县, 35.306320 , 113.858873
新乡市,获嘉县,453800,p410000/c410700/x410724,河南省新乡市获嘉县, 35.259665 , 113.640002
吐鲁番地区,吐鲁番市,838000,p650000/c652100/x652101,新疆维吾尔自治区吐鲁番地区吐鲁番市, 42.942328 , 89.185877
吐鲁番地区,托克逊县,838100,p650000/c652100/x652123,新疆维吾尔自治区吐鲁番地区托克逊县, 42.792519 , 88.653779
吐鲁番地区,鄯善县,838200,p650000/c652100/x652122,新疆维吾尔自治区吐鲁番地区鄯善县, 42.868744 , 90.213330
白山市,长白县,134400,p220000/c220600/x220623,吉林省白山市长白县, 41.420018 , 128.200789
白山市,抚松县,134500,p220000/c220600/x220621,吉林省白山市抚松县, 42.221208 , 127.449764
白山市,临江市,134600,p220000/c220600/x220681,吉林省白山市临江市, 41.811979 , 126.918087
白山市,江源县,134700,p220000/c220600/x220625,吉林省白山市江源县, 42.086618 , 126.599983
白山市,靖宇县,135200,p220000/c220600/x220622,吉林省白山市靖宇县, 42.388760 , 126.813625
保山市,昌宁县,678100,p530000/c530500/x530524,云南省保山市昌宁县, 24.827839 , 99.605142
保山市,施甸县,678200,p530000/c530500/x530521,云南省保山市施甸县, 24.723064 , 99.189221
保山市,龙陵县,678300,p530000/c530500/x530523,云南省保山市龙陵县, 24.586766 , 98.689230
保山市,腾冲县,679100,p530000/c530500/x530522,云南省保山市腾冲县, 25.020439 , 98.490967
可可托海,富蕴县,836100,p650000/c654300/x654322,新疆维吾尔自治区可可托海富蕴县, 47.211020 , 89.803616
可可托海,青河县,836200,p650000/c654300/x654325,新疆维吾尔自治区可可托海青河县, 47.211020 , 89.803616
可可托海,福海县,836400,p650000/c654300/x654323,新疆维吾尔自治区可可托海福海县, 47.211020 , 89.803616
可可托海,阿勒泰市,836500,p650000/c654300/x654301,新疆维吾尔自治区可可托海阿勒泰市, 47.211020 , 89.803616
可可托海,布尔津县,836600,p650000/c654300/x654321,新疆维吾尔自治区可可托海布尔津县, 47.211020 , 89.803616
可可托海,哈巴河县,836700,p650000/c654300/x654324,新疆维吾尔自治区可可托海哈巴河县, 47.211020 , 89.803616
可可托海,吉木乃县,836800,p650000/c654300/x654326,新疆维吾尔自治区可可托海吉木乃县, 47.211020 , 89.803616
黄冈市,蕲春县,435300,p420000/c421100/x421126,湖北省黄冈市蕲春县, 30.225964 , 115.437008
黄冈市,武穴市,435400,p420000/c421100/x421182,湖北省黄冈市武穴市, 29.844107 , 115.561217
黄冈市,黄梅县,435500,p420000/c421100/x421127,湖北省黄冈市黄梅县, 30.070454 , 115.944219
黄冈市,浠水县,438200,p420000/c421100/x421125,湖北省黄冈市浠水县, 30.451867 , 115.265535
黄冈市,红安县,438400,p420000/c421100/x421122,湖北省黄冈市红安县, 31.288153 , 114.618236
黄冈市,罗田县,438600,p420000/c421100/x421123,湖北省黄冈市罗田县, 30.783121 , 115.399221
黄冈市,英山县,438700,p420000/c421100/x421124,湖北省黄冈市英山县, 30.734959 , 115.681259
黄冈市,团风县,438800,p420000/c421100/x421121,湖北省黄冈市团风县, 30.643569 , 114.872191
黄冈市,麻城市,448300,p420000/c421100/x421181,湖北省黄冈市麻城市, 31.172740 , 115.008163
昭通市,巧家县,654600,p530000/c530600/x530622,云南省昭通市巧家县, 26.908461 , 102.930164
昭通市,鲁甸县,657100,p530000/c530600/x530621,云南省昭通市鲁甸县, 27.186659 , 103.558042
昭通市,镇雄县,657200,p530000/c530600/x530627,云南省昭通市镇雄县, 27.441636 , 104.873648
昭通市,永善县,657300,p530000/c530600/x530625,云南省昭通市永善县, 28.229113 , 103.638067
昭通市,大关县,657400,p530000/c530600/x530624,云南省昭通市大关县, 27.747978 , 103.891146
昭通市,盐津县,657500,p530000/c530600/x530623,云南省昭通市盐津县, 28.108710 , 104.234442
昭通市,彝良县,657600,p530000/c530600/x530628,云南省昭通市彝良县, 27.625419 , 104.048289
昭通市,绥江县,657700,p530000/c530600/x530626,云南省昭通市绥江县, 28.592100 , 103.968978
昭通市,水富县,657800,p530000/c530600/x530630,云南省昭通市水富县, 28.629880 , 104.416031
昭通市,威信县,657900,p530000/c530600/x530629,云南省昭通市威信县, 27.846901 , 105.049027
巴音郭楞州,库尔勒市,841000,p650000/c652800/x652801,新疆维吾尔自治区巴音郭楞州库尔勒市, 41.725891 , 86.174633
巴音郭楞州,焉耆回族自治县,841100,p650000/c652800/x652826,新疆维吾尔自治区巴音郭楞州焉耆回族自治县, 42.059759 , 86.574067
巴音郭楞州,和硕县,841200,p650000/c652800/x652828,新疆维吾尔自治区巴音郭楞州和硕县, 42.268371 , 86.863963
巴音郭楞州,和静县,841300,p650000/c652800/x652827,新疆维吾尔自治区巴音郭楞州和静县, 42.323625 , 86.384065
巴音郭楞州,博湖县,841400,p650000/c652800/x652829,新疆维吾尔自治区巴音郭楞州博湖县, 41.980152 , 86.631998
巴音郭楞州,尉犁县,841500,p650000/c652800/x652823,新疆维吾尔自治区巴音郭楞州尉犁县, 41.343934 , 86.261321
巴音郭楞州,轮台县,841600,p650000/c652800/x652822,新疆维吾尔自治区巴音郭楞州轮台县, 41.777702 , 84.252156
巴音郭楞州,若羌县,841800,p650000/c652800/x652824,新疆维吾尔自治区巴音郭楞州若羌县, 39.023242 , 88.167152
巴音郭楞州,且末县,841900,p650000/c652800/x652825,新疆维吾尔自治区巴音郭楞州且末县, 38.145486 , 85.529702
奎依巴格,巴楚县,843800,p650000/c653100/x653130,新疆维吾尔自治区奎依巴格巴楚县, 38.083472 , 77.158712
奎依巴格,喀什市,844000,p650000/c653100/x653101,新疆维吾尔自治区奎依巴格喀什市, 38.083472 , 77.158712
奎依巴格,疏附县,844100,p650000/c653100/x653121,新疆维吾尔自治区奎依巴格疏附县, 38.083472 , 77.158712
奎依巴格,疏勒县,844200,p650000/c653100/x653122,新疆维吾尔自治区奎依巴格疏勒县, 38.083472 , 77.158712
奎依巴格,伽师县,844300,p650000/c653100/x653129,新疆维吾尔自治区奎依巴格伽师县, 38.083472 , 77.158712
奎依巴格,岳普湖县,844400,p650000/c653100/x653128,新疆维吾尔自治区奎依巴格岳普湖县, 38.083472 , 77.158712
奎依巴格,英吉沙县,844500,p650000/c653100/x653123,新疆维吾尔自治区奎依巴格英吉沙县, 38.083472 , 77.158712
奎依巴格,麦盖提县,844600,p650000/c653100/x653127,新疆维吾尔自治区奎依巴格麦盖提县, 38.083472 , 77.158712
奎依巴格,莎车县,844700,p650000/c653100/x653125,新疆维吾尔自治区奎依巴格莎车县, 38.099192 , 77.167588
奎依巴格,泽普县,844800,p650000/c653100/x653124,新疆维吾尔自治区奎依巴格泽普县, 38.083472 , 77.158712
奎依巴格,叶城县,844900,p650000/c653100/x653126,新疆维吾尔自治区奎依巴格叶城县, 38.099192 , 77.167588
大河沿,吐鲁番市,838000,p650000/c652100/x652101,新疆维吾尔自治区大河沿吐鲁番市, 43.153338 , 88.876117
大河沿,托克逊县,838100,p650000/c652100/x652123,新疆维吾尔自治区大河沿托克逊县, 42.977839 , 89.001181
大河沿,鄯善县,838200,p650000/c652100/x652122,新疆维吾尔自治区大河沿鄯善县, 43.793026 , 87.627704
银川市,永宁县,750100,p640000/c640100/x640121,宁夏回族自治区银川市永宁县, 38.277373 , 106.253145
银川市,贺兰县,750200,p640000/c640100/x640122,宁夏回族自治区银川市贺兰县, 38.554344 , 106.349828
银川市,灵武市,750400,p640000/c640100/x640181,宁夏回族自治区银川市灵武市, 38.102655 , 106.340054
鹤壁市,浚县,456200,p410000/c410600/x410621,河南省鹤壁市浚县, 35.676240 , 114.550813
鹤壁市,淇县,456750,p410000/c410600/x410622,河南省鹤壁市淇县, 35.607762 , 114.197651
贵港市,桂平市,537200,p450000/c450800/x450881,广西壮族自治区贵港市桂平市, 23.394326 , 110.079379
贵港市,平南县,537300,p450000/c450800/x450821,广西壮族自治区贵港市平南县, 23.539137 , 110.392149
阿拉善盟,额济纳旗,735400,p150000/c152900/x152923,内蒙古自治区阿拉善盟额济纳旗, 41.958542 , 101.068934
阿拉善盟,阿拉善右旗,737300,p150000/c152900/x152922,内蒙古自治区阿拉善盟阿拉善右旗, 39.216186 , 101.666917
阿拉善盟,阿拉善左旗,750300,p150000/c152900/x152921,内蒙古自治区阿拉善盟阿拉善左旗, 38.833411 , 105.666293
榆林市,绥德县,718000,p610000/c610800/x610826,陕西省榆林市绥德县, 37.502940 , 110.263362
榆林市,米脂县,718100,p610000/c610800/x610827,陕西省榆林市米脂县, 37.755417 , 110.183754
榆林市,吴堡县,718200,p610000/c610800/x610829,陕西省榆林市吴堡县, 37.452068 , 110.739673
榆林市,清涧县,718300,p610000/c610800/x610830,陕西省榆林市清涧县, 37.167140 , 109.998345
榆林市,子洲县,718400,p610000/c610800/x610831,陕西省榆林市子洲县, 37.610683 , 110.035250
榆林市,靖边县,718500,p610000/c610800/x610824,陕西省榆林市靖边县, 37.599438 , 108.793988
榆林市,定边县,718600,p610000/c610800/x610825,陕西省榆林市定边县, 37.594612 , 107.601267
榆林市,横山县,719100,p610000/c610800/x610823,陕西省榆林市横山县, 37.962209 , 109.294346
榆林市,佳县,719200,p610000/c610800/x610828,陕西省榆林市佳县, 38.019511 , 110.491345
榆林市,神木县,719300,p610000/c610800/x610821,陕西省榆林市神木县, 38.842498 , 110.498868
榆林市,府谷县,719400,p610000/c610800/x610822,陕西省榆林市府谷县, 39.028116 , 111.067276
朝阳市,北票市,122100,p210000/c211300/x211381,辽宁省朝阳市北票市, 41.800684 , 120.770730
朝阳市,喀喇沁左翼县,122300,p210000/c211300/x211324,辽宁省朝阳市喀喇沁左翼县, 41.128150 , 119.741223
朝阳市,建平县,122400,p210000/c211300/x211322,辽宁省朝阳市建平县, 41.403128 , 119.643280
朝阳市,凌源市,122500,p210000/c211300/x211382,辽宁省朝阳市凌源市, 41.245445 , 119.401574
朝阳市,朝阳县,122600,p210000/c211300/x211321,辽宁省朝阳市朝阳县, 41.526342 , 120.404217
内江市,东兴区,641100,p510000/c511000/x511011,四川省内江市东兴区, 29.592756 , 105.075490
内江市,资中县,641200,p510000/c511000/x511025,四川省内江市资中县, 29.764059 , 104.851944
内江市,隆昌县,642150,p510000/c511000/x511028,四川省内江市隆昌县, 29.339476 , 105.287612
内江市,威远县,642450,p510000/c511000/x511024,四川省内江市威远县, 29.527440 , 104.668879
昌吉州,昌吉市,831100,p650000/c652300/x652301,新疆维吾尔自治区昌吉州昌吉市, 44.012677 , 87.302493
昌吉州,呼图壁县,831200,p650000/c652300/x652323,新疆维吾尔自治区昌吉州呼图壁县, 44.191428 , 86.898902
昌吉州,米泉市,831400,p650000/c652300/x652303,新疆维吾尔自治区昌吉州米泉市, 43.997186 , 87.307746
昌吉州,阜康市,831500,p650000/c652300/x652302,新疆维吾尔自治区昌吉州阜康市, 44.157025 , 87.987291
昌吉州,吉木萨尔县,831700,p650000/c652300/x652327,新疆维吾尔自治区昌吉州吉木萨尔县, 44.000497 , 89.180437
昌吉州,奇台县,831800,p650000/c652300/x652325,新疆维吾尔自治区昌吉州奇台县, 44.022066 , 89.593967
昌吉州,木垒哈萨克自治县,831900,p650000/c652300/x652328,新疆维吾尔自治区昌吉州木垒哈萨克自治县, 43.834689 , 90.286028
昌吉州,玛纳斯县,832200,p650000/c652300/x652324,新疆维吾尔自治区昌吉州玛纳斯县, 44.303893 , 86.213997
阿勒泰地区,富蕴县,836100,p650000/c654300/x654322,新疆维吾尔自治区阿勒泰地区富蕴县, 46.994115 , 89.525504
阿勒泰地区,青河县,836200,p650000/c654300/x654325,新疆维吾尔自治区阿勒泰地区青河县, 46.674205 , 90.382961
阿勒泰地区,福海县,836400,p650000/c654300/x654323,新疆维吾尔自治区阿勒泰地区福海县, 47.111919 , 87.486703
阿勒泰地区,阿勒泰市,836500,p650000/c654300/x654301,新疆维吾尔自治区阿勒泰地区阿勒泰市, 47.827309 , 88.131842
阿勒泰地区,布尔津县,836600,p650000/c654300/x654321,新疆维吾尔自治区阿勒泰地区布尔津县, 47.701850 , 86.874897
阿勒泰地区,哈巴河县,836700,p650000/c654300/x654324,新疆维吾尔自治区阿勒泰地区哈巴河县, 48.060846 , 86.418621
阿勒泰地区,吉木乃县,836800,p650000/c654300/x654326,新疆维吾尔自治区阿勒泰地区吉木乃县, 47.443101 , 85.874096
喀什地区,巴楚县,843800,p650000/c653100/x653130,新疆维吾尔自治区喀什地区巴楚县, 39.785155 , 78.549297
喀什地区,喀什市,844000,p650000/c653100/x653101,新疆维吾尔自治区喀什地区喀什市, 39.467686 , 75.993790
喀什地区,疏附县,844100,p650000/c653100/x653121,新疆维吾尔自治区喀什地区疏附县, 39.375044 , 75.862814
喀什地区,疏勒县,844200,p650000/c653100/x653122,新疆维吾尔自治区喀什地区疏勒县, 39.401385 , 76.048139
喀什地区,伽师县,844300,p650000/c653100/x653129,新疆维吾尔自治区喀什地区伽师县, 39.488182 , 76.723720
喀什地区,岳普湖县,844400,p650000/c653100/x653128,新疆维吾尔自治区喀什地区岳普湖县, 39.224200 , 76.773163
喀什地区,英吉沙县,844500,p650000/c653100/x653123,新疆维吾尔自治区喀什地区英吉沙县, 38.930382 , 76.175729
喀什地区,麦盖提县,844600,p650000/c653100/x653127,新疆维吾尔自治区喀什地区麦盖提县, 38.904957 , 77.652687
喀什地区,莎车县,844700,p650000/c653100/x653125,新疆维吾尔自治区喀什地区莎车县, 38.414217 , 77.245761
喀什地区,泽普县,844800,p650000/c653100/x653124,新疆维吾尔自治区喀什地区泽普县, 38.191677 , 77.270828
喀什地区,叶城县,844900,p650000/c653100/x653126,新疆维吾尔自治区喀什地区叶城县, 37.882989 , 77.413836
营口市,大石桥市,115100,p210000/c210800/x210882,辽宁省营口市大石桥市, 40.644622 , 122.509131
营口市,盖州市,115200,p210000/c210800/x210881,辽宁省营口市盖州市, 40.400611 , 122.348936
抚顺市,抚顺县,113100,p210000/c210400/x210421,辽宁省抚顺市抚顺县, 41.922644 , 124.097979
抚顺市,新宾县,113200,p210000/c210400/x210422,辽宁省抚顺市新宾县, 41.734256 , 125.039978
抚顺市,清原县,113300,p210000/c210400/x210423,辽宁省抚顺市清原县, 42.100539 , 124.924083
崇左市,扶绥县,532100,p450000/c451400/x451421,广西壮族自治区崇左市扶绥县, 22.635013 , 107.904187
崇左市,大新县,532300,p450000/c451400/x451424,广西壮族自治区崇左市大新县, 22.829288 , 107.200654
崇左市,龙州县,532400,p450000/c451400/x451423,广西壮族自治区崇左市龙州县, 22.342771 , 106.854376
崇左市,宁明县,532500,p450000/c451400/x451422,广西壮族自治区崇左市宁明县, 22.140192 , 107.076457
崇左市,凭祥市,532600,p450000/c451400/x451481,广西壮族自治区崇左市凭祥市, 22.094485 , 106.766293
崇左市,天等县,532800,p450000/c451400/x451425,广西壮族自治区崇左市天等县, 23.081394 , 107.143433
云浮市,郁南县,527100,p440000/c445300/x445322,广东省云浮市郁南县, 23.234627 , 111.535249
云浮市,罗定市,527200,p440000/c445300/x445381,广东省云浮市罗定市, 22.768595 , 111.570011
云浮市,新兴县,527400,p440000/c445300/x445321,广东省云浮市新兴县, 22.695690 , 112.225335
云浮市,云安县,527500,p440000/c445300/x445323,广东省云浮市云安县, 23.071020 , 112.003209
惠州市,博罗县,516100,p440000/c441300/x441322,广东省惠州市博罗县, 23.172899 , 114.289496
惠州市,惠阳区,516200,p440000/c441300/x441303,广东省惠州市惠阳区, 22.788734 , 114.456696
惠州市,惠东县,516300,p440000/c441300/x441323,广东省惠州市惠东县, 22.984975 , 114.720079
惠州市,龙门县,516800,p440000/c441300/x441324,广东省惠州市龙门县, 23.727737 , 114.254863
淄博市,淄川区,255100,p370000/c370300/x370302,山东省淄博市淄川区, 36.643452 , 117.966723
淄博市,博山区,255200,p370000/c370300/x370304,山东省淄博市博山区, 36.494715 , 117.861657
淄博市,周村区,255300,p370000/c370300/x370306,山东省淄博市周村区, 36.803072 , 117.869886
淄博市,临淄区,255400,p370000/c370300/x370305,山东省淄博市临淄区, 36.826981 , 118.309118
淄博市,沂源县,256100,p370000/c370300/x370323,山东省淄博市沂源县, 36.185038 , 118.170856
淄博市,高青县,256300,p370000/c370300/x370322,山东省淄博市高青县, 37.171063 , 117.826916
淄博市,桓台县,256400,p370000/c370300/x370321,山东省淄博市桓台县, 36.959804 , 118.097923
淮南市,风台县,232100,p340000/c340400/x340421,安徽省淮南市风台县, 32.709445 , 116.711051
鞍山市,台安县,114100,p210000/c210300/x210321,辽宁省鞍山市台安县, 41.412768 , 122.436196
鞍山市,海城市,114200,p210000/c210300/x210381,辽宁省鞍山市海城市, 40.882377 , 122.685217
鞍山市,岫岩县,114300,p210000/c210300/x210323,辽宁省鞍山市岫岩县, 40.290880 , 123.280935
防城港市,上思县,535500,p450000/c450600/x450621,广西壮族自治区防城港市上思县, 22.153672 , 107.983626
防城港市,东兴市,538100,p450000/c450600/x450681,广西壮族自治区防城港市东兴市, 21.547822 , 107.971826
沈阳市,辽中县,110200,p210000/c210100/x210122,辽宁省沈阳市辽中县, 41.516827 , 122.765409
沈阳市,新民市,110300,p210000/c210100/x210181,辽宁省沈阳市新民市, 41.996508 , 122.828868
沈阳市,法库县,110400,p210000/c210100/x210124,辽宁省沈阳市法库县, 42.503973 , 123.408679
沈阳市,康平县,110500,p210000/c210100/x210123,辽宁省沈阳市康平县, 42.740903 , 123.355681
河池市,宜州市,546300,p450000/c451200/x451281,广西壮族自治区河池市宜州市, 24.485214 , 108.636415
河池市,南丹县,547200,p450000/c451200/x451221,广西壮族自治区河池市南丹县, 24.975631 , 107.541245
河池市,天峨县,547300,p450000/c451200/x451222,广西壮族自治区河池市天峨县, 24.999108 , 107.173802
河池市,东兰县,547400,p450000/c451200/x451224,广西壮族自治区河池市东兰县, 24.510842 , 107.374294
河池市,凤山县,547600,p450000/c451200/x451223,广西壮族自治区河池市凤山县, 24.546876 , 107.042191
文山州,文山县,663000,p530000/c532600/x532621,云南省文山州文山县, 23.386306 , 104.232510
文山州,砚山县,663100,p530000/c532600/x532622,云南省文山州砚山县, 23.605740 , 104.337244
文山州,丘北县,663200,p530000/c532600/x532626,云南省文山州丘北县, 24.041919 , 104.195820
文山州,广南县,663300,p530000/c532600/x532627,云南省文山州广南县, 24.045941 , 105.054981
文山州,富宁县,663400,p530000/c532600/x532628,云南省文山州富宁县, 23.625283 , 105.630999
文山州,西畴县,663500,p530000/c532600/x532623,云南省文山州西畴县, 23.437782 , 104.672597
文山州,麻栗坡县,663600,p530000/c532600/x532624,云南省文山州麻栗坡县, 23.125714 , 104.702799
文山州,马关县,663700,p530000/c532600/x532625,云南省文山州马关县, 23.012915 , 104.394158
伊犁州,奎屯市,833200,p650000/c654000/x654003,新疆维吾尔自治区伊犁州奎屯市, 44.426529 , 84.903267
伊犁州,伊宁市,835000,p650000/c654000/x654002,新疆维吾尔自治区伊犁州伊宁市, 43.908558 , 81.277950
伊犁州,伊宁县,835100,p650000/c654000/x654021,新疆维吾尔自治区伊犁州伊宁县, 43.977138 , 81.527454
伊犁州,霍城县,835200,p650000/c654000/x654023,新疆维吾尔自治区伊犁州霍城县, 44.053592 , 80.874181
伊犁州,巩留县,835400,p650000/c654000/x654024,新疆维吾尔自治区伊犁州巩留县, 43.482628 , 82.231718
伊犁州,特克斯县,835500,p650000/c654000/x654027,新疆维吾尔自治区伊犁州特克斯县, 43.217184 , 81.836206
伊犁州,昭苏县,835600,p650000/c654000/x654026,新疆维吾尔自治区伊犁州昭苏县, 43.157293 , 81.130975
伊犁州,尼勒克县,835700,p650000/c654000/x654028,新疆维吾尔自治区伊犁州尼勒克县, 43.800247 , 82.511810
伊犁州,新源县,835800,p650000/c654000/x654025,新疆维吾尔自治区伊犁州新源县, 43.429930 , 83.260770
葫芦岛市,兴城市,125100,p210000/c211400/x211481,辽宁省葫芦岛市兴城市, 40.614763 , 120.728310
葫芦岛市,绥中县,125200,p210000/c211400/x211421,辽宁省葫芦岛市绥中县, 40.325659 , 120.344229
葫芦岛市,建昌县,125300,p210000/c211400/x211422,辽宁省葫芦岛市建昌县, 40.824368 , 119.837124
北海市,合浦县,536100,p450000/c450500/x450521,广西壮族自治区北海市合浦县, 21.660585 , 109.207380
来宾市,象州县,545800,p450000/c451300/x451322,广西壮族自治区来宾市象州县, 23.958528 , 109.683985
来宾市,武宣县,545900,p450000/c451300/x451323,广西壮族自治区来宾市武宣县, 23.594110 , 109.663207
来宾市,忻城县,546200,p450000/c451300/x451321,广西壮族自治区来宾市忻城县, 24.066235 , 108.665666
来宾市,合山市,546500,p450000/c451300/x451381,广西壮族自治区来宾市合山市, 23.806536 , 108.886082
本溪市,本溪县,117100,p210000/c210500/x210521,辽宁省本溪市本溪县, 41.301892 , 124.120436
本溪市,桓仁县,117200,p210000/c210500/x210522,辽宁省本溪市桓仁县, 41.267128 , 125.361007
百色市,平果县,531400,p450000/c451000/x451023,广西壮族自治区百色市平果县, 23.329376 , 107.589810
百色市,田东县,531500,p450000/c451000/x451022,广西壮族自治区百色市田东县, 23.597194 , 107.126081
百色市,凌云县,533100,p450000/c451000/x451027,广西壮族自治区百色市凌云县, 24.347557 , 106.561310
百色市,乐业县,533200,p450000/c451000/x451028,广西壮族自治区百色市乐业县, 24.776827 , 106.556519
百色市,田林县,533300,p450000/c451000/x451029,广西壮族自治区百色市田林县, 24.294488 , 106.228538
百色市,西林县,533500,p450000/c451000/x451030,广西壮族自治区百色市西林县, 24.489686 , 105.093909
百色市,田阳县,533600,p450000/c451000/x451021,广西壮族自治区百色市田阳县, 23.735682 , 106.915418
百色市,德保县,533700,p450000/c451000/x451024,广西壮族自治区百色市德保县, 23.323450 , 106.615374
百色市,靖西县,533800,p450000/c451000/x451025,广西壮族自治区百色市靖西县, 23.134117 , 106.417805
百色市,那坡县,533900,p450000/c451000/x451026,广西壮族自治区百色市那坡县, 23.387441 , 105.832530
东营市,河口区,257200,p370000/c370500/x370503,山东省东营市河口区, 37.886162 , 118.525543
东营市,广饶县,257300,p370000/c370500/x370523,山东省东营市广饶县, 37.053555 , 118.407107
东营市,利津县,257400,p370000/c370500/x370522,山东省东营市利津县, 37.490260 , 118.255273
东营市,垦利县,257500,p370000/c370500/x370521,山东省东营市垦利县, 37.572356 , 118.575409
巴彦淖尔市,乌拉特前旗,014400,p150000/c150800/x150823,内蒙古自治区巴彦淖尔市乌拉特前旗, 40.712430 , 108.650240
巴彦淖尔市,临河区,015000,p150000/c150800/x150802,内蒙古自治区巴彦淖尔市临河区, 40.751187 , 107.363919
巴彦淖尔市,五原县,015100,p150000/c150800/x150821,内蒙古自治区巴彦淖尔市五原县, 41.088422 , 108.267562
巴彦淖尔市,磴口县,015200,p150000/c150800/x150822,内蒙古自治区巴彦淖尔市磴口县, 40.330524 , 107.008248
巴彦淖尔市,乌拉特中旗,015300,p150000/c150800/x150824,内蒙古自治区巴彦淖尔市乌拉特中旗, 41.587732 , 108.513645
巴彦淖尔市,杭锦后旗,015400,p150000/c150800/x150826,内蒙古自治区巴彦淖尔市杭锦后旗, 40.885896 , 107.150909
巴彦淖尔市,乌拉特后旗,015500,p150000/c150800/x150825,内蒙古自治区巴彦淖尔市乌拉特后旗, 41.084283 , 107.074621
南宁市,武鸣县,530100,p450000/c450100/x450122,广西壮族自治区南宁市武鸣县, 23.158693 , 108.274712
南宁市,横县,530300,p450000/c450100/x450127,广西壮族自治区南宁市横县, 22.679932 , 109.261384
南宁市,宾阳县,530400,p450000/c450100/x450126,广西壮族自治区南宁市宾阳县, 23.217787 , 108.810326
南宁市,上林县,530500,p450000/c450100/x450125,广西壮族自治区南宁市上林县, 23.431936 , 108.604921
南宁市,马山县,530600,p450000/c450100/x450124,广西壮族自治区南宁市马山县, 23.708192 , 108.176979
南宁市,隆安县,532700,p450000/c450100/x450123,广西壮族自治区南宁市隆安县, 23.166028 , 107.696153
阜阳市,颖上县,236200,p340000/c341200/x341226,安徽省阜阳市颖上县, 32.653255 , 116.256789
阜阳市,阜南县,236300,p340000/c341200/x341225,安徽省阜阳市阜南县, 32.658297 , 115.595644
阜阳市,临泉县,236400,p340000/c341200/x341221,安徽省阜阳市临泉县, 33.040261 , 115.261473
阜阳市,届首市,236500,p340000/c341200/x341282,安徽省阜阳市届首市, 33.257013 , 115.374564
阜阳市,太和县,236600,p340000/c341200/x341222,安徽省阜阳市太和县, 33.160326 , 115.621934
河源市,连平县,517100,p440000/c441600/x441623,广东省河源市连平县, 24.369588 , 114.488714
河源市,和平县,517200,p440000/c441600/x441624,广东省河源市和平县, 24.442180 , 114.938684
河源市,龙川县,517300,p440000/c441600/x441622,广东省河源市龙川县, 24.100066 , 115.259872
河源市,紫金县,517400,p440000/c441600/x441621,广东省河源市紫金县, 23.638410 , 115.182134
河源市,东源县,517500,p440000/c441600/x441625,广东省河源市东源县, 23.788393 , 114.746380
肇庆市,高要市,526100,p440000/c441200/x441283,广东省肇庆市高要市, 23.025668 , 112.457771
肇庆市,四会市,526200,p440000/c441200/x441284,广东省肇庆市四会市, 23.326504 , 112.733773
肇庆市,广宁县,526300,p440000/c441200/x441223,广东省肇庆市广宁县, 23.634676 , 112.440690
肇庆市,怀集县,526400,p440000/c441200/x441224,广东省肇庆市怀集县, 23.911899 , 112.184652
肇庆市,封开县,526500,p440000/c441200/x441225,广东省肇庆市封开县, 23.424033 , 111.512343
肇庆市,德庆县,526600,p440000/c441200/x441226,广东省肇庆市德庆县, 23.143722 , 111.785937
开封市,开封县,475100,p410000/c410200/x410224,河南省开封市开封县, 34.756921 , 114.441327
开封市,杞县,475200,p410000/c410200/x410221,河南省开封市杞县, 34.549166 , 114.783041
开封市,兰考县,475300,p410000/c410200/x410225,河南省开封市兰考县, 34.822211 , 114.821348
开封市,通许县,475400,p410000/c410200/x410222,河南省开封市通许县, 34.480433 , 114.467467
开封市,尉氏县,475500,p410000/c410200/x410223,河南省开封市尉氏县, 34.411494 , 114.193081
深圳市,福田区,518000,p440000/c440300/x440304,广东省深圳市福田区, 22.521530 , 114.055036
深圳市,罗湖区,518000,p440000/c440300/x440303,广东省深圳市罗湖区, 22.548171 , 114.131772
深圳市,南山区,518000,p440000/c440300/x440305,广东省深圳市南山区, 22.533013 , 113.930476
深圳市,盐田区,518000,p440000/c440300/x440308,广东省深圳市盐田区, 22.556499 , 114.236875
深圳市,龙岗区,518100,p440000/c440300/x440307,广东省深圳市龙岗区, 22.720923 , 114.246822
深圳市,龙岗区,518100,p440000/c440300/x440307,广东省深圳市龙岗区, 22.720923 , 114.246822
深圳市,宝安区,518100,p440000/c440300/x440306,广东省深圳市宝安区, 22.555259 , 113.884020
深圳市,宝安区,518100,p440000/c440300/x440306,广东省深圳市宝安区, 22.555259 , 113.884020
湛江市,徐闻县,524100,p440000/c440800/x440825,广东省湛江市徐闻县, 20.325489 , 110.176750
湛江市,雷州市,524200,p440000/c440800/x440882,广东省湛江市雷州市, 20.919505 , 110.045182
湛江市,遂溪县,524300,p440000/c440800/x440823,广东省湛江市遂溪县, 21.377246 , 110.250123
湛江市,廉江市,524400,p440000/c440800/x440881,广东省湛江市廉江市, 21.609673 , 110.286152
湛江市,吴川市,524500,p440000/c440800/x440883,广东省湛江市吴川市, 21.441808 , 110.778411
黑河市,嫩江县,161400,p230000/c231100/x231121,黑龙江省黑河市嫩江县, 49.185766 , 125.221192
黑河市,北安市,164000,p230000/c231100/x231181,黑龙江省黑河市北安市, 48.239136 , 126.481867
黑河市,五大连池市,164100,p230000/c231100/x231182,黑龙江省黑河市五大连池市, 48.517257 , 126.205516
黑河市,孙吴县,164200,p230000/c231100/x231124,黑龙江省黑河市孙吴县, 49.425652 , 127.336304
黑河市,逊克县,164400,p230000/c231100/x231123,黑龙江省黑河市逊克县, 49.564252 , 128.478750
齐齐哈尔市,龙江县,161100,p230000/c230200/x230221,黑龙江省齐齐哈尔市龙江县, 47.338665 , 123.205323
齐齐哈尔市,富裕县,161200,p230000/c230200/x230227,黑龙江省齐齐哈尔市富裕县, 47.774347 , 124.473793
齐齐哈尔市,讷河市,161300,p230000/c230200/x230281,黑龙江省齐齐哈尔市讷河市, 48.484099 , 124.884244
齐齐哈尔市,依安县,161500,p230000/c230200/x230223,黑龙江省齐齐哈尔市依安县, 47.893548 , 125.306279
齐齐哈尔市,克山县,161600,p230000/c230200/x230229,黑龙江省齐齐哈尔市克山县, 48.037031 , 125.875705
齐齐哈尔市,甘南县,162100,p230000/c230200/x230225,黑龙江省齐齐哈尔市甘南县, 47.922406 , 123.507429
齐齐哈尔市,泰来县,162400,p230000/c230200/x230224,黑龙江省齐齐哈尔市泰来县, 46.393694 , 123.416631
齐齐哈尔市,拜泉县,164700,p230000/c230200/x230231,黑龙江省齐齐哈尔市拜泉县, 47.595851 , 126.100213
齐齐哈尔市,克东县,164800,p230000/c230200/x230230,黑龙江省齐齐哈尔市克东县, 48.042060 , 126.248720
玉龙县,永胜县,674200,p530000/c530700/x530722,云南省玉龙县永胜县, 27.234337 , 100.136245
玉龙县,华坪县,674800,p530000/c530700/x530723,云南省玉龙县华坪县, 27.123777 , 99.585232
汕尾市,海丰县,516400,p440000/c441500/x441521,广东省汕尾市海丰县, 22.966617 , 115.323530
汕尾市,陆丰市,516500,p440000/c441500/x441581,广东省汕尾市陆丰市, 22.917576 , 115.652260
汕尾市,陆河县,516700,p440000/c441500/x441523,广东省汕尾市陆河县, 23.301617 , 115.660143
潮州市,潮安县,515600,p440000/c445100/x445121,广东省潮州市潮安县, 23.639010 , 116.583634
潮州市,饶平县,515700,p440000/c445100/x445122,广东省潮州市饶平县, 23.663824 , 117.003900
西双版纳州,景洪市,666100,p530000/c532800/x532801,云南省西双版纳州景洪市, 22.000143 , 100.771679
西双版纳州,勐海县,666200,p530000/c532800/x532822,云南省西双版纳州勐海县, 21.957354 , 100.452548
西双版纳州,勐腊县,666300,p530000/c532800/x532823,云南省西双版纳州勐腊县, 21.459233 , 101.564636
锦州市,义县,121100,p210000/c210700/x210727,辽宁省锦州市义县, 41.534145 , 121.229440
锦州市,凌海市,121200,p210000/c210700/x210781,辽宁省锦州市凌海市, 41.173400 , 121.357730
锦州市,北宁市,121300,p210000/c210700/x210782,辽宁省锦州市北宁市, 41.141916 , 121.137040
锦州市,黑山县,121400,p210000/c210700/x210726,辽宁省锦州市黑山县, 41.694147 , 122.120901
珠海市,斗门县,519100,p440000/c440400/x440403,广东省珠海市斗门县, 22.183970 , 113.325840
梧州市,苍梧县,543100,p450000/c450400/x450421,广西壮族自治区梧州市苍梧县, 23.845097 , 111.544008
梧州市,岑溪市,543200,p450000/c450400/x450481,广西壮族自治区梧州市岑溪市, 22.918350 , 110.994913
梧州市,藤县,543300,p450000/c450400/x450422,广西壮族自治区梧州市藤县, 23.374984 , 110.914849
梧州市,蒙山县,546700,p450000/c450400/x450423,广西壮族自治区梧州市蒙山县, 24.193570 , 110.525003
盘锦市,盘山县,124100,p210000/c211100/x211122,辽宁省盘锦市盘山县, 41.242873 , 121.996499
盘锦市,大洼县,124200,p210000/c211100/x211121,辽宁省盘锦市大洼县, 41.002279 , 122.082575
广州市,花都区,510800,p440000/c440100/x440114,广东省广州市花都区, 23.404165 , 113.220218
广州市,从化市,510900,p440000/c440100/x440184,广东省广州市从化市, 23.548852 , 113.586605
广州市,增城市,511300,p440000/c440100/x440183,广东省广州市增城市, 23.261141 , 113.810860
广州市,番禺区,511400,p440000/c440100/x440113,广东省广州市番禺区, 22.937244 , 113.384129
呼和浩特市,土默特左旗,010100,p150000/c150100/x150121,内蒙古自治区呼和浩特市土默特左旗, 40.729573 , 111.163902
呼和浩特市,托克托县,010200,p150000/c150100/x150122,内蒙古自治区呼和浩特市托克托县, 40.277431 , 111.194313
呼和浩特市,和林格尔县,011500,p150000/c150100/x150123,内蒙古自治区呼和浩特市和林格尔县, 40.378787 , 111.821843
呼和浩特市,清水河县,011600,p150000/c150100/x150124,内蒙古自治区呼和浩特市清水河县, 39.921095 , 111.647609
呼和浩特市,武川县,011700,p150000/c150100/x150125,内蒙古自治区呼和浩特市武川县, 41.096471 , 111.451303
江门市,新会区,529100,p440000/c440700/x440705,广东省江门市新会区, 22.458300 , 113.034187
江门市,台山市,529200,p440000/c440700/x440781,广东省江门市台山市, 22.251924 , 112.794065
江门市,开平市,529300,p440000/c440700/x440783,广东省江门市开平市, 22.376395 , 112.698545
江门市,恩平市,529400,p440000/c440700/x440785,广东省江门市恩平市, 22.183206 , 112.305145
江门市,鹤山市,529700,p440000/c440700/x440784,广东省江门市鹤山市, 22.765435 , 112.964283
桂林市,临桂县,541100,p450000/c450300/x450322,广西壮族自治区桂林市临桂县, 25.238457 , 110.212476
桂林市,灵川县,541200,p450000/c450300/x450323,广西壮族自治区桂林市灵川县, 25.409747 , 110.325636
桂林市,兴安县,541300,p450000/c450300/x450325,广西壮族自治区桂林市兴安县, 25.611705 , 110.671670
桂林市,资源县,541400,p450000/c450300/x450329,广西壮族自治区桂林市资源县, 26.042443 , 110.652700
桂林市,全州县,541500,p450000/c450300/x450324,广西壮族自治区桂林市全州县, 25.928617 , 111.072926
桂林市,灌阳县,541600,p450000/c450300/x450327,广西壮族自治区桂林市灌阳县, 25.489383 , 111.160851
桂林市,永福县,541800,p450000/c450300/x450326,广西壮族自治区桂林市永福县, 24.979856 , 109.983076
桂林市,阳朔县,541900,p450000/c450300/x450321,广西壮族自治区桂林市阳朔县, 24.778481 , 110.496593
桂林市,平乐县,542400,p450000/c450300/x450330,广西壮族自治区桂林市平乐县, 24.633362 , 110.643305
柳州市,柳江县,545100,p450000/c450200/x450221,广西壮族自治区柳州市柳江县, 24.254598 , 109.326415
柳州市,柳城县,545200,p450000/c450200/x450222,广西壮族自治区柳州市柳城县, 24.651518 , 109.244730
柳州市,融安县,545400,p450000/c450200/x450224,广西壮族自治区柳州市融安县, 25.224340 , 109.398180
柳州市,鹿寨县,545600,p450000/c450200/x450223,广西壮族自治区柳州市鹿寨县, 24.487326 , 109.733126
韶关市,新丰县,511100,p440000/c440200/x440233,广东省韶关市新丰县, 24.059760 , 114.206867
韶关市,曲江县,512100,p440000/c440200/x440205,广东省韶关市曲江县, 24.681399 , 113.603465
韶关市,乐昌市,512200,p440000/c440200/x440281,广东省韶关市乐昌市, 25.130136 , 113.347519
韶关市,仁化县,512300,p440000/c440200/x440224,广东省韶关市仁化县, 25.085621 , 113.749027
韶关市,南雄市,512400,p440000/c440200/x440282,广东省韶关市南雄市, 25.117753 , 114.311982
韶关市,始兴县,512500,p440000/c440200/x440222,广东省韶关市始兴县, 24.952977 , 114.061789
韶关市,翁源县,512600,p440000/c440200/x440229,广东省韶关市翁源县, 24.350347 , 114.130342
韶关市,乳源县,512700,p440000/c440200/x440232,广东省韶关市乳源县, 24.776078 , 113.275883
清远市,佛冈县,511600,p440000/c441800/x441821,广东省清远市佛冈县, 23.879192 , 113.531607
清远市,清新县,511800,p440000/c441800/x441827,广东省清远市清新县, 23.734659 , 113.017748
清远市,英德市,513000,p440000/c441800/x441881,广东省清远市英德市, 24.186062 , 113.415045
清远市,阳山县,513100,p440000/c441800/x441823,广东省清远市阳山县, 24.466675 , 112.626495
清远市,连山县,513200,p440000/c441800/x441825,广东省清远市连山县, 24.567695 , 112.080659
清远市,连南县,513300,p440000/c441800/x441826,广东省清远市连南县, 24.726017 , 112.287012
清远市,连州市,513400,p440000/c441800/x441882,广东省清远市连州市, 24.780966 , 112.377361
辽阳市,辽阳县,111200,p210000/c211000/x211021,辽宁省辽阳市辽阳县, 41.205329 , 123.105695
辽阳市,灯塔市,111300,p210000/c211000/x211081,辽宁省辽阳市灯塔市, 41.426372 , 123.339312
佛山市,三水区,528100,p440000/c440600/x440607,广东省佛山市三水区, 23.156046 , 112.896607
佛山市,南海区,528200,p440000/c440600/x440605,广东省佛山市南海区, 23.028956 , 113.143441
佛山市,顺德区,528300,p440000/c440600/x440606,广东省佛山市顺德区, 22.805240 , 113.293359
佛山市,高明区,528500,p440000/c440600/x440608,广东省佛山市高明区, 22.900182 , 112.892578
汉中市,南郑县,723100,p610000/c610700/x610721,陕西省汉中市南郑县, 32.999334 , 106.936230
汉中市,城固县,723200,p610000/c610700/x610722,陕西省汉中市城固县, 33.157131 , 107.333930
汉中市,洋县,723300,p610000/c610700/x610723,陕西省汉中市洋县, 33.222739 , 107.545837
汉中市,佛坪县,723400,p610000/c610700/x610730,陕西省汉中市佛坪县, 33.524359 , 107.990539
汉中市,西乡县,723500,p610000/c610700/x610724,陕西省汉中市西乡县, 32.983101 , 107.766614
汉中市,镇巴县,723600,p610000/c610700/x610728,陕西省汉中市镇巴县, 32.536704 , 107.895035
汉中市,留坝县,724100,p610000/c610700/x610729,陕西省汉中市留坝县, 33.617571 , 106.920808
汉中市,勉县,724200,p610000/c610700/x610725,陕西省汉中市勉县, 33.170105 , 106.692681
汉中市,略阳县,724300,p610000/c610700/x610727,陕西省汉中市略阳县, 33.327281 , 106.156718
汉中市,宁强县,724400,p610000/c610700/x610726,陕西省汉中市宁强县, 32.829694 , 106.257171
阿坝州,汶川县,623000,p510000/c513200/x513221,四川省阿坝州汶川县, 31.476770 , 103.590246
阿坝州,理县,623100,p510000/c513200/x513222,四川省阿坝州理县, 31.436473 , 103.166853
阿坝州,茂县,623200,p510000/c513200/x513223,四川省阿坝州茂县, 31.681154 , 103.853522
阿坝州,松潘县,623300,p510000/c513200/x513224,四川省阿坝州松潘县, 32.655325 , 103.604698
阿坝州,九寨沟县,623400,p510000/c513200/x513225,四川省阿坝州九寨沟县, 33.252056 , 104.243841
阿坝州,黑水县,623500,p510000/c513200/x513228,四川省阿坝州黑水县, 32.061895 , 102.990108
阿坝州,马尔康县,624000,p510000/c513200/x513229,四川省阿坝州马尔康县, 31.905813 , 102.206504
阿坝州,金川县,624100,p510000/c513200/x513226,四川省阿坝州金川县, 31.476277 , 102.063829
阿坝州,小金县,624200,p510000/c513200/x513227,四川省阿坝州小金县, 30.999031 , 102.364373
阿坝州,壤塘县,624300,p510000/c513200/x513230,四川省阿坝州壤塘县, 32.265796 , 100.978526
阿坝州,红原县,624400,p510000/c513200/x513233,四川省阿坝州红原县, 32.790891 , 102.544405
阿坝州,若尔盖县,624500,p510000/c513200/x513232,四川省阿坝州若尔盖县, 33.575892 , 102.961798
阿坝州,阿坝县,624600,p510000/c513200/x513231,四川省阿坝州阿坝县, 32.902459 , 101.706655
芜湖市,芜湖县,241100,p340000/c340200/x340221,安徽省芜湖市芜湖县, 31.134809 , 118.576124
芜湖市,繁昌县,241200,p340000/c340200/x340222,安徽省芜湖市繁昌县, 31.082940 , 118.199483
芜湖市,南陵县,241300,p340000/c340200/x340223,安徽省芜湖市南陵县, 30.914930 , 118.334260
红河州,弥勒县,652300,p530000/c532500/x532526,云南省红河州弥勒县, 23.598810 , 102.637664
红河州,泸西县,652400,p530000/c532500/x532527,云南省红河州泸西县, 24.532025 , 103.766196
红河州,建水县,654300,p530000/c532500/x532524,云南省红河州建水县, 23.634700 , 102.826557
红河州,红河县,654400,p530000/c532500/x532529,云南省红河州红河县, 23.369161 , 102.420600
红河州,个旧市,661000,p530000/c532500/x532501,云南省红河州个旧市, 23.359121 , 103.160034
红河州,蒙自县,661100,p530000/c532500/x532522,云南省红河州蒙自县, 23.396223 , 103.364818
红河州,屏边苗族自治县,661200,p530000/c532500/x532523,云南省红河州屏边苗族自治县, 22.983560 , 103.687612
红河州,河口瑶族自治县,661300,p530000/c532500/x532532,云南省红河州河口瑶族自治县, 22.529404 , 103.939350
红河州,开远市,661600,p530000/c532500/x532502,云南省红河州开远市, 23.714316 , 103.267143
红河州,石屏县,662200,p530000/c532500/x532525,云南省红河州石屏县, 23.705936 , 102.494984
红河州,元阳县,662400,p530000/c532500/x532528,云南省红河州元阳县, 23.219932 , 102.835223
红河州,绿春县,662500,p530000/c532500/x532531,云南省红河州绿春县, 22.993718 , 102.392463
揭阳市,惠来县,515200,p440000/c445200/x445224,广东省揭阳市惠来县, 23.033267 , 116.295150
揭阳市,普宁市,515300,p440000/c445200/x445281,广东省揭阳市普宁市, 23.297642 , 116.166004
揭阳市,揭西县,515400,p440000/c445200/x445222,广东省揭阳市揭西县, 23.431294 , 115.841838
揭阳市,揭东县,515500,p440000/c445200/x445221,广东省揭阳市揭东县, 23.579598 , 116.428157
阳江市,阳春市,529600,p440000/c441700/x441781,广东省阳江市阳春市, 22.170438 , 111.791539
阳江市,阳西县,529800,p440000/c441700/x441721,广东省阳江市阳西县, 21.752396 , 111.617849
阳江市,阳东县,529900,p440000/c441700/x441723,广东省阳江市阳东县, 21.868358 , 112.006338
哈密地区,哈密市,839000,p650000/c652200/x652201,新疆维吾尔自治区哈密地区哈密市, 42.827255 , 93.514797
哈密地区,巴里坤哈萨克自治县,839200,p650000/c652200/x652222,新疆维吾尔自治区哈密地区巴里坤哈萨克自治县, 43.598763 , 93.016625
哈密地区,伊吾县,839300,p650000/c652200/x652223,新疆维吾尔自治区哈密地区伊吾县, 43.254978 , 94.697074
阜新市,阜新县,123100,p210000/c210900/x210921,辽宁省阜新市阜新县, 42.065175 , 121.757901
阜新市,彰武县,123200,p210000/c210900/x210922,辽宁省阜新市彰武县, 42.386543 , 122.538793
贺州市,钟山县,542600,p450000/c451100/x451122,广西壮族自治区贺州市钟山县, 24.526022 , 111.303111
贺州市,昭平县,546800,p450000/c451100/x451121,广西壮族自治区贺州市昭平县, 24.169480 , 110.811287
大兴安岭,加格达奇市,165000,p230000/c232700/x232710,黑龙江省大兴安岭加格达奇市, 50.420036 , 124.126100
大兴安岭,呼玛县,165100,p230000/c232700/x232721,黑龙江省大兴安岭呼玛县, 51.725637 , 126.665319
大兴安岭,塔河县,165200,p230000/c232700/x232722,黑龙江省大兴安岭塔河县, 52.334457 , 124.709996
大兴安岭,漠河县,165300,p230000/c232700/x232723,黑龙江省大兴安岭漠河县, 52.972272 , 122.538592
丹东市,凤城市,118100,p210000/c210600/x210682,辽宁省丹东市凤城市, 40.452322 , 124.066895
丹东市,宽甸县,118200,p210000/c210600/x210624,辽宁省丹东市宽甸县, 40.731317 , 124.783660
丹东市,东港市,118300,p210000/c210600/x210681,辽宁省丹东市东港市, 39.863008 , 124.152705
浙江省,杭州市,310000,p330000/c330100/x,浙江省杭州市, 30.274085 , 120.155070
浙江省,宁波市,315000,p330000/c330200/x,浙江省宁波市, 29.868336 , 121.543990
浙江省,温州市,325000,p330000/c330300/x,浙江省温州市, 27.994267 , 120.699367
浙江省,嘉兴市,314000,p330000/c330400/x,浙江省嘉兴市, 30.753924 , 120.758543
浙江省,湖州市,313000,p330000/c330500/x,浙江省湖州市, 30.894348 , 120.086823
浙江省,绍兴市,312000,p330000/c330600/x,浙江省绍兴市, 29.995762 , 120.586109
浙江省,金华市,321000,p330000/c330700/x,浙江省金华市, 29.079059 , 119.647445
浙江省,衢州市,324000,p330000/c330800/x,浙江省衢州市, 28.970080 , 118.859457
浙江省,舟山市,316000,p330000/c330900/x,浙江省舟山市, 29.985295 , 122.207216
浙江省,台州市,318000,p330000/c331000/x,浙江省台州市, 28.656386 , 121.420757
浙江省,丽水市,323000,p330000/c331100/x,浙江省丽水市, 28.467630 , 119.922796
梅州市,蕉岭县,514100,p440000/c441400/x441427,广东省梅州市蕉岭县, 24.658700 , 116.171355
梅州市,大埔县,514200,p440000/c441400/x441422,广东省梅州市大埔县, 24.347783 , 116.695196
梅州市,丰顺县,514300,p440000/c441400/x441423,广东省梅州市丰顺县, 23.739526 , 116.182299
梅州市,五华县,514400,p440000/c441400/x441424,广东省梅州市五华县, 23.932409 , 115.775788
梅州市,兴宁市,514500,p440000/c441400/x441481,广东省梅州市兴宁市, 24.136630 , 115.731110
梅州市,平远县,514600,p440000/c441400/x441426,广东省梅州市平远县, 24.567262 , 115.891638
梅州市,梅县,514700,p440000/c441400/x441421,广东省梅州市梅县, 24.265272 , 116.082144
茂名市,化州市,525100,p440000/c440900/x440982,广东省茂名市化州市, 21.664044 , 110.639569
茂名市,高州市,525200,p440000/c440900/x440981,广东省茂名市高州市, 21.917982 , 110.853302
茂名市,信宜市,525300,p440000/c440900/x440983,广东省茂名市信宜市, 22.354385 , 110.947044
茂名市,电白县,525400,p440000/c440900/x440923,广东省茂名市电白县, 21.505663 , 111.011686
大连市,金州区,116100,p210000/c210200/x210213,辽宁省大连市金州区, 39.050460 , 121.782769
大连市,普兰店市,116200,p210000/c210200/x210282,辽宁省大连市普兰店市, 39.394349 , 121.963259
大连市,瓦房店市,116300,p210000/c210200/x210281,辽宁省大连市瓦房店市, 39.627114 , 121.979603
大连市,庄河市,116400,p210000/c210200/x210283,辽宁省大连市庄河市, 39.681237 , 122.967062
大连市,长海县,116500,p210000/c210200/x210224,辽宁省大连市长海县, 39.272728 , 122.588494
渭南市,富平县,711700,p610000/c610500/x610528,陕西省渭南市富平县, 34.751086 , 109.180331
渭南市,华县,714100,p610000/c610500/x610521,陕西省渭南市华县, 34.512711 , 109.772003
渭南市,华阴市,714200,p610000/c610500/x610582,陕西省渭南市华阴市, 34.566096 , 110.092301
渭南市,潼关县,714300,p610000/c610500/x610522,陕西省渭南市潼关县, 34.544296 , 110.246350
渭南市,大荔县,715100,p610000/c610500/x610523,陕西省渭南市大荔县, 34.797184 , 109.941658
渭南市,澄城县,715200,p610000/c610500/x610525,陕西省渭南市澄城县, 35.190245 , 109.932350
渭南市,合阳县,715300,p610000/c610500/x610524,陕西省渭南市合阳县, 35.237592 , 110.149306
渭南市,韩城市,715400,p610000/c610500/x610581,陕西省渭南市韩城市, 35.476788 , 110.442847
渭南市,蒲城县,715500,p610000/c610500/x610526,陕西省渭南市蒲城县, 34.955854 , 109.586506
渭南市,白水县,715600,p610000/c610500/x610527,陕西省渭南市白水县, 35.177452 , 109.590671
铁岭市,开原市,112300,p210000/c211200/x211282,辽宁省铁岭市开原市, 42.546307 , 124.038268
铁岭市,西丰县,112400,p210000/c211200/x211223,辽宁省铁岭市西丰县, 42.738030 , 124.727393
铁岭市,昌图县,112500,p210000/c211200/x211224,辽宁省铁岭市昌图县, 42.785791 , 124.111100
铁岭市,铁岭县,112600,p210000/c211200/x211221,辽宁省铁岭市铁岭县, 42.223383 , 123.729004
铁岭市,调兵山市,112700,p210000/c211200/x211281,辽宁省铁岭市调兵山市, 42.467521 , 123.567117
迪庆州,香格里拉县,674400,p530000/c533400/x533421,云南省迪庆州香格里拉县, 27.829743 , 99.700836
迪庆州,德钦县,674500,p530000/c533400/x533422,云南省迪庆州德钦县, 28.486110 , 98.911542
漯河市,郾城县,462300,p410000/c411100/x411103,河南省漯河市郾城县, 33.584153 , 113.998764
漯河市,舞阳县,462400,p410000/c411100/x411121,河南省漯河市舞阳县, 33.437877 , 113.609287
漯河市,临颖县,462600,p410000/c411100/x411122,河南省漯河市临颖县, 33.827304 , 113.931203
楚雄州,禄丰县,651200,p530000/c532300/x532331,云南省楚雄州禄丰县, 25.150111 , 102.079027
楚雄州,元谋县,651300,p530000/c532300/x532328,云南省楚雄州元谋县, 25.704338 , 101.874520
楚雄州,永仁县,651400,p530000/c532300/x532327,云南省楚雄州永仁县, 26.056351 , 101.669842
楚雄州,武定县,651600,p530000/c532300/x532329,云南省楚雄州武定县, 25.530389 , 102.404338
楚雄州,楚雄市,675000,p530000/c532300/x532301,云南省楚雄州楚雄市, 25.032889 , 101.545906
楚雄州,双柏县,675100,p530000/c532300/x532322,云南省楚雄州双柏县, 24.688875 , 101.641937
楚雄州,南华县,675200,p530000/c532300/x532324,云南省楚雄州南华县, 25.192293 , 101.273577
楚雄州,姚安县,675300,p530000/c532300/x532325,云南省楚雄州姚安县, 25.504173 , 101.241728
楚雄州,大姚县,675400,p530000/c532300/x532326,云南省楚雄州大姚县, 25.722153 , 101.324332
楚雄州,牟定县,675500,p530000/c532300/x532323,云南省楚雄州牟定县, 25.313122 , 101.546566
钦州市,浦北县,535300,p450000/c450700/x450722,广西壮族自治区钦州市浦北县, 22.271651 , 109.556953
钦州市,灵山县,535400,p450000/c450700/x450721,广西壮族自治区钦州市灵山县, 22.416537 , 109.291007
巢湖市,庐江县,231500,p340000/c341400/x341421,安徽省巢湖市庐江县, 31.255550 , 117.287800
巢湖市,含山县,238100,p340000/c341400/x341423,安徽省巢湖市含山县, 31.614931 , 117.891034
巢湖市,和县,238200,p340000/c341400/x341424,安徽省巢湖市和县, 31.715211 , 118.356464
巢湖市,无为县,238300,p340000/c341400/x341422,安徽省巢湖市无为县, 31.614931 , 117.891034
西安市,阎良区,710000,p610000/c610100/x610114,陕西省西安市阎良区, 34.662235 , 109.226102
西安市,高陵县,710200,p610000/c610100/x610126,陕西省西安市高陵县, 34.534835 , 109.088292
西安市,户县,710300,p610000/c610100/x610125,陕西省西安市户县, 34.108608 , 108.605258
西安市,周至县,710400,p610000/c610100/x610124,陕西省西安市周至县, 34.163314 , 108.221973
西安市,蓝田县,710500,p610000/c610100/x610122,陕西省西安市蓝田县, 34.151306 , 109.323408
西安市,临潼区,710600,p610000/c610100/x610115,陕西省西安市临潼区, 34.367287 , 109.214236
汕头市,潮南区,515100,p440000/c440500/x440514,广东省汕头市潮南区, 23.250425 , 116.433017
汕头市,潮阳区,515100,p440000/c440500/x440513,广东省汕头市潮阳区, 23.264936 , 116.601515
汕头市,澄海区,515800,p440000/c440500/x440515,广东省汕头市澄海区, 23.465960 , 116.756092
汕头市,南澳县,515900,p440000/c440500/x440523,广东省汕头市南澳县, 23.421724 , 117.023374
萍乡市,莲花县,337100,p360000/c360300/x360321,江西省萍乡市莲花县, 27.127669 , 113.961465
萍乡市,芦溪县,337200,p360000/c360300/x360323,江西省萍乡市芦溪县, 27.630806 , 114.029828
萍乡市,上栗县,337300,p360000/c360300/x360322,江西省萍乡市上栗县, 27.880302 , 113.795311
温州市,瓯海区,325000,p330000/c330300/x330304,浙江省温州市瓯海区, 27.967367 , 120.612518
温州市,永嘉县,325100,p330000/c330300/x330324,浙江省温州市永嘉县, 28.150591 , 120.682144
温州市,瑞安市,325200,p330000/c330300/x330381,浙江省温州市瑞安市, 27.778657 , 120.655148
温州市,文成县,325300,p330000/c330300/x330328,浙江省温州市文成县, 27.787001 , 120.091496
温州市,平阳县,325400,p330000/c330300/x330326,浙江省温州市平阳县, 27.661918 , 120.565793
温州市,泰顺县,325500,p330000/c330300/x330329,浙江省温州市泰顺县, 27.556884 , 119.717649
温州市,乐清市,325600,p330000/c330300/x330382,浙江省温州市乐清市, 28.122909 , 120.962198
温州市,洞头县,325700,p330000/c330300/x330322,浙江省温州市洞头县, 27.836154 , 121.157249
温州市,苍南县,325800,p330000/c330300/x330327,浙江省温州市苍南县, 27.518280 , 120.425766
舟山市,嵊泗县,312450,p330000/c330900/x330922,浙江省舟山市嵊泗县, 30.725686 , 122.451382
舟山市,岱山县,316200,p330000/c330900/x330921,浙江省舟山市岱山县, 30.264139 , 122.226237
金华市,兰溪市,321100,p330000/c330700/x330781,浙江省金华市兰溪市, 29.208474 , 119.460468
金华市,武义县,321200,p330000/c330700/x330723,浙江省金华市武义县, 28.892706 , 119.816364
金华市,永康市,321300,p330000/c330700/x330784,浙江省金华市永康市, 28.888555 , 120.047651
金华市,义乌市,322000,p330000/c330700/x330782,浙江省金华市义乌市, 29.306841 , 120.075058
金华市,东阳市,322100,p330000/c330700/x330783,浙江省金华市东阳市, 29.289648 , 120.241566
金华市,浦江县,322200,p330000/c330700/x330726,浙江省金华市浦江县, 29.452477 , 119.892222
金华市,磐安县,322300,p330000/c330700/x330727,浙江省金华市磐安县, 29.054045 , 120.450186
大理州,大理市,671000,p530000/c532900/x532901,云南省大理州大理市, 25.591909 , 100.230098
大理州,洱源县,671200,p530000/c532900/x532930,云南省大理州洱源县, 26.111160 , 99.951054
大理州,剑川县,671300,p530000/c532900/x532931,云南省大理州剑川县, 26.537093 , 99.905542
大理州,鹤庆县,671500,p530000/c532900/x532932,云南省大理州鹤庆县, 26.560231 , 100.176498
大理州,宾川县,671600,p530000/c532900/x532924,云南省大理州宾川县, 25.827182 , 100.575412
大理州,祥云县,672100,p530000/c532900/x532923,云南省大理州祥云县, 25.483850 , 100.550946
大理州,巍山彝族回族自治县,672400,p530000/c532900/x532927,云南省大理州巍山彝族回族自治县, 25.227212 , 100.307175
大理州,漾濞彝族自治县,672500,p530000/c532900/x532922,云南省大理州漾濞彝族自治县, 25.670148 , 99.958015
大理州,永平县,672600,p530000/c532900/x532928,云南省大理州永平县, 25.464681 , 99.541236
大理州,云龙县,672700,p530000/c532900/x532929,云南省大理州云龙县, 25.885662 , 99.371048
大理州,弥渡县,675600,p530000/c532900/x532925,云南省大理州弥渡县, 25.343804 , 100.490991
大理州,南涧彝族自治县,675700,p530000/c532900/x532926,云南省大理州南涧彝族自治县, 25.043510 , 100.509036
衢州市,江山市,324100,p330000/c330800/x330881,浙江省衢州市江山市, 28.737223 , 118.626974
衢州市,常山县,324200,p330000/c330800/x330822,浙江省衢州市常山县, 28.901343 , 118.511287
衢州市,开化县,324300,p330000/c330800/x330824,浙江省衢州市开化县, 29.137337 , 118.415495
衢州市,龙游县,324400,p330000/c330800/x330825,浙江省衢州市龙游县, 29.028319 , 119.172304
绍兴市,诸暨市,311800,p330000/c330600/x330681,浙江省绍兴市诸暨市, 29.708692 , 120.246863
绍兴市,绍兴县,312000,p330000/c330600/x330621,浙江省绍兴市绍兴县, 30.077618 , 120.492981
绍兴市,上虞市,312300,p330000/c330600/x330682,浙江省绍兴市上虞市, 30.001878 , 120.857065
绍兴市,嵊州市,312400,p330000/c330600/x330683,浙江省绍兴市嵊州市, 29.561410 , 120.831026
绍兴市,新昌县,312500,p330000/c330600/x330624,浙江省绍兴市新昌县, 29.499832 , 120.903866
嘉兴市,嘉善县,314100,p330000/c330400/x330421,浙江省嘉兴市嘉善县, 30.830898 , 120.925850
嘉兴市,平湖市,314200,p330000/c330400/x330482,浙江省嘉兴市平湖市, 30.677233 , 121.015142
嘉兴市,海盐县,314300,p330000/c330400/x330424,浙江省嘉兴市海盐县, 30.526436 , 120.946263
嘉兴市,海宁市,314400,p330000/c330400/x330481,浙江省嘉兴市海宁市, 30.510659 , 120.680757
嘉兴市,桐乡市,314500,p330000/c330400/x330483,浙江省嘉兴市桐乡市, 30.630173 , 120.565099
湖州市,长兴县,313100,p330000/c330500/x330522,浙江省湖州市长兴县, 31.026666 , 119.910952
湖州市,德清县,313200,p330000/c330500/x330521,浙江省湖州市德清县, 30.542510 , 119.977401
湖州市,安吉县,313300,p330000/c330500/x330523,浙江省湖州市安吉县, 30.638675 , 119.680353
丽水市,缙云县,321400,p330000/c331100/x331122,浙江省丽水市缙云县, 28.659279 , 120.091573
丽水市,遂昌县,323300,p330000/c331100/x331123,浙江省丽水市遂昌县, 28.592119 , 119.276104
丽水市,松阳县,323400,p330000/c331100/x331124,浙江省丽水市松阳县, 28.449171 , 119.482015
丽水市,景宁县,323500,p330000/c331100/x331127,浙江省丽水市景宁县, 27.973312 , 119.635697
丽水市,云和县,323600,p330000/c331100/x331125,浙江省丽水市云和县, 28.115790 , 119.573397
丽水市,龙泉市,323700,p330000/c331100/x331181,浙江省丽水市龙泉市, 28.074623 , 119.141461
丽水市,庆元县,323800,p330000/c331100/x331126,浙江省丽水市庆元县, 27.619220 , 119.062590
丽水市,青田县,323900,p330000/c331100/x331121,浙江省丽水市青田县, 28.139965 , 120.289297
杭州市,余杭区,311100,p330000/c330100/x330110,浙江省杭州市余杭区, 30.419046 , 120.299402
杭州市,萧山区,311200,p330000/c330100/x330109,浙江省杭州市萧山区, 30.183806 , 120.264253
杭州市,临安市,311300,p330000/c330100/x330185,浙江省杭州市临安市, 30.233873 , 119.724733
杭州市,富阳市,311400,p330000/c330100/x330183,浙江省杭州市富阳市, 30.048735 , 119.960109
杭州市,桐庐县,311500,p330000/c330100/x330122,浙江省杭州市桐庐县, 29.793531 , 119.691434
杭州市,建德市,311600,p330000/c330100/x330182,浙江省杭州市建德市, 29.474877 , 119.281163
杭州市,淳安县,311700,p330000/c330100/x330127,浙江省杭州市淳安县, 29.608772 , 119.041864
宁波市,鄞州区,315100,p330000/c330200/x330212,浙江省宁波市鄞州区, 29.816511 , 121.546603
宁波市,镇海区,315200,p330000/c330200/x330211,浙江省宁波市镇海区, 29.948980 , 121.716380
宁波市,慈溪市,315300,p330000/c330200/x330282,浙江省宁波市慈溪市, 30.170780 , 121.266595
宁波市,余姚市,315400,p330000/c330200/x330281,浙江省宁波市余姚市, 30.037192 , 121.154634
宁波市,奉化市,315500,p330000/c330200/x330283,浙江省宁波市奉化市, 29.655143 , 121.406995
宁波市,宁海县,315600,p330000/c330200/x330226,浙江省宁波市宁海县, 29.287939 , 121.429477
宁波市,象山县,315700,p330000/c330200/x330225,浙江省宁波市象山县, 29.476705 , 121.869339
宁波市,北仑区,315800,p330000/c330200/x330206,浙江省宁波市北仑区, 29.898908 , 121.844746
台州市,临海市,317000,p330000/c331000/x331082,浙江省台州市临海市, 28.858449 , 121.145057
台州市,三门县,317100,p330000/c331000/x331022,浙江省台州市三门县, 29.054858 , 121.363541
台州市,天台县,317200,p330000/c331000/x331023,浙江省台州市天台县, 29.144079 , 121.006725
台州市,仙居县,317300,p330000/c331000/x331024,浙江省台州市仙居县, 28.846966 , 120.728802
台州市,温岭市,317500,p330000/c331000/x331081,浙江省台州市温岭市, 28.372506 , 121.385604
台州市,玉环县,317600,p330000/c331000/x331021,浙江省台州市玉环县, 28.135930 , 121.231805
台州市,黄岩区,318000,p330000/c331000/x331003,浙江省台州市黄岩区, 28.650117 , 121.261893
台州市,椒江区,318000,p330000/c331000/x331002,浙江省台州市椒江区, 28.673726 , 121.442676
台州市,路桥区,318000,p330000/c331000/x331004,浙江省台州市路桥区, 28.582614 , 121.365125
玉林市,北流市,537400,p450000/c450900/x450981,广西壮族自治区玉林市北流市, 22.708311 , 110.354215
玉林市,容县,537500,p450000/c450900/x450921,广西壮族自治区玉林市容县, 22.858724 , 110.530092
玉林市,博白县,537600,p450000/c450900/x450923,广西壮族自治区玉林市博白县, 22.273048 , 109.975985
玉林市,陆川县,537700,p450000/c450900/x450922,广西壮族自治区玉林市陆川县, 22.321048 , 110.264052
玉林市,兴业县,537800,p450000/c450900/x450924,广西壮族自治区玉林市兴业县, 22.736421 , 109.875304